<?xml version="1.0" encoding="UTF-8"?>
<gpx version="1.1" creator="Forest Hills Runners" xmlns="http://www.topografix.com/GPX/1/1">
  <metadata>
    <name>Downes Track + Pond Cooldown</name>
  </metadata>
  <trk>
    <name>Downes Track + Pond Cooldown</name>
    <trkseg>
      <trkpt lat="42.32313" lon="-71.11605"></trkpt>
      <trkpt lat="42.32174" lon="-71.11558"></trkpt>
      <trkpt lat="42.31992" lon="-71.11521"></trkpt>
      <trkpt lat="42.31805" lon="-71.11578"></trkpt>
      <trkpt lat="42.31664" lon="-71.11772"></trkpt>
      <trkpt lat="42.31472" lon="-71.11918"></trkpt>
      <trkpt lat="42.31304" lon="-71.11903"></trkpt>
      <trkpt lat="42.31161" lon="-71.11786"></trkpt>
      <trkpt lat="42.31282" lon="-71.11525"></trkpt>
      <trkpt lat="42.31491" lon="-71.11283"></trkpt>
      <trkpt lat="42.31742" lon="-71.11148"></trkpt>
      <trkpt lat="42.31929" lon="-71.11284"></trkpt>
      <trkpt lat="42.32104" lon="-71.11432"></trkpt>
      <trkpt lat="42.32313" lon="-71.11605"></trkpt>
    </trkseg>
  </trk>
</gpx>
