<?xml version='1.0' encoding='UTF-8'?>
<gpx xmlns="http://www.topografix.com/GPX/1/1" version="1.1" creator="Forest Hills Runners">
  <metadata>
    <name>Public Garden and Emerald Necklace Long Run</name><desc>Forest Hills Runners GPX route: A big long-run route that carries the Emerald Necklace all the way toward the Public Garden before looping back.</desc></metadata>
  <trk>
    <name>Public Garden and Emerald Necklace Long Run</name>
    <trkseg>
      <trkpt lat="42.30193" lon="-71.11362" />
      <trkpt lat="42.30192" lon="-71.11363" />
      <trkpt lat="42.30194" lon="-71.11371" />
      <trkpt lat="42.30198" lon="-71.11374" />
      <trkpt lat="42.30199" lon="-71.11375" />
      <trkpt lat="42.30196" lon="-71.11385" />
      <trkpt lat="42.30195" lon="-71.11415" />
      <trkpt lat="42.30196" lon="-71.11435" />
      <trkpt lat="42.30196" lon="-71.11438" />
      <trkpt lat="42.302" lon="-71.11446" />
      <trkpt lat="42.30196" lon="-71.11446" />
      <trkpt lat="42.30187" lon="-71.11446" />
      <trkpt lat="42.30172" lon="-71.11447" />
      <trkpt lat="42.30163" lon="-71.11448" />
      <trkpt lat="42.30159" lon="-71.11448" />
      <trkpt lat="42.30163" lon="-71.11456" />
      <trkpt lat="42.30163" lon="-71.11461" />
      <trkpt lat="42.30163" lon="-71.11463" />
      <trkpt lat="42.30162" lon="-71.11466" />
      <trkpt lat="42.3016" lon="-71.11471" />
      <trkpt lat="42.3016" lon="-71.11472" />
      <trkpt lat="42.30151" lon="-71.11468" />
      <trkpt lat="42.30142" lon="-71.11466" />
      <trkpt lat="42.30116" lon="-71.11469" />
      <trkpt lat="42.30114" lon="-71.11469" />
      <trkpt lat="42.30105" lon="-71.11473" />
      <trkpt lat="42.301" lon="-71.11473" />
      <trkpt lat="42.30095" lon="-71.11474" />
      <trkpt lat="42.30058" lon="-71.11477" />
      <trkpt lat="42.30053" lon="-71.11478" />
      <trkpt lat="42.30051" lon="-71.11478" />
      <trkpt lat="42.30024" lon="-71.11486" />
      <trkpt lat="42.30013" lon="-71.11486" />
      <trkpt lat="42.3001" lon="-71.11486" />
      <trkpt lat="42.29971" lon="-71.11508" />
      <trkpt lat="42.29968" lon="-71.11526" />
      <trkpt lat="42.29967" lon="-71.11535" />
      <trkpt lat="42.29954" lon="-71.11572" />
      <trkpt lat="42.29945" lon="-71.11588" />
      <trkpt lat="42.29938" lon="-71.11598" />
      <trkpt lat="42.29913" lon="-71.11634" />
      <trkpt lat="42.29887" lon="-71.11667" />
      <trkpt lat="42.29873" lon="-71.11694" />
      <trkpt lat="42.29873" lon="-71.11719" />
      <trkpt lat="42.29877" lon="-71.11748" />
      <trkpt lat="42.29898" lon="-71.118" />
      <trkpt lat="42.29922" lon="-71.11846" />
      <trkpt lat="42.29926" lon="-71.1186" />
      <trkpt lat="42.29927" lon="-71.11876" />
      <trkpt lat="42.29924" lon="-71.11887" />
      <trkpt lat="42.29922" lon="-71.11892" />
      <trkpt lat="42.29888" lon="-71.11929" />
      <trkpt lat="42.29871" lon="-71.11956" />
      <trkpt lat="42.29862" lon="-71.11962" />
      <trkpt lat="42.29848" lon="-71.11966" />
      <trkpt lat="42.29819" lon="-71.11981" />
      <trkpt lat="42.29804" lon="-71.11993" />
      <trkpt lat="42.29775" lon="-71.12022" />
      <trkpt lat="42.29773" lon="-71.12028" />
      <trkpt lat="42.29772" lon="-71.12043" />
      <trkpt lat="42.29772" lon="-71.12052" />
      <trkpt lat="42.29772" lon="-71.12058" />
      <trkpt lat="42.29768" lon="-71.12085" />
      <trkpt lat="42.29768" lon="-71.12102" />
      <trkpt lat="42.29764" lon="-71.12122" />
      <trkpt lat="42.29762" lon="-71.1215" />
      <trkpt lat="42.29763" lon="-71.12177" />
      <trkpt lat="42.29764" lon="-71.12184" />
      <trkpt lat="42.29767" lon="-71.12203" />
      <trkpt lat="42.29769" lon="-71.12213" />
      <trkpt lat="42.29784" lon="-71.12264" />
      <trkpt lat="42.2979" lon="-71.12274" />
      <trkpt lat="42.298" lon="-71.12282" />
      <trkpt lat="42.29802" lon="-71.12284" />
      <trkpt lat="42.29815" lon="-71.12293" />
      <trkpt lat="42.29839" lon="-71.12326" />
      <trkpt lat="42.29871" lon="-71.12345" />
      <trkpt lat="42.29881" lon="-71.12353" />
      <trkpt lat="42.29892" lon="-71.12367" />
      <trkpt lat="42.29904" lon="-71.1239" />
      <trkpt lat="42.29913" lon="-71.12426" />
      <trkpt lat="42.29924" lon="-71.12457" />
      <trkpt lat="42.29928" lon="-71.12466" />
      <trkpt lat="42.29946" lon="-71.12492" />
      <trkpt lat="42.29953" lon="-71.12499" />
      <trkpt lat="42.2997" lon="-71.12518" />
      <trkpt lat="42.29988" lon="-71.12533" />
      <trkpt lat="42.30012" lon="-71.12548" />
      <trkpt lat="42.30036" lon="-71.12558" />
      <trkpt lat="42.30055" lon="-71.12563" />
      <trkpt lat="42.30075" lon="-71.12565" />
      <trkpt lat="42.30092" lon="-71.12565" />
      <trkpt lat="42.30128" lon="-71.12557" />
      <trkpt lat="42.30156" lon="-71.12544" />
      <trkpt lat="42.30161" lon="-71.12536" />
      <trkpt lat="42.3017" lon="-71.12512" />
      <trkpt lat="42.30173" lon="-71.12504" />
      <trkpt lat="42.30176" lon="-71.12496" />
      <trkpt lat="42.30184" lon="-71.12467" />
      <trkpt lat="42.30212" lon="-71.12446" />
      <trkpt lat="42.30225" lon="-71.12431" />
      <trkpt lat="42.3023" lon="-71.12421" />
      <trkpt lat="42.30238" lon="-71.12402" />
      <trkpt lat="42.30244" lon="-71.12377" />
      <trkpt lat="42.3025" lon="-71.12327" />
      <trkpt lat="42.30249" lon="-71.12291" />
      <trkpt lat="42.30245" lon="-71.12259" />
      <trkpt lat="42.30238" lon="-71.1223" />
      <trkpt lat="42.3023" lon="-71.12202" />
      <trkpt lat="42.30198" lon="-71.12126" />
      <trkpt lat="42.30176" lon="-71.12082" />
      <trkpt lat="42.30154" lon="-71.12044" />
      <trkpt lat="42.3013" lon="-71.1201" />
      <trkpt lat="42.30126" lon="-71.12003" />
      <trkpt lat="42.30118" lon="-71.1199" />
      <trkpt lat="42.30114" lon="-71.11977" />
      <trkpt lat="42.30113" lon="-71.11966" />
      <trkpt lat="42.30119" lon="-71.11966" />
      <trkpt lat="42.3012" lon="-71.11954" />
      <trkpt lat="42.30124" lon="-71.11945" />
      <trkpt lat="42.30134" lon="-71.11931" />
      <trkpt lat="42.30142" lon="-71.11926" />
      <trkpt lat="42.30158" lon="-71.11932" />
      <trkpt lat="42.30162" lon="-71.11936" />
      <trkpt lat="42.3017" lon="-71.11946" />
      <trkpt lat="42.30181" lon="-71.1197" />
      <trkpt lat="42.30191" lon="-71.12005" />
      <trkpt lat="42.30198" lon="-71.12021" />
      <trkpt lat="42.30202" lon="-71.12017" />
      <trkpt lat="42.30206" lon="-71.12024" />
      <trkpt lat="42.30218" lon="-71.12039" />
      <trkpt lat="42.30238" lon="-71.12051" />
      <trkpt lat="42.30246" lon="-71.12054" />
      <trkpt lat="42.30291" lon="-71.12062" />
      <trkpt lat="42.30311" lon="-71.1207" />
      <trkpt lat="42.30331" lon="-71.12082" />
      <trkpt lat="42.30359" lon="-71.12108" />
      <trkpt lat="42.30386" lon="-71.12133" />
      <trkpt lat="42.30412" lon="-71.12153" />
      <trkpt lat="42.30439" lon="-71.12166" />
      <trkpt lat="42.30457" lon="-71.12172" />
      <trkpt lat="42.30483" lon="-71.12177" />
      <trkpt lat="42.30525" lon="-71.12178" />
      <trkpt lat="42.30558" lon="-71.12171" />
      <trkpt lat="42.30587" lon="-71.12162" />
      <trkpt lat="42.30621" lon="-71.12141" />
      <trkpt lat="42.30649" lon="-71.12116" />
      <trkpt lat="42.30667" lon="-71.12094" />
      <trkpt lat="42.30704" lon="-71.12039" />
      <trkpt lat="42.30718" lon="-71.1202" />
      <trkpt lat="42.30726" lon="-71.12013" />
      <trkpt lat="42.3073" lon="-71.12019" />
      <trkpt lat="42.30741" lon="-71.12008" />
      <trkpt lat="42.3076" lon="-71.11996" />
      <trkpt lat="42.30773" lon="-71.11994" />
      <trkpt lat="42.30781" lon="-71.11999" />
      <trkpt lat="42.30803" lon="-71.12016" />
      <trkpt lat="42.30849" lon="-71.12063" />
      <trkpt lat="42.30856" lon="-71.12076" />
      <trkpt lat="42.30863" lon="-71.12095" />
      <trkpt lat="42.30865" lon="-71.12112" />
      <trkpt lat="42.30864" lon="-71.12127" />
      <trkpt lat="42.30857" lon="-71.12158" />
      <trkpt lat="42.30857" lon="-71.12194" />
      <trkpt lat="42.30856" lon="-71.12195" />
      <trkpt lat="42.30855" lon="-71.12206" />
      <trkpt lat="42.30858" lon="-71.12207" />
      <trkpt lat="42.30862" lon="-71.12211" />
      <trkpt lat="42.30865" lon="-71.12214" />
      <trkpt lat="42.30883" lon="-71.12228" />
      <trkpt lat="42.30888" lon="-71.1223" />
      <trkpt lat="42.30897" lon="-71.12235" />
      <trkpt lat="42.30904" lon="-71.12238" />
      <trkpt lat="42.30913" lon="-71.12238" />
      <trkpt lat="42.30919" lon="-71.12237" />
      <trkpt lat="42.30921" lon="-71.12237" />
      <trkpt lat="42.30931" lon="-71.12227" />
      <trkpt lat="42.30947" lon="-71.12219" />
      <trkpt lat="42.30963" lon="-71.1222" />
      <trkpt lat="42.31009" lon="-71.12242" />
      <trkpt lat="42.31053" lon="-71.12259" />
      <trkpt lat="42.31107" lon="-71.12274" />
      <trkpt lat="42.31138" lon="-71.1228" />
      <trkpt lat="42.31203" lon="-71.12287" />
      <trkpt lat="42.31228" lon="-71.12287" />
      <trkpt lat="42.31245" lon="-71.12284" />
      <trkpt lat="42.31248" lon="-71.12283" />
      <trkpt lat="42.31253" lon="-71.12286" />
      <trkpt lat="42.31255" lon="-71.12283" />
      <trkpt lat="42.31262" lon="-71.12287" />
      <trkpt lat="42.31266" lon="-71.12289" />
      <trkpt lat="42.31268" lon="-71.12284" />
      <trkpt lat="42.3127" lon="-71.12284" />
      <trkpt lat="42.31273" lon="-71.12279" />
      <trkpt lat="42.31275" lon="-71.12275" />
      <trkpt lat="42.31276" lon="-71.12274" />
      <trkpt lat="42.31304" lon="-71.12257" />
      <trkpt lat="42.31329" lon="-71.12238" />
      <trkpt lat="42.31338" lon="-71.12236" />
      <trkpt lat="42.31345" lon="-71.12231" />
      <trkpt lat="42.31349" lon="-71.12229" />
      <trkpt lat="42.31356" lon="-71.12219" />
      <trkpt lat="42.31365" lon="-71.12212" />
      <trkpt lat="42.31368" lon="-71.12209" />
      <trkpt lat="42.3137" lon="-71.12207" />
      <trkpt lat="42.31374" lon="-71.12204" />
      <trkpt lat="42.31377" lon="-71.12202" />
      <trkpt lat="42.31379" lon="-71.12201" />
      <trkpt lat="42.31391" lon="-71.12192" />
      <trkpt lat="42.31398" lon="-71.12178" />
      <trkpt lat="42.31402" lon="-71.12156" />
      <trkpt lat="42.31402" lon="-71.12136" />
      <trkpt lat="42.31385" lon="-71.12089" />
      <trkpt lat="42.31389" lon="-71.12055" />
      <trkpt lat="42.31391" lon="-71.12038" />
      <trkpt lat="42.31393" lon="-71.12015" />
      <trkpt lat="42.31392" lon="-71.11997" />
      <trkpt lat="42.31394" lon="-71.1198" />
      <trkpt lat="42.31395" lon="-71.11976" />
      <trkpt lat="42.31519" lon="-71.1181" />
      <trkpt lat="42.3155" lon="-71.11763" />
      <trkpt lat="42.31573" lon="-71.11743" />
      <trkpt lat="42.31583" lon="-71.11738" />
      <trkpt lat="42.31596" lon="-71.11739" />
      <trkpt lat="42.31629" lon="-71.11738" />
      <trkpt lat="42.31685" lon="-71.11724" />
      <trkpt lat="42.31729" lon="-71.11726" />
      <trkpt lat="42.31731" lon="-71.11726" />
      <trkpt lat="42.31757" lon="-71.11722" />
      <trkpt lat="42.31822" lon="-71.11696" />
      <trkpt lat="42.31844" lon="-71.11696" />
      <trkpt lat="42.31854" lon="-71.11692" />
      <trkpt lat="42.31867" lon="-71.11694" />
      <trkpt lat="42.31876" lon="-71.11701" />
      <trkpt lat="42.31919" lon="-71.11726" />
      <trkpt lat="42.31978" lon="-71.11748" />
      <trkpt lat="42.3201" lon="-71.1174" />
      <trkpt lat="42.3202" lon="-71.11734" />
      <trkpt lat="42.3203" lon="-71.11726" />
      <trkpt lat="42.32053" lon="-71.11705" />
      <trkpt lat="42.32083" lon="-71.11689" />
      <trkpt lat="42.32096" lon="-71.11678" />
      <trkpt lat="42.32104" lon="-71.11678" />
      <trkpt lat="42.32112" lon="-71.11677" />
      <trkpt lat="42.32114" lon="-71.1168" />
      <trkpt lat="42.32118" lon="-71.11677" />
      <trkpt lat="42.32172" lon="-71.11692" />
      <trkpt lat="42.322" lon="-71.11698" />
      <trkpt lat="42.32203" lon="-71.11698" />
      <trkpt lat="42.3224" lon="-71.11699" />
      <trkpt lat="42.3225" lon="-71.11697" />
      <trkpt lat="42.32261" lon="-71.11691" />
      <trkpt lat="42.32278" lon="-71.11678" />
      <trkpt lat="42.32286" lon="-71.11668" />
      <trkpt lat="42.32295" lon="-71.11654" />
      <trkpt lat="42.32303" lon="-71.11636" />
      <trkpt lat="42.32327" lon="-71.1157" />
      <trkpt lat="42.32336" lon="-71.1155" />
      <trkpt lat="42.32348" lon="-71.11534" />
      <trkpt lat="42.32369" lon="-71.11514" />
      <trkpt lat="42.32379" lon="-71.11507" />
      <trkpt lat="42.32423" lon="-71.11496" />
      <trkpt lat="42.32431" lon="-71.11494" />
      <trkpt lat="42.32438" lon="-71.11488" />
      <trkpt lat="42.32445" lon="-71.1148" />
      <trkpt lat="42.32449" lon="-71.11477" />
      <trkpt lat="42.32454" lon="-71.11472" />
      <trkpt lat="42.32458" lon="-71.11469" />
      <trkpt lat="42.32471" lon="-71.11458" />
      <trkpt lat="42.32482" lon="-71.11444" />
      <trkpt lat="42.32493" lon="-71.11427" />
      <trkpt lat="42.32521" lon="-71.11372" />
      <trkpt lat="42.32533" lon="-71.11355" />
      <trkpt lat="42.32543" lon="-71.11348" />
      <trkpt lat="42.32558" lon="-71.11342" />
      <trkpt lat="42.32611" lon="-71.11333" />
      <trkpt lat="42.32631" lon="-71.11325" />
      <trkpt lat="42.32635" lon="-71.11323" />
      <trkpt lat="42.32713" lon="-71.11282" />
      <trkpt lat="42.32733" lon="-71.11268" />
      <trkpt lat="42.3276" lon="-71.11242" />
      <trkpt lat="42.32784" lon="-71.11228" />
      <trkpt lat="42.32801" lon="-71.11221" />
      <trkpt lat="42.32829" lon="-71.11213" />
      <trkpt lat="42.32862" lon="-71.11208" />
      <trkpt lat="42.32887" lon="-71.11209" />
      <trkpt lat="42.32915" lon="-71.11214" />
      <trkpt lat="42.32943" lon="-71.11226" />
      <trkpt lat="42.32971" lon="-71.11249" />
      <trkpt lat="42.33042" lon="-71.11306" />
      <trkpt lat="42.33071" lon="-71.11343" />
      <trkpt lat="42.33084" lon="-71.11352" />
      <trkpt lat="42.33107" lon="-71.1136" />
      <trkpt lat="42.33111" lon="-71.11368" />
      <trkpt lat="42.33118" lon="-71.11384" />
      <trkpt lat="42.33125" lon="-71.11384" />
      <trkpt lat="42.33135" lon="-71.11379" />
      <trkpt lat="42.33139" lon="-71.11376" />
      <trkpt lat="42.33142" lon="-71.11373" />
      <trkpt lat="42.33144" lon="-71.11373" />
      <trkpt lat="42.33157" lon="-71.11363" />
      <trkpt lat="42.33168" lon="-71.11339" />
      <trkpt lat="42.33173" lon="-71.11339" />
      <trkpt lat="42.33175" lon="-71.1134" />
      <trkpt lat="42.3318" lon="-71.11341" />
      <trkpt lat="42.33184" lon="-71.11342" />
      <trkpt lat="42.33186" lon="-71.11342" />
      <trkpt lat="42.33191" lon="-71.11344" />
      <trkpt lat="42.33196" lon="-71.11345" />
      <trkpt lat="42.33197" lon="-71.11345" />
      <trkpt lat="42.33198" lon="-71.11346" />
      <trkpt lat="42.33215" lon="-71.11349" />
      <trkpt lat="42.33225" lon="-71.11348" />
      <trkpt lat="42.33245" lon="-71.11338" />
      <trkpt lat="42.33255" lon="-71.11331" />
      <trkpt lat="42.33286" lon="-71.11297" />
      <trkpt lat="42.33311" lon="-71.11277" />
      <trkpt lat="42.33321" lon="-71.11273" />
      <trkpt lat="42.33327" lon="-71.11269" />
      <trkpt lat="42.33331" lon="-71.11267" />
      <trkpt lat="42.33343" lon="-71.11258" />
      <trkpt lat="42.33365" lon="-71.11253" />
      <trkpt lat="42.33377" lon="-71.11246" />
      <trkpt lat="42.33435" lon="-71.11189" />
      <trkpt lat="42.33444" lon="-71.11181" />
      <trkpt lat="42.33485" lon="-71.11137" />
      <trkpt lat="42.33575" lon="-71.11041" />
      <trkpt lat="42.33594" lon="-71.11024" />
      <trkpt lat="42.33607" lon="-71.11013" />
      <trkpt lat="42.3362" lon="-71.11017" />
      <trkpt lat="42.33633" lon="-71.1102" />
      <trkpt lat="42.33632" lon="-71.11028" />
      <trkpt lat="42.33636" lon="-71.11038" />
      <trkpt lat="42.33649" lon="-71.11055" />
      <trkpt lat="42.33672" lon="-71.11077" />
      <trkpt lat="42.33687" lon="-71.11086" />
      <trkpt lat="42.33696" lon="-71.11091" />
      <trkpt lat="42.33735" lon="-71.11109" />
      <trkpt lat="42.33739" lon="-71.1111" />
      <trkpt lat="42.33747" lon="-71.11112" />
      <trkpt lat="42.33767" lon="-71.11114" />
      <trkpt lat="42.33779" lon="-71.11112" />
      <trkpt lat="42.33846" lon="-71.11081" />
      <trkpt lat="42.33882" lon="-71.11076" />
      <trkpt lat="42.33935" lon="-71.11071" />
      <trkpt lat="42.33973" lon="-71.11061" />
      <trkpt lat="42.34017" lon="-71.11053" />
      <trkpt lat="42.34051" lon="-71.11041" />
      <trkpt lat="42.34075" lon="-71.11016" />
      <trkpt lat="42.34103" lon="-71.10979" />
      <trkpt lat="42.34111" lon="-71.10966" />
      <trkpt lat="42.34125" lon="-71.10937" />
      <trkpt lat="42.3416" lon="-71.10848" />
      <trkpt lat="42.34169" lon="-71.10834" />
      <trkpt lat="42.34178" lon="-71.10824" />
      <trkpt lat="42.34193" lon="-71.10791" />
      <trkpt lat="42.34203" lon="-71.10738" />
      <trkpt lat="42.34208" lon="-71.1072" />
      <trkpt lat="42.34212" lon="-71.10712" />
      <trkpt lat="42.34226" lon="-71.10695" />
      <trkpt lat="42.34248" lon="-71.1068" />
      <trkpt lat="42.34264" lon="-71.10664" />
      <trkpt lat="42.34318" lon="-71.10606" />
      <trkpt lat="42.3434" lon="-71.10568" />
      <trkpt lat="42.34352" lon="-71.10544" />
      <trkpt lat="42.34358" lon="-71.10531" />
      <trkpt lat="42.3438" lon="-71.10495" />
      <trkpt lat="42.34411" lon="-71.10453" />
      <trkpt lat="42.3441" lon="-71.10452" />
      <trkpt lat="42.34407" lon="-71.10449" />
      <trkpt lat="42.34404" lon="-71.10445" />
      <trkpt lat="42.34402" lon="-71.10443" />
      <trkpt lat="42.344" lon="-71.1044" />
      <trkpt lat="42.34398" lon="-71.10437" />
      <trkpt lat="42.34396" lon="-71.10434" />
      <trkpt lat="42.34394" lon="-71.10429" />
      <trkpt lat="42.34392" lon="-71.10424" />
      <trkpt lat="42.34391" lon="-71.1042" />
      <trkpt lat="42.34379" lon="-71.10426" />
      <trkpt lat="42.34366" lon="-71.10426" />
      <trkpt lat="42.34358" lon="-71.1042" />
      <trkpt lat="42.34349" lon="-71.1041" />
      <trkpt lat="42.34318" lon="-71.10367" />
      <trkpt lat="42.34292" lon="-71.1033" />
      <trkpt lat="42.34291" lon="-71.10326" />
      <trkpt lat="42.34288" lon="-71.10328" />
      <trkpt lat="42.34282" lon="-71.10334" />
      <trkpt lat="42.34276" lon="-71.10325" />
      <trkpt lat="42.34259" lon="-71.10307" />
      <trkpt lat="42.34261" lon="-71.10303" />
      <trkpt lat="42.34263" lon="-71.10299" />
      <trkpt lat="42.34124" lon="-71.1016" />
      <trkpt lat="42.34083" lon="-71.10116" />
      <trkpt lat="42.34073" lon="-71.101" />
      <trkpt lat="42.34067" lon="-71.10076" />
      <trkpt lat="42.34061" lon="-71.10058" />
      <trkpt lat="42.34057" lon="-71.10053" />
      <trkpt lat="42.34051" lon="-71.10037" />
      <trkpt lat="42.34048" lon="-71.10018" />
      <trkpt lat="42.34047" lon="-71.10017" />
      <trkpt lat="42.34044" lon="-71.10015" />
      <trkpt lat="42.34042" lon="-71.10013" />
      <trkpt lat="42.3404" lon="-71.1001" />
      <trkpt lat="42.34038" lon="-71.10007" />
      <trkpt lat="42.34036" lon="-71.10003" />
      <trkpt lat="42.34035" lon="-71.10001" />
      <trkpt lat="42.34032" lon="-71.09995" />
      <trkpt lat="42.33991" lon="-71.09939" />
      <trkpt lat="42.3398" lon="-71.09928" />
      <trkpt lat="42.33952" lon="-71.09911" />
      <trkpt lat="42.33937" lon="-71.09896" />
      <trkpt lat="42.33931" lon="-71.09885" />
      <trkpt lat="42.3392" lon="-71.09849" />
      <trkpt lat="42.33915" lon="-71.09841" />
      <trkpt lat="42.33898" lon="-71.09811" />
      <trkpt lat="42.3389" lon="-71.09786" />
      <trkpt lat="42.33888" lon="-71.09776" />
      <trkpt lat="42.33889" lon="-71.09766" />
      <trkpt lat="42.33893" lon="-71.09752" />
      <trkpt lat="42.33909" lon="-71.09726" />
      <trkpt lat="42.33928" lon="-71.09704" />
      <trkpt lat="42.33987" lon="-71.09654" />
      <trkpt lat="42.34015" lon="-71.09618" />
      <trkpt lat="42.34025" lon="-71.09596" />
      <trkpt lat="42.34051" lon="-71.09539" />
      <trkpt lat="42.34058" lon="-71.09513" />
      <trkpt lat="42.34065" lon="-71.09485" />
      <trkpt lat="42.34089" lon="-71.09413" />
      <trkpt lat="42.34101" lon="-71.09387" />
      <trkpt lat="42.34116" lon="-71.09346" />
      <trkpt lat="42.34147" lon="-71.09265" />
      <trkpt lat="42.34162" lon="-71.0925" />
      <trkpt lat="42.34181" lon="-71.09235" />
      <trkpt lat="42.34221" lon="-71.09194" />
      <trkpt lat="42.34242" lon="-71.09185" />
      <trkpt lat="42.34265" lon="-71.09187" />
      <trkpt lat="42.34293" lon="-71.09192" />
      <trkpt lat="42.34321" lon="-71.09191" />
      <trkpt lat="42.34327" lon="-71.09191" />
      <trkpt lat="42.34328" lon="-71.09186" />
      <trkpt lat="42.34335" lon="-71.09187" />
      <trkpt lat="42.34364" lon="-71.09181" />
      <trkpt lat="42.34375" lon="-71.09182" />
      <trkpt lat="42.3438" lon="-71.0918" />
      <trkpt lat="42.34392" lon="-71.09172" />
      <trkpt lat="42.34404" lon="-71.09161" />
      <trkpt lat="42.3443" lon="-71.09154" />
      <trkpt lat="42.34444" lon="-71.09148" />
      <trkpt lat="42.34481" lon="-71.09116" />
      <trkpt lat="42.34486" lon="-71.09113" />
      <trkpt lat="42.3451" lon="-71.09108" />
      <trkpt lat="42.34519" lon="-71.09106" />
      <trkpt lat="42.34548" lon="-71.09093" />
      <trkpt lat="42.34556" lon="-71.09092" />
      <trkpt lat="42.34574" lon="-71.09094" />
      <trkpt lat="42.34609" lon="-71.09103" />
      <trkpt lat="42.34642" lon="-71.09139" />
      <trkpt lat="42.34637" lon="-71.09114" />
      <trkpt lat="42.3463" lon="-71.09101" />
      <trkpt lat="42.34633" lon="-71.09097" />
      <trkpt lat="42.34635" lon="-71.09095" />
      <trkpt lat="42.34638" lon="-71.09091" />
      <trkpt lat="42.34639" lon="-71.09084" />
      <trkpt lat="42.3464" lon="-71.09079" />
      <trkpt lat="42.34641" lon="-71.09074" />
      <trkpt lat="42.34641" lon="-71.09069" />
      <trkpt lat="42.34642" lon="-71.09061" />
      <trkpt lat="42.34644" lon="-71.09052" />
      <trkpt lat="42.34642" lon="-71.09049" />
      <trkpt lat="42.34641" lon="-71.09046" />
      <trkpt lat="42.34639" lon="-71.09042" />
      <trkpt lat="42.34646" lon="-71.09034" />
      <trkpt lat="42.34653" lon="-71.09021" />
      <trkpt lat="42.34654" lon="-71.09018" />
      <trkpt lat="42.34666" lon="-71.09009" />
      <trkpt lat="42.34687" lon="-71.08931" />
      <trkpt lat="42.34689" lon="-71.08922" />
      <trkpt lat="42.34698" lon="-71.08918" />
      <trkpt lat="42.3471" lon="-71.08878" />
      <trkpt lat="42.34712" lon="-71.0887" />
      <trkpt lat="42.34714" lon="-71.08871" />
      <trkpt lat="42.34733" lon="-71.08802" />
      <trkpt lat="42.34733" lon="-71.088" />
      <trkpt lat="42.34735" lon="-71.08801" />
      <trkpt lat="42.34735" lon="-71.08798" />
      <trkpt lat="42.34736" lon="-71.08797" />
      <trkpt lat="42.34739" lon="-71.08799" />
      <trkpt lat="42.34758" lon="-71.08808" />
      <trkpt lat="42.34771" lon="-71.08816" />
      <trkpt lat="42.34781" lon="-71.0882" />
      <trkpt lat="42.34792" lon="-71.08822" />
      <trkpt lat="42.34801" lon="-71.08826" />
      <trkpt lat="42.34803" lon="-71.08827" />
      <trkpt lat="42.34813" lon="-71.08829" />
      <trkpt lat="42.3482" lon="-71.0883" />
      <trkpt lat="42.34823" lon="-71.08831" />
      <trkpt lat="42.34868" lon="-71.08854" />
      <trkpt lat="42.34876" lon="-71.08857" />
      <trkpt lat="42.3488" lon="-71.08859" />
      <trkpt lat="42.34891" lon="-71.08852" />
      <trkpt lat="42.34893" lon="-71.08839" />
      <trkpt lat="42.34914" lon="-71.08764" />
      <trkpt lat="42.3494" lon="-71.08673" />
      <trkpt lat="42.34955" lon="-71.08614" />
      <trkpt lat="42.34958" lon="-71.08605" />
      <trkpt lat="42.34964" lon="-71.08608" />
      <trkpt lat="42.34966" lon="-71.08599" />
      <trkpt lat="42.34978" lon="-71.08604" />
      <trkpt lat="42.34982" lon="-71.08588" />
      <trkpt lat="42.35" lon="-71.08524" />
      <trkpt lat="42.35003" lon="-71.08522" />
      <trkpt lat="42.35002" lon="-71.08517" />
      <trkpt lat="42.35014" lon="-71.08471" />
      <trkpt lat="42.35016" lon="-71.08462" />
      <trkpt lat="42.35018" lon="-71.08454" />
      <trkpt lat="42.35048" lon="-71.08344" />
      <trkpt lat="42.35052" lon="-71.08343" />
      <trkpt lat="42.35051" lon="-71.08341" />
      <trkpt lat="42.3505" lon="-71.08336" />
      <trkpt lat="42.35052" lon="-71.08331" />
      <trkpt lat="42.35052" lon="-71.08328" />
      <trkpt lat="42.35066" lon="-71.08276" />
      <trkpt lat="42.35069" lon="-71.08268" />
      <trkpt lat="42.35071" lon="-71.0826" />
      <trkpt lat="42.35117" lon="-71.08087" />
      <trkpt lat="42.35121" lon="-71.08085" />
      <trkpt lat="42.35119" lon="-71.0808" />
      <trkpt lat="42.35128" lon="-71.08047" />
      <trkpt lat="42.35131" lon="-71.08038" />
      <trkpt lat="42.35133" lon="-71.08029" />
      <trkpt lat="42.35165" lon="-71.0791" />
      <trkpt lat="42.35169" lon="-71.07908" />
      <trkpt lat="42.35167" lon="-71.07902" />
      <trkpt lat="42.35185" lon="-71.07835" />
      <trkpt lat="42.35189" lon="-71.07822" />
      <trkpt lat="42.35192" lon="-71.07812" />
      <trkpt lat="42.35198" lon="-71.07786" />
      <trkpt lat="42.35202" lon="-71.07784" />
      <trkpt lat="42.352" lon="-71.07779" />
      <trkpt lat="42.35223" lon="-71.07694" />
      <trkpt lat="42.35228" lon="-71.07694" />
      <trkpt lat="42.35233" lon="-71.07686" />
      <trkpt lat="42.35232" lon="-71.07679" />
      <trkpt lat="42.35228" lon="-71.07675" />
      <trkpt lat="42.35244" lon="-71.07617" />
      <trkpt lat="42.35246" lon="-71.07609" />
      <trkpt lat="42.35249" lon="-71.076" />
      <trkpt lat="42.35279" lon="-71.07487" />
      <trkpt lat="42.35282" lon="-71.07476" />
      <trkpt lat="42.35286" lon="-71.07474" />
      <trkpt lat="42.35284" lon="-71.07469" />
      <trkpt lat="42.35302" lon="-71.07402" />
      <trkpt lat="42.35304" lon="-71.07393" />
      <trkpt lat="42.35307" lon="-71.07384" />
      <trkpt lat="42.35343" lon="-71.07249" />
      <trkpt lat="42.35341" lon="-71.07243" />
      <trkpt lat="42.35343" lon="-71.07239" />
      <trkpt lat="42.35346" lon="-71.07239" />
      <trkpt lat="42.35365" lon="-71.07169" />
      <trkpt lat="42.35353" lon="-71.07163" />
      <trkpt lat="42.35357" lon="-71.07153" />
      <trkpt lat="42.3536" lon="-71.07142" />
      <trkpt lat="42.35371" lon="-71.07147" />
      <trkpt lat="42.35374" lon="-71.07137" />
      <trkpt lat="42.3538" lon="-71.07113" />
      <trkpt lat="42.35381" lon="-71.0711" />
      <trkpt lat="42.35386" lon="-71.07111" />
      <trkpt lat="42.35391" lon="-71.07107" />
      <trkpt lat="42.35395" lon="-71.071" />
      <trkpt lat="42.35431" lon="-71.07118" />
      <trkpt lat="42.35432" lon="-71.07124" />
      <trkpt lat="42.35436" lon="-71.0713" />
      <trkpt lat="42.35441" lon="-71.07134" />
      <trkpt lat="42.35448" lon="-71.07134" />
      <trkpt lat="42.35453" lon="-71.07129" />
      <trkpt lat="42.35472" lon="-71.0714" />
      <trkpt lat="42.35476" lon="-71.07142" />
      <trkpt lat="42.35481" lon="-71.07154" />
      <trkpt lat="42.35485" lon="-71.07172" />
      <trkpt lat="42.35518" lon="-71.07188" />
      <trkpt lat="42.35537" lon="-71.07196" />
      <trkpt lat="42.35539" lon="-71.07197" />
      <trkpt lat="42.35544" lon="-71.07199" />
      <trkpt lat="42.35546" lon="-71.072" />
      <trkpt lat="42.35548" lon="-71.07201" />
      <trkpt lat="42.35543" lon="-71.07221" />
      <trkpt lat="42.35541" lon="-71.07226" />
      <trkpt lat="42.35543" lon="-71.07235" />
      <trkpt lat="42.35543" lon="-71.0724" />
      <trkpt lat="42.35542" lon="-71.07243" />
      <trkpt lat="42.35544" lon="-71.07246" />
      <trkpt lat="42.35547" lon="-71.07248" />
      <trkpt lat="42.35552" lon="-71.07252" />
      <trkpt lat="42.35546" lon="-71.07275" />
      <trkpt lat="42.35569" lon="-71.07287" />
      <trkpt lat="42.35575" lon="-71.07291" />
      <trkpt lat="42.35588" lon="-71.07301" />
      <trkpt lat="42.3559" lon="-71.07304" />
      <trkpt lat="42.35589" lon="-71.07307" />
      <trkpt lat="42.35574" lon="-71.07296" />
      <trkpt lat="42.35573" lon="-71.07294" />
      <trkpt lat="42.35575" lon="-71.07293" />
      <trkpt lat="42.35579" lon="-71.07295" />
      <trkpt lat="42.35595" lon="-71.0731" />
      <trkpt lat="42.35605" lon="-71.07325" />
      <trkpt lat="42.3561" lon="-71.07336" />
      <trkpt lat="42.35615" lon="-71.07352" />
      <trkpt lat="42.35618" lon="-71.07372" />
      <trkpt lat="42.35617" lon="-71.07395" />
      <trkpt lat="42.35616" lon="-71.07401" />
      <trkpt lat="42.35614" lon="-71.07402" />
      <trkpt lat="42.35613" lon="-71.07399" />
      <trkpt lat="42.35616" lon="-71.07376" />
      <trkpt lat="42.35618" lon="-71.07377" />
      <trkpt lat="42.3562" lon="-71.0738" />
      <trkpt lat="42.35618" lon="-71.07402" />
      <trkpt lat="42.35617" lon="-71.0741" />
      <trkpt lat="42.35611" lon="-71.07427" />
      <trkpt lat="42.35609" lon="-71.07446" />
      <trkpt lat="42.35611" lon="-71.07462" />
      <trkpt lat="42.35613" lon="-71.07473" />
      <trkpt lat="42.35622" lon="-71.07492" />
      <trkpt lat="42.35613" lon="-71.07505" />
      <trkpt lat="42.35601" lon="-71.07525" />
      <trkpt lat="42.3559" lon="-71.07541" />
      <trkpt lat="42.35581" lon="-71.07561" />
      <trkpt lat="42.3556" lon="-71.07627" />
      <trkpt lat="42.35527" lon="-71.07746" />
      <trkpt lat="42.35482" lon="-71.07917" />
      <trkpt lat="42.35476" lon="-71.07939" />
      <trkpt lat="42.35471" lon="-71.07958" />
      <trkpt lat="42.3546" lon="-71.07997" />
      <trkpt lat="42.35459" lon="-71.08003" />
      <trkpt lat="42.35457" lon="-71.08008" />
      <trkpt lat="42.3545" lon="-71.08028" />
      <trkpt lat="42.35435" lon="-71.08059" />
      <trkpt lat="42.35431" lon="-71.08069" />
      <trkpt lat="42.35417" lon="-71.08098" />
      <trkpt lat="42.35414" lon="-71.08105" />
      <trkpt lat="42.354" lon="-71.08124" />
      <trkpt lat="42.35397" lon="-71.08132" />
      <trkpt lat="42.35322" lon="-71.08409" />
      <trkpt lat="42.35317" lon="-71.08431" />
      <trkpt lat="42.35317" lon="-71.08445" />
      <trkpt lat="42.35317" lon="-71.0846" />
      <trkpt lat="42.35316" lon="-71.08466" />
      <trkpt lat="42.35315" lon="-71.08496" />
      <trkpt lat="42.35315" lon="-71.08504" />
      <trkpt lat="42.35315" lon="-71.08524" />
      <trkpt lat="42.35311" lon="-71.08553" />
      <trkpt lat="42.35311" lon="-71.08555" />
      <trkpt lat="42.35308" lon="-71.08565" />
      <trkpt lat="42.35298" lon="-71.08601" />
      <trkpt lat="42.35295" lon="-71.08615" />
      <trkpt lat="42.35292" lon="-71.08626" />
      <trkpt lat="42.35288" lon="-71.08638" />
      <trkpt lat="42.35286" lon="-71.08646" />
      <trkpt lat="42.35285" lon="-71.08649" />
      <trkpt lat="42.35285" lon="-71.08661" />
      <trkpt lat="42.35284" lon="-71.08668" />
      <trkpt lat="42.35234" lon="-71.08856" />
      <trkpt lat="42.35228" lon="-71.08892" />
      <trkpt lat="42.35222" lon="-71.08935" />
      <trkpt lat="42.35218" lon="-71.08958" />
      <trkpt lat="42.35211" lon="-71.08978" />
      <trkpt lat="42.35216" lon="-71.08981" />
      <trkpt lat="42.35238" lon="-71.08991" />
      <trkpt lat="42.35235" lon="-71.09" />
      <trkpt lat="42.35208" lon="-71.08987" />
      <trkpt lat="42.35206" lon="-71.08995" />
      <trkpt lat="42.35179" lon="-71.08982" />
      <trkpt lat="42.35173" lon="-71.0898" />
      <trkpt lat="42.35169" lon="-71.08978" />
      <trkpt lat="42.35143" lon="-71.08965" />
      <trkpt lat="42.3514" lon="-71.08963" />
      <trkpt lat="42.35136" lon="-71.08974" />
      <trkpt lat="42.35097" lon="-71.08954" />
      <trkpt lat="42.35093" lon="-71.08952" />
      <trkpt lat="42.35084" lon="-71.08948" />
      <trkpt lat="42.35078" lon="-71.08944" />
      <trkpt lat="42.35045" lon="-71.08928" />
      <trkpt lat="42.35013" lon="-71.08912" />
      <trkpt lat="42.35007" lon="-71.08909" />
      <trkpt lat="42.35001" lon="-71.08906" />
      <trkpt lat="42.34972" lon="-71.08892" />
      <trkpt lat="42.34968" lon="-71.0889" />
      <trkpt lat="42.3494" lon="-71.08877" />
      <trkpt lat="42.34927" lon="-71.0887" />
      <trkpt lat="42.34918" lon="-71.08866" />
      <trkpt lat="42.34906" lon="-71.0886" />
      <trkpt lat="42.34891" lon="-71.08852" />
      <trkpt lat="42.3488" lon="-71.08859" />
      <trkpt lat="42.34868" lon="-71.08854" />
      <trkpt lat="42.34823" lon="-71.08831" />
      <trkpt lat="42.3482" lon="-71.0883" />
      <trkpt lat="42.34813" lon="-71.08829" />
      <trkpt lat="42.34803" lon="-71.08827" />
      <trkpt lat="42.34801" lon="-71.08826" />
      <trkpt lat="42.34792" lon="-71.08822" />
      <trkpt lat="42.34781" lon="-71.0882" />
      <trkpt lat="42.34781" lon="-71.08819" />
      <trkpt lat="42.34772" lon="-71.08815" />
      <trkpt lat="42.3477" lon="-71.08814" />
      <trkpt lat="42.34758" lon="-71.08806" />
      <trkpt lat="42.34758" lon="-71.08808" />
      <trkpt lat="42.34739" lon="-71.08799" />
      <trkpt lat="42.34736" lon="-71.08797" />
      <trkpt lat="42.34735" lon="-71.08798" />
      <trkpt lat="42.34735" lon="-71.08801" />
      <trkpt lat="42.34733" lon="-71.088" />
      <trkpt lat="42.34733" lon="-71.08802" />
      <trkpt lat="42.34714" lon="-71.08871" />
      <trkpt lat="42.34712" lon="-71.0887" />
      <trkpt lat="42.3471" lon="-71.08878" />
      <trkpt lat="42.34698" lon="-71.08918" />
      <trkpt lat="42.34689" lon="-71.08922" />
      <trkpt lat="42.34687" lon="-71.08931" />
      <trkpt lat="42.34666" lon="-71.09009" />
      <trkpt lat="42.34658" lon="-71.09038" />
      <trkpt lat="42.34652" lon="-71.0907" />
      <trkpt lat="42.34645" lon="-71.09069" />
      <trkpt lat="42.34641" lon="-71.09069" />
      <trkpt lat="42.34641" lon="-71.09074" />
      <trkpt lat="42.3464" lon="-71.09079" />
      <trkpt lat="42.34639" lon="-71.09084" />
      <trkpt lat="42.34638" lon="-71.09091" />
      <trkpt lat="42.34635" lon="-71.09095" />
      <trkpt lat="42.34633" lon="-71.09097" />
      <trkpt lat="42.3463" lon="-71.09101" />
      <trkpt lat="42.34637" lon="-71.09114" />
      <trkpt lat="42.34642" lon="-71.09139" />
      <trkpt lat="42.34648" lon="-71.09153" />
      <trkpt lat="42.34652" lon="-71.09164" />
      <trkpt lat="42.34658" lon="-71.09179" />
      <trkpt lat="42.34663" lon="-71.09203" />
      <trkpt lat="42.34666" lon="-71.09241" />
      <trkpt lat="42.34665" lon="-71.09257" />
      <trkpt lat="42.34662" lon="-71.09279" />
      <trkpt lat="42.34656" lon="-71.09301" />
      <trkpt lat="42.34649" lon="-71.09313" />
      <trkpt lat="42.34636" lon="-71.0933" />
      <trkpt lat="42.34564" lon="-71.09406" />
      <trkpt lat="42.34546" lon="-71.09419" />
      <trkpt lat="42.34535" lon="-71.09428" />
      <trkpt lat="42.34518" lon="-71.09436" />
      <trkpt lat="42.34472" lon="-71.09451" />
      <trkpt lat="42.34451" lon="-71.09455" />
      <trkpt lat="42.34436" lon="-71.09458" />
      <trkpt lat="42.34398" lon="-71.09459" />
      <trkpt lat="42.34375" lon="-71.09455" />
      <trkpt lat="42.34356" lon="-71.09451" />
      <trkpt lat="42.34325" lon="-71.09443" />
      <trkpt lat="42.34323" lon="-71.09444" />
      <trkpt lat="42.3432" lon="-71.09446" />
      <trkpt lat="42.34317" lon="-71.09448" />
      <trkpt lat="42.34314" lon="-71.09449" />
      <trkpt lat="42.34307" lon="-71.0945" />
      <trkpt lat="42.34285" lon="-71.09452" />
      <trkpt lat="42.34265" lon="-71.09465" />
      <trkpt lat="42.34236" lon="-71.09493" />
      <trkpt lat="42.34218" lon="-71.09518" />
      <trkpt lat="42.34204" lon="-71.09549" />
      <trkpt lat="42.3418" lon="-71.09636" />
      <trkpt lat="42.3418" lon="-71.09639" />
      <trkpt lat="42.34164" lon="-71.09696" />
      <trkpt lat="42.34157" lon="-71.09715" />
      <trkpt lat="42.34133" lon="-71.09747" />
      <trkpt lat="42.34088" lon="-71.09802" />
      <trkpt lat="42.34078" lon="-71.09818" />
      <trkpt lat="42.34073" lon="-71.09827" />
      <trkpt lat="42.34065" lon="-71.09849" />
      <trkpt lat="42.34058" lon="-71.09874" />
      <trkpt lat="42.34055" lon="-71.09892" />
      <trkpt lat="42.34054" lon="-71.09899" />
      <trkpt lat="42.34054" lon="-71.09903" />
      <trkpt lat="42.34055" lon="-71.09926" />
      <trkpt lat="42.34058" lon="-71.09941" />
      <trkpt lat="42.34072" lon="-71.09978" />
      <trkpt lat="42.34071" lon="-71.09981" />
      <trkpt lat="42.3407" lon="-71.09987" />
      <trkpt lat="42.3407" lon="-71.0999" />
      <trkpt lat="42.3407" lon="-71.09992" />
      <trkpt lat="42.34075" lon="-71.09995" />
      <trkpt lat="42.34095" lon="-71.10029" />
      <trkpt lat="42.34114" lon="-71.10053" />
      <trkpt lat="42.34148" lon="-71.10092" />
      <trkpt lat="42.34178" lon="-71.10121" />
      <trkpt lat="42.34252" lon="-71.10196" />
      <trkpt lat="42.3431" lon="-71.10255" />
      <trkpt lat="42.34313" lon="-71.10259" />
      <trkpt lat="42.34312" lon="-71.1026" />
      <trkpt lat="42.34313" lon="-71.10261" />
      <trkpt lat="42.34319" lon="-71.1027" />
      <trkpt lat="42.34326" lon="-71.10278" />
      <trkpt lat="42.34329" lon="-71.10282" />
      <trkpt lat="42.3433" lon="-71.10284" />
      <trkpt lat="42.34331" lon="-71.10288" />
      <trkpt lat="42.34347" lon="-71.10308" />
      <trkpt lat="42.34369" lon="-71.10335" />
      <trkpt lat="42.34386" lon="-71.10351" />
      <trkpt lat="42.34397" lon="-71.10368" />
      <trkpt lat="42.34401" lon="-71.10377" />
      <trkpt lat="42.34404" lon="-71.1039" />
      <trkpt lat="42.34402" lon="-71.10405" />
      <trkpt lat="42.34404" lon="-71.10407" />
      <trkpt lat="42.34416" lon="-71.10402" />
      <trkpt lat="42.3442" lon="-71.10401" />
      <trkpt lat="42.34423" lon="-71.104" />
      <trkpt lat="42.34425" lon="-71.104" />
      <trkpt lat="42.34428" lon="-71.10403" />
      <trkpt lat="42.3443" lon="-71.10406" />
      <trkpt lat="42.34432" lon="-71.10408" />
      <trkpt lat="42.34432" lon="-71.10413" />
      <trkpt lat="42.34432" lon="-71.10424" />
      <trkpt lat="42.34436" lon="-71.10435" />
      <trkpt lat="42.34459" lon="-71.10431" />
      <trkpt lat="42.34458" lon="-71.10467" />
      <trkpt lat="42.34457" lon="-71.10475" />
      <trkpt lat="42.34456" lon="-71.10478" />
      <trkpt lat="42.34442" lon="-71.10516" />
      <trkpt lat="42.34428" lon="-71.1055" />
      <trkpt lat="42.34398" lon="-71.10601" />
      <trkpt lat="42.34386" lon="-71.10619" />
      <trkpt lat="42.34343" lon="-71.10676" />
      <trkpt lat="42.34324" lon="-71.10707" />
      <trkpt lat="42.34313" lon="-71.10731" />
      <trkpt lat="42.34283" lon="-71.10793" />
      <trkpt lat="42.34262" lon="-71.10831" />
      <trkpt lat="42.34254" lon="-71.10842" />
      <trkpt lat="42.34232" lon="-71.10866" />
      <trkpt lat="42.34221" lon="-71.10878" />
      <trkpt lat="42.34204" lon="-71.10904" />
      <trkpt lat="42.34187" lon="-71.10937" />
      <trkpt lat="42.34176" lon="-71.10955" />
      <trkpt lat="42.34138" lon="-71.11" />
      <trkpt lat="42.34103" lon="-71.11031" />
      <trkpt lat="42.34072" lon="-71.11054" />
      <trkpt lat="42.34055" lon="-71.11065" />
      <trkpt lat="42.34027" lon="-71.11077" />
      <trkpt lat="42.34009" lon="-71.11087" />
      <trkpt lat="42.33974" lon="-71.11098" />
      <trkpt lat="42.33869" lon="-71.11122" />
      <trkpt lat="42.33829" lon="-71.11139" />
      <trkpt lat="42.33813" lon="-71.11145" />
      <trkpt lat="42.3377" lon="-71.11167" />
      <trkpt lat="42.3374" lon="-71.11179" />
      <trkpt lat="42.33717" lon="-71.11181" />
      <trkpt lat="42.33707" lon="-71.11179" />
      <trkpt lat="42.33702" lon="-71.11175" />
      <trkpt lat="42.33694" lon="-71.1117" />
      <trkpt lat="42.33688" lon="-71.11166" />
      <trkpt lat="42.33677" lon="-71.11155" />
      <trkpt lat="42.33671" lon="-71.11149" />
      <trkpt lat="42.33667" lon="-71.11145" />
      <trkpt lat="42.33661" lon="-71.11141" />
      <trkpt lat="42.33647" lon="-71.11135" />
      <trkpt lat="42.33619" lon="-71.11129" />
      <trkpt lat="42.33582" lon="-71.11122" />
      <trkpt lat="42.33566" lon="-71.11123" />
      <trkpt lat="42.33531" lon="-71.11127" />
      <trkpt lat="42.33527" lon="-71.11131" />
      <trkpt lat="42.33523" lon="-71.11136" />
      <trkpt lat="42.33519" lon="-71.1114" />
      <trkpt lat="42.33489" lon="-71.11171" />
      <trkpt lat="42.33487" lon="-71.11175" />
      <trkpt lat="42.33486" lon="-71.11174" />
      <trkpt lat="42.3348" lon="-71.11165" />
      <trkpt lat="42.33475" lon="-71.11155" />
      <trkpt lat="42.33462" lon="-71.11169" />
      <trkpt lat="42.33449" lon="-71.11181" />
      <trkpt lat="42.33444" lon="-71.11181" />
      <trkpt lat="42.33377" lon="-71.11246" />
      <trkpt lat="42.33365" lon="-71.11253" />
      <trkpt lat="42.33343" lon="-71.11258" />
      <trkpt lat="42.33331" lon="-71.11267" />
      <trkpt lat="42.33327" lon="-71.11269" />
      <trkpt lat="42.33321" lon="-71.11273" />
      <trkpt lat="42.33311" lon="-71.11277" />
      <trkpt lat="42.33286" lon="-71.11297" />
      <trkpt lat="42.33255" lon="-71.11331" />
      <trkpt lat="42.33245" lon="-71.11338" />
      <trkpt lat="42.33225" lon="-71.11348" />
      <trkpt lat="42.33215" lon="-71.11349" />
      <trkpt lat="42.33198" lon="-71.11346" />
      <trkpt lat="42.33197" lon="-71.11345" />
      <trkpt lat="42.33196" lon="-71.11345" />
      <trkpt lat="42.33191" lon="-71.11344" />
      <trkpt lat="42.33186" lon="-71.11342" />
      <trkpt lat="42.33184" lon="-71.11342" />
      <trkpt lat="42.3318" lon="-71.11341" />
      <trkpt lat="42.33175" lon="-71.1134" />
      <trkpt lat="42.33173" lon="-71.11339" />
      <trkpt lat="42.33168" lon="-71.11339" />
      <trkpt lat="42.33157" lon="-71.11363" />
      <trkpt lat="42.33144" lon="-71.11373" />
      <trkpt lat="42.33142" lon="-71.11373" />
      <trkpt lat="42.33139" lon="-71.11376" />
      <trkpt lat="42.33135" lon="-71.11379" />
      <trkpt lat="42.33125" lon="-71.11384" />
      <trkpt lat="42.33118" lon="-71.11384" />
      <trkpt lat="42.33064" lon="-71.11404" />
      <trkpt lat="42.33039" lon="-71.11414" />
      <trkpt lat="42.33038" lon="-71.11415" />
      <trkpt lat="42.32951" lon="-71.11467" />
      <trkpt lat="42.32945" lon="-71.11471" />
      <trkpt lat="42.32896" lon="-71.11505" />
      <trkpt lat="42.32876" lon="-71.1152" />
      <trkpt lat="42.3286" lon="-71.11528" />
      <trkpt lat="42.32836" lon="-71.11537" />
      <trkpt lat="42.32794" lon="-71.1155" />
      <trkpt lat="42.3273" lon="-71.11555" />
      <trkpt lat="42.32694" lon="-71.11571" />
      <trkpt lat="42.32658" lon="-71.11598" />
      <trkpt lat="42.32628" lon="-71.11611" />
      <trkpt lat="42.32615" lon="-71.11618" />
      <trkpt lat="42.32605" lon="-71.11628" />
      <trkpt lat="42.32597" lon="-71.11633" />
      <trkpt lat="42.32593" lon="-71.11633" />
      <trkpt lat="42.32588" lon="-71.11634" />
      <trkpt lat="42.32575" lon="-71.11637" />
      <trkpt lat="42.32556" lon="-71.11631" />
      <trkpt lat="42.32544" lon="-71.11629" />
      <trkpt lat="42.32503" lon="-71.11641" />
      <trkpt lat="42.32425" lon="-71.11647" />
      <trkpt lat="42.32404" lon="-71.11657" />
      <trkpt lat="42.32393" lon="-71.11668" />
      <trkpt lat="42.3239" lon="-71.11671" />
      <trkpt lat="42.32383" lon="-71.11683" />
      <trkpt lat="42.32377" lon="-71.11699" />
      <trkpt lat="42.32372" lon="-71.11726" />
      <trkpt lat="42.32357" lon="-71.11818" />
      <trkpt lat="42.32351" lon="-71.11843" />
      <trkpt lat="42.32345" lon="-71.11857" />
      <trkpt lat="42.32339" lon="-71.11867" />
      <trkpt lat="42.323" lon="-71.11926" />
      <trkpt lat="42.32296" lon="-71.11929" />
      <trkpt lat="42.3229" lon="-71.11929" />
      <trkpt lat="42.32283" lon="-71.1193" />
      <trkpt lat="42.32276" lon="-71.11938" />
      <trkpt lat="42.32263" lon="-71.11946" />
      <trkpt lat="42.32244" lon="-71.11949" />
      <trkpt lat="42.32216" lon="-71.11944" />
      <trkpt lat="42.32169" lon="-71.11944" />
      <trkpt lat="42.32163" lon="-71.1194" />
      <trkpt lat="42.32162" lon="-71.11942" />
      <trkpt lat="42.3216" lon="-71.11946" />
      <trkpt lat="42.32158" lon="-71.11948" />
      <trkpt lat="42.32151" lon="-71.11951" />
      <trkpt lat="42.32145" lon="-71.11954" />
      <trkpt lat="42.32139" lon="-71.11957" />
      <trkpt lat="42.32138" lon="-71.11958" />
      <trkpt lat="42.32123" lon="-71.11973" />
      <trkpt lat="42.32113" lon="-71.11982" />
      <trkpt lat="42.32122" lon="-71.11992" />
      <trkpt lat="42.32129" lon="-71.12011" />
      <trkpt lat="42.32133" lon="-71.12032" />
      <trkpt lat="42.32132" lon="-71.12055" />
      <trkpt lat="42.32123" lon="-71.12085" />
      <trkpt lat="42.32111" lon="-71.12102" />
      <trkpt lat="42.32088" lon="-71.12126" />
      <trkpt lat="42.32054" lon="-71.12172" />
      <trkpt lat="42.32044" lon="-71.12182" />
      <trkpt lat="42.32016" lon="-71.12203" />
      <trkpt lat="42.31997" lon="-71.12226" />
      <trkpt lat="42.31974" lon="-71.12267" />
      <trkpt lat="42.31951" lon="-71.12307" />
      <trkpt lat="42.31933" lon="-71.12333" />
      <trkpt lat="42.31917" lon="-71.1235" />
      <trkpt lat="42.31898" lon="-71.12361" />
      <trkpt lat="42.31875" lon="-71.12377" />
      <trkpt lat="42.31868" lon="-71.12378" />
      <trkpt lat="42.31844" lon="-71.12373" />
      <trkpt lat="42.31755" lon="-71.12343" />
      <trkpt lat="42.31716" lon="-71.12326" />
      <trkpt lat="42.31697" lon="-71.12317" />
      <trkpt lat="42.31686" lon="-71.12309" />
      <trkpt lat="42.31678" lon="-71.12306" />
      <trkpt lat="42.3164" lon="-71.1231" />
      <trkpt lat="42.31589" lon="-71.12287" />
      <trkpt lat="42.31564" lon="-71.1229" />
      <trkpt lat="42.31512" lon="-71.12304" />
      <trkpt lat="42.31495" lon="-71.12305" />
      <trkpt lat="42.31488" lon="-71.12302" />
      <trkpt lat="42.31478" lon="-71.12294" />
      <trkpt lat="42.31467" lon="-71.12278" />
      <trkpt lat="42.31464" lon="-71.12269" />
      <trkpt lat="42.31462" lon="-71.12247" />
      <trkpt lat="42.31466" lon="-71.12214" />
      <trkpt lat="42.31466" lon="-71.1221" />
      <trkpt lat="42.31465" lon="-71.12202" />
      <trkpt lat="42.31456" lon="-71.12184" />
      <trkpt lat="42.31446" lon="-71.12172" />
      <trkpt lat="42.31436" lon="-71.12146" />
      <trkpt lat="42.31429" lon="-71.12106" />
      <trkpt lat="42.31426" lon="-71.12095" />
      <trkpt lat="42.31406" lon="-71.12054" />
      <trkpt lat="42.31393" lon="-71.12015" />
      <trkpt lat="42.31392" lon="-71.11997" />
      <trkpt lat="42.31394" lon="-71.1198" />
      <trkpt lat="42.31395" lon="-71.11976" />
      <trkpt lat="42.31519" lon="-71.1181" />
      <trkpt lat="42.31523" lon="-71.11804" />
      <trkpt lat="42.3155" lon="-71.11763" />
      <trkpt lat="42.31573" lon="-71.11743" />
      <trkpt lat="42.31572" lon="-71.1174" />
    </trkseg>
  </trk>
</gpx>