<?xml version='1.0' encoding='UTF-8'?>
<gpx xmlns="http://www.topografix.com/GPX/1/1" version="1.1" creator="Forest Hills Runners">
  <metadata>
    <name>Bussey Hill Repeats</name><desc>Forest Hills Runners GPX route: A hill-focused route from Downes Field into the Arboretum, built around the Bussey Hill climb.</desc></metadata>
  <trk>
    <name>Bussey Hill Repeats</name>
    <trkseg>
      <trkpt lat="42.31569" lon="-71.11746" />
      <trkpt lat="42.3155" lon="-71.11763" />
      <trkpt lat="42.31519" lon="-71.1181" />
      <trkpt lat="42.31395" lon="-71.11976" />
      <trkpt lat="42.31394" lon="-71.1198" />
      <trkpt lat="42.31392" lon="-71.11997" />
      <trkpt lat="42.31393" lon="-71.12015" />
      <trkpt lat="42.31391" lon="-71.12038" />
      <trkpt lat="42.31385" lon="-71.12089" />
      <trkpt lat="42.31402" lon="-71.12136" />
      <trkpt lat="42.31402" lon="-71.12156" />
      <trkpt lat="42.31398" lon="-71.12178" />
      <trkpt lat="42.31391" lon="-71.12192" />
      <trkpt lat="42.31383" lon="-71.12198" />
      <trkpt lat="42.31379" lon="-71.12201" />
      <trkpt lat="42.31377" lon="-71.12202" />
      <trkpt lat="42.31374" lon="-71.12204" />
      <trkpt lat="42.3137" lon="-71.12207" />
      <trkpt lat="42.31368" lon="-71.12209" />
      <trkpt lat="42.31365" lon="-71.12212" />
      <trkpt lat="42.31356" lon="-71.12219" />
      <trkpt lat="42.31349" lon="-71.12229" />
      <trkpt lat="42.31345" lon="-71.12231" />
      <trkpt lat="42.31338" lon="-71.12236" />
      <trkpt lat="42.31329" lon="-71.12238" />
      <trkpt lat="42.31304" lon="-71.12257" />
      <trkpt lat="42.31276" lon="-71.12274" />
      <trkpt lat="42.31275" lon="-71.12275" />
      <trkpt lat="42.31273" lon="-71.12279" />
      <trkpt lat="42.3127" lon="-71.12284" />
      <trkpt lat="42.31268" lon="-71.12284" />
      <trkpt lat="42.31266" lon="-71.12289" />
      <trkpt lat="42.31262" lon="-71.12287" />
      <trkpt lat="42.31255" lon="-71.12283" />
      <trkpt lat="42.31253" lon="-71.12286" />
      <trkpt lat="42.31248" lon="-71.12283" />
      <trkpt lat="42.31228" lon="-71.12287" />
      <trkpt lat="42.31203" lon="-71.12287" />
      <trkpt lat="42.31138" lon="-71.1228" />
      <trkpt lat="42.31107" lon="-71.12274" />
      <trkpt lat="42.31053" lon="-71.12259" />
      <trkpt lat="42.31019" lon="-71.12246" />
      <trkpt lat="42.31009" lon="-71.12242" />
      <trkpt lat="42.30963" lon="-71.1222" />
      <trkpt lat="42.30947" lon="-71.12219" />
      <trkpt lat="42.30931" lon="-71.12227" />
      <trkpt lat="42.30921" lon="-71.12237" />
      <trkpt lat="42.30919" lon="-71.12237" />
      <trkpt lat="42.30913" lon="-71.12238" />
      <trkpt lat="42.30904" lon="-71.12238" />
      <trkpt lat="42.30897" lon="-71.12235" />
      <trkpt lat="42.30888" lon="-71.1223" />
      <trkpt lat="42.30883" lon="-71.12228" />
      <trkpt lat="42.30865" lon="-71.12214" />
      <trkpt lat="42.30862" lon="-71.12211" />
      <trkpt lat="42.30858" lon="-71.12207" />
      <trkpt lat="42.30855" lon="-71.12206" />
      <trkpt lat="42.30857" lon="-71.12194" />
      <trkpt lat="42.30857" lon="-71.12183" />
      <trkpt lat="42.30857" lon="-71.12158" />
      <trkpt lat="42.30864" lon="-71.12127" />
      <trkpt lat="42.30865" lon="-71.12112" />
      <trkpt lat="42.30863" lon="-71.12095" />
      <trkpt lat="42.30856" lon="-71.12076" />
      <trkpt lat="42.30849" lon="-71.12063" />
      <trkpt lat="42.30803" lon="-71.12016" />
      <trkpt lat="42.30781" lon="-71.11999" />
      <trkpt lat="42.30773" lon="-71.11994" />
      <trkpt lat="42.3076" lon="-71.11996" />
      <trkpt lat="42.30741" lon="-71.12008" />
      <trkpt lat="42.3073" lon="-71.12019" />
      <trkpt lat="42.30726" lon="-71.12013" />
      <trkpt lat="42.30718" lon="-71.1202" />
      <trkpt lat="42.30705" lon="-71.12037" />
      <trkpt lat="42.30704" lon="-71.12039" />
      <trkpt lat="42.30667" lon="-71.12094" />
      <trkpt lat="42.30649" lon="-71.12116" />
      <trkpt lat="42.30621" lon="-71.12141" />
      <trkpt lat="42.30587" lon="-71.12162" />
      <trkpt lat="42.30558" lon="-71.12171" />
      <trkpt lat="42.30525" lon="-71.12178" />
      <trkpt lat="42.30483" lon="-71.12177" />
      <trkpt lat="42.30457" lon="-71.12172" />
      <trkpt lat="42.30439" lon="-71.12166" />
      <trkpt lat="42.30412" lon="-71.12153" />
      <trkpt lat="42.30386" lon="-71.12133" />
      <trkpt lat="42.30331" lon="-71.12082" />
      <trkpt lat="42.30311" lon="-71.1207" />
      <trkpt lat="42.30291" lon="-71.12062" />
      <trkpt lat="42.30246" lon="-71.12054" />
      <trkpt lat="42.30238" lon="-71.12051" />
      <trkpt lat="42.30218" lon="-71.12039" />
      <trkpt lat="42.30206" lon="-71.12024" />
      <trkpt lat="42.30202" lon="-71.12017" />
      <trkpt lat="42.30198" lon="-71.12008" />
      <trkpt lat="42.3018" lon="-71.1195" />
      <trkpt lat="42.30172" lon="-71.11934" />
      <trkpt lat="42.30152" lon="-71.11918" />
      <trkpt lat="42.3014" lon="-71.1191" />
      <trkpt lat="42.30131" lon="-71.11923" />
      <trkpt lat="42.30122" lon="-71.11934" />
      <trkpt lat="42.30116" lon="-71.11946" />
      <trkpt lat="42.30111" lon="-71.11945" />
      <trkpt lat="42.30103" lon="-71.11948" />
      <trkpt lat="42.30096" lon="-71.11955" />
      <trkpt lat="42.30093" lon="-71.1198" />
      <trkpt lat="42.30096" lon="-71.1201" />
      <trkpt lat="42.30095" lon="-71.12015" />
      <trkpt lat="42.30091" lon="-71.12024" />
      <trkpt lat="42.30086" lon="-71.1203" />
      <trkpt lat="42.30078" lon="-71.12031" />
      <trkpt lat="42.30027" lon="-71.12025" />
      <trkpt lat="42.29997" lon="-71.1203" />
      <trkpt lat="42.29993" lon="-71.12031" />
      <trkpt lat="42.29984" lon="-71.12039" />
      <trkpt lat="42.29972" lon="-71.1205" />
      <trkpt lat="42.2991" lon="-71.12091" />
      <trkpt lat="42.29898" lon="-71.12096" />
      <trkpt lat="42.29861" lon="-71.12107" />
      <trkpt lat="42.29852" lon="-71.12118" />
      <trkpt lat="42.29855" lon="-71.12173" />
      <trkpt lat="42.29859" lon="-71.12195" />
      <trkpt lat="42.29872" lon="-71.12199" />
      <trkpt lat="42.29881" lon="-71.12201" />
      <trkpt lat="42.29889" lon="-71.12196" />
      <trkpt lat="42.29897" lon="-71.12196" />
      <trkpt lat="42.29909" lon="-71.12202" />
      <trkpt lat="42.29912" lon="-71.12195" />
      <trkpt lat="42.29924" lon="-71.12182" />
      <trkpt lat="42.29938" lon="-71.12174" />
      <trkpt lat="42.29945" lon="-71.12174" />
      <trkpt lat="42.29978" lon="-71.12195" />
      <trkpt lat="42.2999" lon="-71.1221" />
      <trkpt lat="42.29996" lon="-71.12222" />
      <trkpt lat="42.30006" lon="-71.12218" />
      <trkpt lat="42.30011" lon="-71.12218" />
      <trkpt lat="42.30028" lon="-71.12223" />
      <trkpt lat="42.30046" lon="-71.12239" />
      <trkpt lat="42.30055" lon="-71.12253" />
      <trkpt lat="42.30061" lon="-71.1227" />
      <trkpt lat="42.30061" lon="-71.1228" />
      <trkpt lat="42.30059" lon="-71.1229" />
      <trkpt lat="42.30051" lon="-71.123" />
      <trkpt lat="42.30047" lon="-71.12302" />
      <trkpt lat="42.3004" lon="-71.123" />
      <trkpt lat="42.30034" lon="-71.123" />
      <trkpt lat="42.30032" lon="-71.12298" />
      <trkpt lat="42.30027" lon="-71.12293" />
      <trkpt lat="42.30021" lon="-71.12297" />
      <trkpt lat="42.30018" lon="-71.12297" />
      <trkpt lat="42.30014" lon="-71.12293" />
      <trkpt lat="42.30003" lon="-71.12291" />
      <trkpt lat="42.29984" lon="-71.12268" />
      <trkpt lat="42.29979" lon="-71.12263" />
      <trkpt lat="42.2998" lon="-71.12272" />
      <trkpt lat="42.2998" lon="-71.12279" />
      <trkpt lat="42.29984" lon="-71.123" />
      <trkpt lat="42.29992" lon="-71.12325" />
      <trkpt lat="42.30003" lon="-71.12349" />
      <trkpt lat="42.3002" lon="-71.1238" />
      <trkpt lat="42.30026" lon="-71.12389" />
      <trkpt lat="42.30043" lon="-71.1241" />
      <trkpt lat="42.30068" lon="-71.12431" />
      <trkpt lat="42.30085" lon="-71.12442" />
      <trkpt lat="42.30129" lon="-71.12457" />
      <trkpt lat="42.3017" lon="-71.12463" />
      <trkpt lat="42.30184" lon="-71.12467" />
      <trkpt lat="42.30212" lon="-71.12446" />
      <trkpt lat="42.30225" lon="-71.12431" />
      <trkpt lat="42.3023" lon="-71.12421" />
      <trkpt lat="42.30238" lon="-71.12402" />
      <trkpt lat="42.30244" lon="-71.12377" />
      <trkpt lat="42.3025" lon="-71.12327" />
      <trkpt lat="42.30249" lon="-71.12294" />
      <trkpt lat="42.30249" lon="-71.12291" />
      <trkpt lat="42.30245" lon="-71.12259" />
      <trkpt lat="42.30238" lon="-71.1223" />
      <trkpt lat="42.3023" lon="-71.12202" />
      <trkpt lat="42.30198" lon="-71.12126" />
      <trkpt lat="42.30176" lon="-71.12082" />
      <trkpt lat="42.30154" lon="-71.12044" />
      <trkpt lat="42.30126" lon="-71.12003" />
      <trkpt lat="42.30118" lon="-71.1199" />
      <trkpt lat="42.30114" lon="-71.11977" />
      <trkpt lat="42.30113" lon="-71.11966" />
      <trkpt lat="42.30113" lon="-71.11961" />
      <trkpt lat="42.30114" lon="-71.11956" />
      <trkpt lat="42.30116" lon="-71.11946" />
      <trkpt lat="42.30122" lon="-71.11934" />
      <trkpt lat="42.3014" lon="-71.1191" />
      <trkpt lat="42.30152" lon="-71.11918" />
      <trkpt lat="42.30172" lon="-71.11934" />
      <trkpt lat="42.3018" lon="-71.1195" />
      <trkpt lat="42.30198" lon="-71.12008" />
      <trkpt lat="42.30202" lon="-71.12017" />
      <trkpt lat="42.30206" lon="-71.12024" />
      <trkpt lat="42.30218" lon="-71.12039" />
      <trkpt lat="42.30238" lon="-71.12051" />
      <trkpt lat="42.30246" lon="-71.12054" />
      <trkpt lat="42.30291" lon="-71.12062" />
      <trkpt lat="42.30311" lon="-71.1207" />
      <trkpt lat="42.30331" lon="-71.12082" />
      <trkpt lat="42.30386" lon="-71.12133" />
      <trkpt lat="42.30412" lon="-71.12153" />
      <trkpt lat="42.30439" lon="-71.12166" />
      <trkpt lat="42.30457" lon="-71.12172" />
      <trkpt lat="42.30483" lon="-71.12177" />
      <trkpt lat="42.30525" lon="-71.12178" />
      <trkpt lat="42.30558" lon="-71.12171" />
      <trkpt lat="42.30587" lon="-71.12162" />
      <trkpt lat="42.30621" lon="-71.12141" />
      <trkpt lat="42.30649" lon="-71.12116" />
      <trkpt lat="42.30667" lon="-71.12094" />
      <trkpt lat="42.30704" lon="-71.12039" />
      <trkpt lat="42.30718" lon="-71.1202" />
      <trkpt lat="42.30726" lon="-71.12013" />
      <trkpt lat="42.3073" lon="-71.12019" />
      <trkpt lat="42.30741" lon="-71.12008" />
      <trkpt lat="42.3076" lon="-71.11996" />
      <trkpt lat="42.30773" lon="-71.11994" />
      <trkpt lat="42.30781" lon="-71.11999" />
      <trkpt lat="42.30803" lon="-71.12016" />
      <trkpt lat="42.30849" lon="-71.12063" />
      <trkpt lat="42.30856" lon="-71.12076" />
      <trkpt lat="42.30863" lon="-71.12095" />
      <trkpt lat="42.30865" lon="-71.12112" />
      <trkpt lat="42.30864" lon="-71.12127" />
      <trkpt lat="42.30857" lon="-71.12158" />
      <trkpt lat="42.30857" lon="-71.12194" />
      <trkpt lat="42.30855" lon="-71.12206" />
      <trkpt lat="42.30858" lon="-71.12207" />
      <trkpt lat="42.30862" lon="-71.12211" />
      <trkpt lat="42.30865" lon="-71.12214" />
      <trkpt lat="42.30883" lon="-71.12228" />
      <trkpt lat="42.30888" lon="-71.1223" />
      <trkpt lat="42.30897" lon="-71.12235" />
      <trkpt lat="42.30904" lon="-71.12238" />
      <trkpt lat="42.30913" lon="-71.12238" />
      <trkpt lat="42.30919" lon="-71.12237" />
      <trkpt lat="42.30921" lon="-71.12237" />
      <trkpt lat="42.30931" lon="-71.12227" />
      <trkpt lat="42.30947" lon="-71.12219" />
      <trkpt lat="42.30963" lon="-71.1222" />
      <trkpt lat="42.31009" lon="-71.12242" />
      <trkpt lat="42.31053" lon="-71.12259" />
      <trkpt lat="42.31107" lon="-71.12274" />
      <trkpt lat="42.31138" lon="-71.1228" />
      <trkpt lat="42.31203" lon="-71.12287" />
      <trkpt lat="42.31228" lon="-71.12287" />
      <trkpt lat="42.31248" lon="-71.12283" />
      <trkpt lat="42.31253" lon="-71.12286" />
      <trkpt lat="42.31255" lon="-71.12283" />
      <trkpt lat="42.31262" lon="-71.12287" />
      <trkpt lat="42.31266" lon="-71.12289" />
      <trkpt lat="42.31268" lon="-71.12284" />
      <trkpt lat="42.3127" lon="-71.12284" />
      <trkpt lat="42.31273" lon="-71.12279" />
      <trkpt lat="42.31275" lon="-71.12275" />
      <trkpt lat="42.31276" lon="-71.12274" />
      <trkpt lat="42.313" lon="-71.12259" />
      <trkpt lat="42.31304" lon="-71.12257" />
      <trkpt lat="42.31329" lon="-71.12238" />
      <trkpt lat="42.31338" lon="-71.12236" />
      <trkpt lat="42.31345" lon="-71.12231" />
      <trkpt lat="42.31349" lon="-71.12229" />
      <trkpt lat="42.31356" lon="-71.12219" />
      <trkpt lat="42.31365" lon="-71.12212" />
      <trkpt lat="42.31368" lon="-71.12209" />
      <trkpt lat="42.3137" lon="-71.12207" />
      <trkpt lat="42.31374" lon="-71.12204" />
      <trkpt lat="42.31377" lon="-71.12202" />
      <trkpt lat="42.31379" lon="-71.12201" />
      <trkpt lat="42.31391" lon="-71.12192" />
      <trkpt lat="42.31398" lon="-71.12178" />
      <trkpt lat="42.31402" lon="-71.12156" />
      <trkpt lat="42.31402" lon="-71.12136" />
      <trkpt lat="42.31385" lon="-71.12089" />
      <trkpt lat="42.31391" lon="-71.12038" />
      <trkpt lat="42.31393" lon="-71.12015" />
      <trkpt lat="42.31392" lon="-71.11997" />
      <trkpt lat="42.31394" lon="-71.1198" />
      <trkpt lat="42.31395" lon="-71.11976" />
      <trkpt lat="42.314" lon="-71.11955" />
      <trkpt lat="42.31416" lon="-71.11928" />
      <trkpt lat="42.31504" lon="-71.11818" />
      <trkpt lat="42.31517" lon="-71.11798" />
      <trkpt lat="42.31536" lon="-71.11763" />
      <trkpt lat="42.31547" lon="-71.1174" />
      <trkpt lat="42.31552" lon="-71.11732" />
    </trkseg>
  </trk>
</gpx>