<?xml version='1.0' encoding='UTF-8'?>
<gpx xmlns="http://www.topografix.com/GPX/1/1" version="1.1" creator="Forest Hills Runners">
  <metadata>
    <name>Jamaica Pond Short Loop</name><desc>Forest Hills Runners GPX route: A compact pond loop from Downes Field for warmups, cooldowns, or easy extra miles.</desc></metadata>
  <trk>
    <name>Jamaica Pond Short Loop</name>
    <trkseg>
      <trkpt lat="42.31567" lon="-71.11748" />
      <trkpt lat="42.31573" lon="-71.11743" />
      <trkpt lat="42.31583" lon="-71.11738" />
      <trkpt lat="42.31596" lon="-71.11739" />
      <trkpt lat="42.31629" lon="-71.11738" />
      <trkpt lat="42.31685" lon="-71.11724" />
      <trkpt lat="42.31729" lon="-71.11726" />
      <trkpt lat="42.31757" lon="-71.11722" />
      <trkpt lat="42.31822" lon="-71.11696" />
      <trkpt lat="42.31844" lon="-71.11696" />
      <trkpt lat="42.31856" lon="-71.11726" />
      <trkpt lat="42.31861" lon="-71.11755" />
      <trkpt lat="42.31865" lon="-71.11762" />
      <trkpt lat="42.31894" lon="-71.11807" />
      <trkpt lat="42.31908" lon="-71.11839" />
      <trkpt lat="42.3191" lon="-71.11849" />
      <trkpt lat="42.31908" lon="-71.11864" />
      <trkpt lat="42.31902" lon="-71.11897" />
      <trkpt lat="42.31901" lon="-71.11915" />
      <trkpt lat="42.31901" lon="-71.11981" />
      <trkpt lat="42.31901" lon="-71.12012" />
      <trkpt lat="42.31903" lon="-71.12021" />
      <trkpt lat="42.31911" lon="-71.12032" />
      <trkpt lat="42.3192" lon="-71.1204" />
      <trkpt lat="42.31928" lon="-71.12042" />
      <trkpt lat="42.31933" lon="-71.12042" />
      <trkpt lat="42.31951" lon="-71.12039" />
      <trkpt lat="42.3197" lon="-71.12032" />
      <trkpt lat="42.3198" lon="-71.12025" />
      <trkpt lat="42.32001" lon="-71.12002" />
      <trkpt lat="42.32011" lon="-71.11986" />
      <trkpt lat="42.32025" lon="-71.11972" />
      <trkpt lat="42.32034" lon="-71.11972" />
      <trkpt lat="42.32057" lon="-71.11981" />
      <trkpt lat="42.321" lon="-71.11979" />
      <trkpt lat="42.32113" lon="-71.11982" />
      <trkpt lat="42.32122" lon="-71.11992" />
      <trkpt lat="42.32129" lon="-71.12011" />
      <trkpt lat="42.32133" lon="-71.12032" />
      <trkpt lat="42.32132" lon="-71.12055" />
      <trkpt lat="42.32123" lon="-71.12085" />
      <trkpt lat="42.32111" lon="-71.12102" />
      <trkpt lat="42.32088" lon="-71.12126" />
      <trkpt lat="42.32054" lon="-71.12172" />
      <trkpt lat="42.32044" lon="-71.12182" />
      <trkpt lat="42.32016" lon="-71.12203" />
      <trkpt lat="42.31997" lon="-71.12226" />
      <trkpt lat="42.31974" lon="-71.12267" />
      <trkpt lat="42.31951" lon="-71.12307" />
      <trkpt lat="42.31933" lon="-71.12333" />
      <trkpt lat="42.31929" lon="-71.12337" />
      <trkpt lat="42.31917" lon="-71.1235" />
      <trkpt lat="42.31898" lon="-71.12361" />
      <trkpt lat="42.31875" lon="-71.12377" />
      <trkpt lat="42.31868" lon="-71.12378" />
      <trkpt lat="42.31844" lon="-71.12373" />
      <trkpt lat="42.31755" lon="-71.12343" />
      <trkpt lat="42.31716" lon="-71.12326" />
      <trkpt lat="42.31697" lon="-71.12317" />
      <trkpt lat="42.31686" lon="-71.12309" />
      <trkpt lat="42.31678" lon="-71.12306" />
      <trkpt lat="42.3164" lon="-71.1231" />
      <trkpt lat="42.31589" lon="-71.12287" />
      <trkpt lat="42.31564" lon="-71.1229" />
      <trkpt lat="42.31512" lon="-71.12304" />
      <trkpt lat="42.31495" lon="-71.12305" />
      <trkpt lat="42.31488" lon="-71.12302" />
      <trkpt lat="42.31478" lon="-71.12294" />
      <trkpt lat="42.31467" lon="-71.12278" />
      <trkpt lat="42.31464" lon="-71.12269" />
      <trkpt lat="42.31462" lon="-71.12247" />
      <trkpt lat="42.31466" lon="-71.12214" />
      <trkpt lat="42.31465" lon="-71.12202" />
      <trkpt lat="42.31456" lon="-71.12184" />
      <trkpt lat="42.31455" lon="-71.12184" />
      <trkpt lat="42.31446" lon="-71.12172" />
      <trkpt lat="42.31436" lon="-71.12146" />
      <trkpt lat="42.31429" lon="-71.12106" />
      <trkpt lat="42.31426" lon="-71.12095" />
      <trkpt lat="42.31406" lon="-71.12054" />
      <trkpt lat="42.31393" lon="-71.12015" />
      <trkpt lat="42.31392" lon="-71.11997" />
      <trkpt lat="42.31394" lon="-71.1198" />
      <trkpt lat="42.31395" lon="-71.11976" />
      <trkpt lat="42.31519" lon="-71.1181" />
      <trkpt lat="42.3155" lon="-71.11763" />
      <trkpt lat="42.3157" lon="-71.11745" />
    </trkseg>
  </trk>
</gpx>