<?xml version='1.0' encoding='UTF-8'?>
<gpx xmlns="http://www.topografix.com/GPX/1/1" version="1.1" creator="Forest Hills Runners">
  <metadata>
    <name>Saturday Arboretum Carriage Roads</name><desc>Forest Hills Runners GPX route: A Saturday favorite through the Arnold Arboretum carriage roads with enough climbing to make the coffee taste earned.</desc></metadata>
  <trk>
    <name>Saturday Arboretum Carriage Roads</name>
    <trkseg>
      <trkpt lat="42.30172" lon="-71.11382" />
      <trkpt lat="42.30019" lon="-71.11518" />
      <trkpt lat="42.29858" lon="-71.11658" />
      <trkpt lat="42.29742" lon="-71.11923" />
      <trkpt lat="42.29719" lon="-71.12213" />
      <trkpt lat="42.29862" lon="-71.12462" />
      <trkpt lat="42.30074" lon="-71.12638" />
      <trkpt lat="42.30312" lon="-71.12732" />
      <trkpt lat="42.30568" lon="-71.12708" />
      <trkpt lat="42.30748" lon="-71.12513" />
      <trkpt lat="42.30808" lon="-71.12246" />
      <trkpt lat="42.30668" lon="-71.12024" />
      <trkpt lat="42.30426" lon="-71.11891" />
      <trkpt lat="42.30182" lon="-71.11947" />
      <trkpt lat="42.29952" lon="-71.12092" />
      <trkpt lat="42.29789" lon="-71.11958" />
      <trkpt lat="42.29842" lon="-71.11686" />
      <trkpt lat="42.30044" lon="-71.11487" />
      <trkpt lat="42.30172" lon="-71.11382" />
    </trkseg>
  </trk>
</gpx>