<?xml version='1.0' encoding='UTF-8'?>
<gpx xmlns="http://www.topografix.com/GPX/1/1" version="1.1" creator="Forest Hills Runners">
  <metadata>
    <name>Tuesday Five Mile Loop</name><desc>Forest Hills Runners GPX route: A steady Tuesday loop from Downes Field through Jamaica Pond and the surrounding neighborhood streets.</desc></metadata>
  <trk>
    <name>Tuesday Five Mile Loop</name>
    <trkseg>
      <trkpt lat="42.3157" lon="-71.11745" />
      <trkpt lat="42.31573" lon="-71.11743" />
      <trkpt lat="42.31583" lon="-71.11738" />
      <trkpt lat="42.31596" lon="-71.11739" />
      <trkpt lat="42.31629" lon="-71.11738" />
      <trkpt lat="42.31685" lon="-71.11724" />
      <trkpt lat="42.31729" lon="-71.11726" />
      <trkpt lat="42.31757" lon="-71.11722" />
      <trkpt lat="42.31822" lon="-71.11696" />
      <trkpt lat="42.31844" lon="-71.11696" />
      <trkpt lat="42.31856" lon="-71.11726" />
      <trkpt lat="42.31861" lon="-71.11755" />
      <trkpt lat="42.31865" lon="-71.11762" />
      <trkpt lat="42.31894" lon="-71.11807" />
      <trkpt lat="42.31908" lon="-71.11839" />
      <trkpt lat="42.3191" lon="-71.11849" />
      <trkpt lat="42.31908" lon="-71.11864" />
      <trkpt lat="42.31902" lon="-71.11897" />
      <trkpt lat="42.31901" lon="-71.11915" />
      <trkpt lat="42.31901" lon="-71.12012" />
      <trkpt lat="42.31903" lon="-71.12021" />
      <trkpt lat="42.31911" lon="-71.12032" />
      <trkpt lat="42.3192" lon="-71.1204" />
      <trkpt lat="42.31928" lon="-71.12042" />
      <trkpt lat="42.31933" lon="-71.12042" />
      <trkpt lat="42.31951" lon="-71.12039" />
      <trkpt lat="42.3197" lon="-71.12032" />
      <trkpt lat="42.3198" lon="-71.12025" />
      <trkpt lat="42.32001" lon="-71.12002" />
      <trkpt lat="42.32011" lon="-71.11986" />
      <trkpt lat="42.32025" lon="-71.11972" />
      <trkpt lat="42.32034" lon="-71.11972" />
      <trkpt lat="42.32057" lon="-71.11981" />
      <trkpt lat="42.32076" lon="-71.1198" />
      <trkpt lat="42.321" lon="-71.11979" />
      <trkpt lat="42.32113" lon="-71.11982" />
      <trkpt lat="42.32138" lon="-71.11958" />
      <trkpt lat="42.32139" lon="-71.11957" />
      <trkpt lat="42.32145" lon="-71.11954" />
      <trkpt lat="42.32151" lon="-71.11951" />
      <trkpt lat="42.32158" lon="-71.11948" />
      <trkpt lat="42.3216" lon="-71.11946" />
      <trkpt lat="42.32162" lon="-71.11942" />
      <trkpt lat="42.32163" lon="-71.1194" />
      <trkpt lat="42.32169" lon="-71.11944" />
      <trkpt lat="42.32216" lon="-71.11944" />
      <trkpt lat="42.32244" lon="-71.11949" />
      <trkpt lat="42.32263" lon="-71.11946" />
      <trkpt lat="42.32276" lon="-71.11938" />
      <trkpt lat="42.32283" lon="-71.1193" />
      <trkpt lat="42.3229" lon="-71.11929" />
      <trkpt lat="42.32296" lon="-71.11929" />
      <trkpt lat="42.323" lon="-71.11926" />
      <trkpt lat="42.32339" lon="-71.11867" />
      <trkpt lat="42.32345" lon="-71.11857" />
      <trkpt lat="42.32354" lon="-71.11849" />
      <trkpt lat="42.3236" lon="-71.11841" />
      <trkpt lat="42.32365" lon="-71.11833" />
      <trkpt lat="42.32371" lon="-71.11816" />
      <trkpt lat="42.32375" lon="-71.11797" />
      <trkpt lat="42.32375" lon="-71.11789" />
      <trkpt lat="42.32371" lon="-71.11761" />
      <trkpt lat="42.32376" lon="-71.11732" />
      <trkpt lat="42.32383" lon="-71.11703" />
      <trkpt lat="42.32394" lon="-71.11683" />
      <trkpt lat="42.324" lon="-71.11676" />
      <trkpt lat="42.3241" lon="-71.11667" />
      <trkpt lat="42.32428" lon="-71.11657" />
      <trkpt lat="42.32447" lon="-71.11653" />
      <trkpt lat="42.32457" lon="-71.11654" />
      <trkpt lat="42.32488" lon="-71.11665" />
      <trkpt lat="42.32501" lon="-71.11665" />
      <trkpt lat="42.32515" lon="-71.11666" />
      <trkpt lat="42.32533" lon="-71.1166" />
      <trkpt lat="42.32558" lon="-71.11644" />
      <trkpt lat="42.32575" lon="-71.11637" />
      <trkpt lat="42.32588" lon="-71.11634" />
      <trkpt lat="42.32593" lon="-71.11633" />
      <trkpt lat="42.32597" lon="-71.11633" />
      <trkpt lat="42.32605" lon="-71.11628" />
      <trkpt lat="42.32615" lon="-71.11618" />
      <trkpt lat="42.32628" lon="-71.11611" />
      <trkpt lat="42.32658" lon="-71.11598" />
      <trkpt lat="42.32694" lon="-71.11571" />
      <trkpt lat="42.3273" lon="-71.11555" />
      <trkpt lat="42.32794" lon="-71.1155" />
      <trkpt lat="42.32836" lon="-71.11537" />
      <trkpt lat="42.3286" lon="-71.11528" />
      <trkpt lat="42.32876" lon="-71.1152" />
      <trkpt lat="42.32896" lon="-71.11505" />
      <trkpt lat="42.32945" lon="-71.11471" />
      <trkpt lat="42.32951" lon="-71.11467" />
      <trkpt lat="42.33039" lon="-71.11414" />
      <trkpt lat="42.33064" lon="-71.11404" />
      <trkpt lat="42.33104" lon="-71.11389" />
      <trkpt lat="42.33118" lon="-71.11384" />
      <trkpt lat="42.33125" lon="-71.11384" />
      <trkpt lat="42.33135" lon="-71.11379" />
      <trkpt lat="42.33139" lon="-71.11376" />
      <trkpt lat="42.33142" lon="-71.11373" />
      <trkpt lat="42.33144" lon="-71.11373" />
      <trkpt lat="42.33157" lon="-71.11363" />
      <trkpt lat="42.33168" lon="-71.11339" />
      <trkpt lat="42.33173" lon="-71.11339" />
      <trkpt lat="42.33175" lon="-71.1134" />
      <trkpt lat="42.3318" lon="-71.11341" />
      <trkpt lat="42.33184" lon="-71.11342" />
      <trkpt lat="42.33186" lon="-71.11342" />
      <trkpt lat="42.33191" lon="-71.11344" />
      <trkpt lat="42.33196" lon="-71.11345" />
      <trkpt lat="42.33197" lon="-71.11345" />
      <trkpt lat="42.33198" lon="-71.11346" />
      <trkpt lat="42.33215" lon="-71.11349" />
      <trkpt lat="42.33225" lon="-71.11348" />
      <trkpt lat="42.33245" lon="-71.11338" />
      <trkpt lat="42.33255" lon="-71.11331" />
      <trkpt lat="42.33286" lon="-71.11297" />
      <trkpt lat="42.33311" lon="-71.11277" />
      <trkpt lat="42.33321" lon="-71.11273" />
      <trkpt lat="42.33327" lon="-71.11269" />
      <trkpt lat="42.33331" lon="-71.11267" />
      <trkpt lat="42.33343" lon="-71.11258" />
      <trkpt lat="42.33365" lon="-71.11253" />
      <trkpt lat="42.33377" lon="-71.11246" />
      <trkpt lat="42.33444" lon="-71.11181" />
      <trkpt lat="42.33449" lon="-71.11181" />
      <trkpt lat="42.33462" lon="-71.11169" />
      <trkpt lat="42.33475" lon="-71.11155" />
      <trkpt lat="42.3348" lon="-71.11165" />
      <trkpt lat="42.33486" lon="-71.11174" />
      <trkpt lat="42.33487" lon="-71.11175" />
      <trkpt lat="42.33489" lon="-71.11171" />
      <trkpt lat="42.33519" lon="-71.1114" />
      <trkpt lat="42.33523" lon="-71.11136" />
      <trkpt lat="42.33527" lon="-71.11131" />
      <trkpt lat="42.33531" lon="-71.11127" />
      <trkpt lat="42.33566" lon="-71.11123" />
      <trkpt lat="42.33582" lon="-71.11122" />
      <trkpt lat="42.33643" lon="-71.11134" />
      <trkpt lat="42.33647" lon="-71.11135" />
      <trkpt lat="42.33661" lon="-71.11141" />
      <trkpt lat="42.33667" lon="-71.11145" />
      <trkpt lat="42.33671" lon="-71.11149" />
      <trkpt lat="42.33677" lon="-71.11155" />
      <trkpt lat="42.33688" lon="-71.11166" />
      <trkpt lat="42.33694" lon="-71.1117" />
      <trkpt lat="42.33702" lon="-71.11175" />
      <trkpt lat="42.33707" lon="-71.11179" />
      <trkpt lat="42.33717" lon="-71.11181" />
      <trkpt lat="42.3374" lon="-71.11179" />
      <trkpt lat="42.3377" lon="-71.11167" />
      <trkpt lat="42.33813" lon="-71.11145" />
      <trkpt lat="42.33869" lon="-71.11122" />
      <trkpt lat="42.33974" lon="-71.11098" />
      <trkpt lat="42.34009" lon="-71.11087" />
      <trkpt lat="42.34027" lon="-71.11077" />
      <trkpt lat="42.34055" lon="-71.11065" />
      <trkpt lat="42.34072" lon="-71.11054" />
      <trkpt lat="42.34103" lon="-71.11031" />
      <trkpt lat="42.34138" lon="-71.11" />
      <trkpt lat="42.34155" lon="-71.10981" />
      <trkpt lat="42.34176" lon="-71.10955" />
      <trkpt lat="42.34187" lon="-71.10937" />
      <trkpt lat="42.34204" lon="-71.10904" />
      <trkpt lat="42.34221" lon="-71.10878" />
      <trkpt lat="42.34232" lon="-71.10866" />
      <trkpt lat="42.34254" lon="-71.10842" />
      <trkpt lat="42.34262" lon="-71.10831" />
      <trkpt lat="42.34283" lon="-71.10793" />
      <trkpt lat="42.34313" lon="-71.10731" />
      <trkpt lat="42.34324" lon="-71.10707" />
      <trkpt lat="42.34343" lon="-71.10676" />
      <trkpt lat="42.34386" lon="-71.10619" />
      <trkpt lat="42.34398" lon="-71.10601" />
      <trkpt lat="42.34428" lon="-71.1055" />
      <trkpt lat="42.34442" lon="-71.10516" />
      <trkpt lat="42.34456" lon="-71.10478" />
      <trkpt lat="42.34458" lon="-71.10467" />
      <trkpt lat="42.34458" lon="-71.10462" />
      <trkpt lat="42.34459" lon="-71.10431" />
      <trkpt lat="42.34436" lon="-71.10435" />
      <trkpt lat="42.34425" lon="-71.1044" />
      <trkpt lat="42.34411" lon="-71.10453" />
      <trkpt lat="42.3438" lon="-71.10495" />
      <trkpt lat="42.34358" lon="-71.10531" />
      <trkpt lat="42.3434" lon="-71.10568" />
      <trkpt lat="42.34318" lon="-71.10606" />
      <trkpt lat="42.34264" lon="-71.10664" />
      <trkpt lat="42.34248" lon="-71.1068" />
      <trkpt lat="42.34226" lon="-71.10695" />
      <trkpt lat="42.34224" lon="-71.10697" />
      <trkpt lat="42.34212" lon="-71.10712" />
      <trkpt lat="42.34208" lon="-71.1072" />
      <trkpt lat="42.34203" lon="-71.10738" />
      <trkpt lat="42.34193" lon="-71.10791" />
      <trkpt lat="42.34178" lon="-71.10824" />
      <trkpt lat="42.34169" lon="-71.10834" />
      <trkpt lat="42.3416" lon="-71.10848" />
      <trkpt lat="42.34125" lon="-71.10937" />
      <trkpt lat="42.34111" lon="-71.10966" />
      <trkpt lat="42.34103" lon="-71.10979" />
      <trkpt lat="42.34075" lon="-71.11016" />
      <trkpt lat="42.34051" lon="-71.11041" />
      <trkpt lat="42.34017" lon="-71.11053" />
      <trkpt lat="42.33973" lon="-71.11061" />
      <trkpt lat="42.33935" lon="-71.11071" />
      <trkpt lat="42.33882" lon="-71.11076" />
      <trkpt lat="42.33846" lon="-71.11081" />
      <trkpt lat="42.33779" lon="-71.11112" />
      <trkpt lat="42.33767" lon="-71.11114" />
      <trkpt lat="42.33747" lon="-71.11112" />
      <trkpt lat="42.33734" lon="-71.11138" />
      <trkpt lat="42.33727" lon="-71.11148" />
      <trkpt lat="42.33712" lon="-71.11164" />
      <trkpt lat="42.33702" lon="-71.11175" />
      <trkpt lat="42.33694" lon="-71.1117" />
      <trkpt lat="42.33688" lon="-71.11166" />
      <trkpt lat="42.33677" lon="-71.11155" />
      <trkpt lat="42.33671" lon="-71.11149" />
      <trkpt lat="42.33667" lon="-71.11145" />
      <trkpt lat="42.33661" lon="-71.11141" />
      <trkpt lat="42.33647" lon="-71.11135" />
      <trkpt lat="42.33582" lon="-71.11122" />
      <trkpt lat="42.33566" lon="-71.11123" />
      <trkpt lat="42.33547" lon="-71.11125" />
      <trkpt lat="42.33531" lon="-71.11127" />
      <trkpt lat="42.33527" lon="-71.11131" />
      <trkpt lat="42.33523" lon="-71.11136" />
      <trkpt lat="42.33519" lon="-71.1114" />
      <trkpt lat="42.33489" lon="-71.11171" />
      <trkpt lat="42.33487" lon="-71.11175" />
      <trkpt lat="42.33486" lon="-71.11174" />
      <trkpt lat="42.3348" lon="-71.11165" />
      <trkpt lat="42.33475" lon="-71.11155" />
      <trkpt lat="42.33462" lon="-71.11169" />
      <trkpt lat="42.33449" lon="-71.11181" />
      <trkpt lat="42.33444" lon="-71.11181" />
      <trkpt lat="42.33377" lon="-71.11246" />
      <trkpt lat="42.33365" lon="-71.11253" />
      <trkpt lat="42.33343" lon="-71.11258" />
      <trkpt lat="42.33331" lon="-71.11267" />
      <trkpt lat="42.33327" lon="-71.11269" />
      <trkpt lat="42.33321" lon="-71.11273" />
      <trkpt lat="42.33311" lon="-71.11277" />
      <trkpt lat="42.33286" lon="-71.11297" />
      <trkpt lat="42.33255" lon="-71.11331" />
      <trkpt lat="42.33245" lon="-71.11338" />
      <trkpt lat="42.33225" lon="-71.11348" />
      <trkpt lat="42.33215" lon="-71.11349" />
      <trkpt lat="42.33198" lon="-71.11346" />
      <trkpt lat="42.33197" lon="-71.11345" />
      <trkpt lat="42.33196" lon="-71.11345" />
      <trkpt lat="42.33191" lon="-71.11344" />
      <trkpt lat="42.33186" lon="-71.11342" />
      <trkpt lat="42.33184" lon="-71.11342" />
      <trkpt lat="42.3318" lon="-71.11341" />
      <trkpt lat="42.33175" lon="-71.1134" />
      <trkpt lat="42.33173" lon="-71.11339" />
      <trkpt lat="42.33168" lon="-71.11339" />
      <trkpt lat="42.33157" lon="-71.11363" />
      <trkpt lat="42.33144" lon="-71.11373" />
      <trkpt lat="42.33142" lon="-71.11373" />
      <trkpt lat="42.33139" lon="-71.11376" />
      <trkpt lat="42.33135" lon="-71.11379" />
      <trkpt lat="42.33125" lon="-71.11384" />
      <trkpt lat="42.33118" lon="-71.11384" />
      <trkpt lat="42.3309" lon="-71.11384" />
      <trkpt lat="42.3307" lon="-71.11387" />
      <trkpt lat="42.33059" lon="-71.1139" />
      <trkpt lat="42.33048" lon="-71.11394" />
      <trkpt lat="42.33036" lon="-71.11402" />
      <trkpt lat="42.32947" lon="-71.11454" />
      <trkpt lat="42.32929" lon="-71.11467" />
      <trkpt lat="42.32891" lon="-71.11493" />
      <trkpt lat="42.3286" lon="-71.11511" />
      <trkpt lat="42.32832" lon="-71.11523" />
      <trkpt lat="42.32762" lon="-71.11535" />
      <trkpt lat="42.32729" lon="-71.11536" />
      <trkpt lat="42.32701" lon="-71.11548" />
      <trkpt lat="42.32688" lon="-71.11557" />
      <trkpt lat="42.3267" lon="-71.11553" />
      <trkpt lat="42.32655" lon="-71.11564" />
      <trkpt lat="42.32645" lon="-71.11569" />
      <trkpt lat="42.32629" lon="-71.1159" />
      <trkpt lat="42.32623" lon="-71.116" />
      <trkpt lat="42.32615" lon="-71.11618" />
      <trkpt lat="42.32605" lon="-71.11628" />
      <trkpt lat="42.32597" lon="-71.11633" />
      <trkpt lat="42.32593" lon="-71.11633" />
      <trkpt lat="42.32588" lon="-71.11634" />
      <trkpt lat="42.32575" lon="-71.11637" />
      <trkpt lat="42.32556" lon="-71.11631" />
      <trkpt lat="42.32544" lon="-71.11629" />
      <trkpt lat="42.32503" lon="-71.11641" />
      <trkpt lat="42.32425" lon="-71.11647" />
      <trkpt lat="42.32404" lon="-71.11657" />
      <trkpt lat="42.3239" lon="-71.11671" />
      <trkpt lat="42.32383" lon="-71.11683" />
      <trkpt lat="42.32377" lon="-71.11699" />
      <trkpt lat="42.32372" lon="-71.11726" />
      <trkpt lat="42.32357" lon="-71.11818" />
      <trkpt lat="42.32356" lon="-71.11822" />
      <trkpt lat="42.32351" lon="-71.11843" />
      <trkpt lat="42.32345" lon="-71.11857" />
      <trkpt lat="42.32339" lon="-71.11867" />
      <trkpt lat="42.323" lon="-71.11926" />
      <trkpt lat="42.32296" lon="-71.11929" />
      <trkpt lat="42.3229" lon="-71.11929" />
      <trkpt lat="42.32283" lon="-71.1193" />
      <trkpt lat="42.32276" lon="-71.11938" />
      <trkpt lat="42.32263" lon="-71.11946" />
      <trkpt lat="42.32244" lon="-71.11949" />
      <trkpt lat="42.32216" lon="-71.11944" />
      <trkpt lat="42.32169" lon="-71.11944" />
      <trkpt lat="42.32163" lon="-71.1194" />
      <trkpt lat="42.32162" lon="-71.11942" />
      <trkpt lat="42.3216" lon="-71.11946" />
      <trkpt lat="42.32158" lon="-71.11948" />
      <trkpt lat="42.32151" lon="-71.11951" />
      <trkpt lat="42.32145" lon="-71.11954" />
      <trkpt lat="42.32139" lon="-71.11957" />
      <trkpt lat="42.32138" lon="-71.11958" />
      <trkpt lat="42.32113" lon="-71.11982" />
      <trkpt lat="42.321" lon="-71.11979" />
      <trkpt lat="42.32057" lon="-71.11981" />
      <trkpt lat="42.32034" lon="-71.11972" />
      <trkpt lat="42.32025" lon="-71.11972" />
      <trkpt lat="42.32011" lon="-71.11986" />
      <trkpt lat="42.32001" lon="-71.12002" />
      <trkpt lat="42.31988" lon="-71.12015" />
      <trkpt lat="42.3198" lon="-71.12025" />
      <trkpt lat="42.3197" lon="-71.12032" />
      <trkpt lat="42.31951" lon="-71.12039" />
      <trkpt lat="42.31933" lon="-71.12042" />
      <trkpt lat="42.31928" lon="-71.12042" />
      <trkpt lat="42.3192" lon="-71.1204" />
      <trkpt lat="42.31911" lon="-71.12032" />
      <trkpt lat="42.31903" lon="-71.12021" />
      <trkpt lat="42.31901" lon="-71.12012" />
      <trkpt lat="42.31901" lon="-71.11915" />
      <trkpt lat="42.31902" lon="-71.11897" />
      <trkpt lat="42.31908" lon="-71.11864" />
      <trkpt lat="42.3191" lon="-71.11849" />
      <trkpt lat="42.31908" lon="-71.11839" />
      <trkpt lat="42.31894" lon="-71.11807" />
      <trkpt lat="42.31865" lon="-71.11762" />
      <trkpt lat="42.31861" lon="-71.11755" />
      <trkpt lat="42.31856" lon="-71.11726" />
      <trkpt lat="42.31851" lon="-71.11714" />
      <trkpt lat="42.31844" lon="-71.11696" />
      <trkpt lat="42.31822" lon="-71.11696" />
      <trkpt lat="42.31757" lon="-71.11722" />
      <trkpt lat="42.31729" lon="-71.11726" />
      <trkpt lat="42.31685" lon="-71.11724" />
      <trkpt lat="42.31629" lon="-71.11738" />
      <trkpt lat="42.31596" lon="-71.11739" />
      <trkpt lat="42.31583" lon="-71.11738" />
      <trkpt lat="42.31573" lon="-71.11743" />
      <trkpt lat="42.31565" lon="-71.1175" />
    </trkseg>
  </trk>
</gpx>