<?xml version='1.0' encoding='UTF-8'?>
<gpx xmlns="http://www.topografix.com/GPX/1/1" version="1.1" creator="Forest Hills Runners">
  <metadata>
    <name>Saturday Arboretum Hills</name><desc>Forest Hills Runners GPX route: A Saturday Arboretum route with rolling climbs and carriage-road miles close to Forest Hills.</desc></metadata>
  <trk>
    <name>Saturday Arboretum Hills</name>
    <trkseg>
      <trkpt lat="42.30194" lon="-71.11361" />
      <trkpt lat="42.30195" lon="-71.11361" />
      <trkpt lat="42.30192" lon="-71.11363" />
      <trkpt lat="42.30194" lon="-71.11371" />
      <trkpt lat="42.30198" lon="-71.11374" />
      <trkpt lat="42.30199" lon="-71.11375" />
      <trkpt lat="42.30196" lon="-71.11385" />
      <trkpt lat="42.30195" lon="-71.11415" />
      <trkpt lat="42.30196" lon="-71.11435" />
      <trkpt lat="42.30196" lon="-71.11438" />
      <trkpt lat="42.302" lon="-71.11446" />
      <trkpt lat="42.30196" lon="-71.11446" />
      <trkpt lat="42.30187" lon="-71.11446" />
      <trkpt lat="42.30172" lon="-71.11447" />
      <trkpt lat="42.30163" lon="-71.11448" />
      <trkpt lat="42.30159" lon="-71.11448" />
      <trkpt lat="42.30163" lon="-71.11456" />
      <trkpt lat="42.30163" lon="-71.11461" />
      <trkpt lat="42.30163" lon="-71.11463" />
      <trkpt lat="42.30162" lon="-71.11466" />
      <trkpt lat="42.30161" lon="-71.1147" />
      <trkpt lat="42.3016" lon="-71.11471" />
      <trkpt lat="42.3016" lon="-71.11472" />
      <trkpt lat="42.30151" lon="-71.11468" />
      <trkpt lat="42.30142" lon="-71.11466" />
      <trkpt lat="42.30114" lon="-71.11469" />
      <trkpt lat="42.30105" lon="-71.11473" />
      <trkpt lat="42.301" lon="-71.11473" />
      <trkpt lat="42.30095" lon="-71.11474" />
      <trkpt lat="42.30058" lon="-71.11477" />
      <trkpt lat="42.30053" lon="-71.11478" />
      <trkpt lat="42.30051" lon="-71.11478" />
      <trkpt lat="42.30024" lon="-71.11486" />
      <trkpt lat="42.30013" lon="-71.11486" />
      <trkpt lat="42.3001" lon="-71.11486" />
      <trkpt lat="42.2997" lon="-71.11509" />
      <trkpt lat="42.29969" lon="-71.11509" />
      <trkpt lat="42.29969" lon="-71.11522" />
      <trkpt lat="42.29967" lon="-71.11534" />
      <trkpt lat="42.29967" lon="-71.11535" />
      <trkpt lat="42.29954" lon="-71.11572" />
      <trkpt lat="42.29945" lon="-71.11588" />
      <trkpt lat="42.29913" lon="-71.11634" />
      <trkpt lat="42.29887" lon="-71.11667" />
      <trkpt lat="42.29873" lon="-71.11694" />
      <trkpt lat="42.29873" lon="-71.11719" />
      <trkpt lat="42.29877" lon="-71.11748" />
      <trkpt lat="42.29898" lon="-71.118" />
      <trkpt lat="42.29922" lon="-71.11846" />
      <trkpt lat="42.29926" lon="-71.1186" />
      <trkpt lat="42.29926" lon="-71.11873" />
      <trkpt lat="42.29927" lon="-71.11876" />
      <trkpt lat="42.29924" lon="-71.11887" />
      <trkpt lat="42.29922" lon="-71.11892" />
      <trkpt lat="42.29888" lon="-71.11929" />
      <trkpt lat="42.29871" lon="-71.11956" />
      <trkpt lat="42.29862" lon="-71.11962" />
      <trkpt lat="42.29848" lon="-71.11966" />
      <trkpt lat="42.29819" lon="-71.11981" />
      <trkpt lat="42.29804" lon="-71.11993" />
      <trkpt lat="42.29775" lon="-71.12022" />
      <trkpt lat="42.29773" lon="-71.12028" />
      <trkpt lat="42.29772" lon="-71.12043" />
      <trkpt lat="42.29772" lon="-71.12052" />
      <trkpt lat="42.29772" lon="-71.12058" />
      <trkpt lat="42.29768" lon="-71.12085" />
      <trkpt lat="42.29768" lon="-71.12102" />
      <trkpt lat="42.29764" lon="-71.12122" />
      <trkpt lat="42.29762" lon="-71.1215" />
      <trkpt lat="42.29763" lon="-71.12161" />
      <trkpt lat="42.29764" lon="-71.12184" />
      <trkpt lat="42.29767" lon="-71.12203" />
      <trkpt lat="42.29769" lon="-71.12213" />
      <trkpt lat="42.29784" lon="-71.12264" />
      <trkpt lat="42.2979" lon="-71.12274" />
      <trkpt lat="42.29782" lon="-71.12289" />
      <trkpt lat="42.29764" lon="-71.12341" />
      <trkpt lat="42.29748" lon="-71.12397" />
      <trkpt lat="42.2974" lon="-71.1244" />
      <trkpt lat="42.2974" lon="-71.12467" />
      <trkpt lat="42.29749" lon="-71.12522" />
      <trkpt lat="42.29755" lon="-71.12565" />
      <trkpt lat="42.29756" lon="-71.1259" />
      <trkpt lat="42.29754" lon="-71.12611" />
      <trkpt lat="42.29745" lon="-71.12644" />
      <trkpt lat="42.29736" lon="-71.12663" />
      <trkpt lat="42.29727" lon="-71.12676" />
      <trkpt lat="42.29715" lon="-71.12688" />
      <trkpt lat="42.29688" lon="-71.12709" />
      <trkpt lat="42.29678" lon="-71.1272" />
      <trkpt lat="42.29671" lon="-71.12732" />
      <trkpt lat="42.29667" lon="-71.12744" />
      <trkpt lat="42.29664" lon="-71.12762" />
      <trkpt lat="42.29662" lon="-71.1279" />
      <trkpt lat="42.29667" lon="-71.12828" />
      <trkpt lat="42.29668" lon="-71.12836" />
      <trkpt lat="42.29668" lon="-71.12856" />
      <trkpt lat="42.2968" lon="-71.12861" />
      <trkpt lat="42.29682" lon="-71.12862" />
      <trkpt lat="42.29688" lon="-71.12867" />
      <trkpt lat="42.29691" lon="-71.12872" />
      <trkpt lat="42.2972" lon="-71.12905" />
      <trkpt lat="42.29734" lon="-71.12918" />
      <trkpt lat="42.29751" lon="-71.12924" />
      <trkpt lat="42.29753" lon="-71.12924" />
      <trkpt lat="42.29764" lon="-71.12923" />
      <trkpt lat="42.29767" lon="-71.1292" />
      <trkpt lat="42.29774" lon="-71.12902" />
      <trkpt lat="42.29779" lon="-71.12895" />
      <trkpt lat="42.29799" lon="-71.12877" />
      <trkpt lat="42.29812" lon="-71.1287" />
      <trkpt lat="42.2983" lon="-71.12852" />
      <trkpt lat="42.29833" lon="-71.12847" />
      <trkpt lat="42.2984" lon="-71.12818" />
      <trkpt lat="42.29853" lon="-71.12789" />
      <trkpt lat="42.29872" lon="-71.12764" />
      <trkpt lat="42.29874" lon="-71.1275" />
      <trkpt lat="42.29873" lon="-71.12741" />
      <trkpt lat="42.29863" lon="-71.1271" />
      <trkpt lat="42.2986" lon="-71.12687" />
      <trkpt lat="42.2986" lon="-71.12667" />
      <trkpt lat="42.29864" lon="-71.12643" />
      <trkpt lat="42.29865" lon="-71.12639" />
      <trkpt lat="42.29874" lon="-71.12618" />
      <trkpt lat="42.29881" lon="-71.12594" />
      <trkpt lat="42.29892" lon="-71.12581" />
      <trkpt lat="42.29905" lon="-71.12572" />
      <trkpt lat="42.29954" lon="-71.12575" />
      <trkpt lat="42.2997" lon="-71.12575" />
      <trkpt lat="42.29987" lon="-71.12564" />
      <trkpt lat="42.30008" lon="-71.12553" />
      <trkpt lat="42.30012" lon="-71.12548" />
      <trkpt lat="42.30033" lon="-71.12556" />
      <trkpt lat="42.30036" lon="-71.12558" />
      <trkpt lat="42.30055" lon="-71.12563" />
      <trkpt lat="42.30075" lon="-71.12565" />
      <trkpt lat="42.30092" lon="-71.12565" />
      <trkpt lat="42.30128" lon="-71.12557" />
      <trkpt lat="42.30156" lon="-71.12544" />
      <trkpt lat="42.30161" lon="-71.12536" />
      <trkpt lat="42.3017" lon="-71.12512" />
      <trkpt lat="42.30173" lon="-71.12504" />
      <trkpt lat="42.30176" lon="-71.12496" />
      <trkpt lat="42.30181" lon="-71.12476" />
      <trkpt lat="42.30184" lon="-71.12467" />
      <trkpt lat="42.30212" lon="-71.12446" />
      <trkpt lat="42.30225" lon="-71.12431" />
      <trkpt lat="42.3023" lon="-71.12421" />
      <trkpt lat="42.30238" lon="-71.12402" />
      <trkpt lat="42.30244" lon="-71.12377" />
      <trkpt lat="42.3025" lon="-71.12327" />
      <trkpt lat="42.30249" lon="-71.12291" />
      <trkpt lat="42.30245" lon="-71.12259" />
      <trkpt lat="42.30238" lon="-71.1223" />
      <trkpt lat="42.3023" lon="-71.12202" />
      <trkpt lat="42.30198" lon="-71.12126" />
      <trkpt lat="42.30176" lon="-71.12082" />
      <trkpt lat="42.30154" lon="-71.12044" />
      <trkpt lat="42.30126" lon="-71.12003" />
      <trkpt lat="42.30118" lon="-71.1199" />
      <trkpt lat="42.30117" lon="-71.11986" />
      <trkpt lat="42.30114" lon="-71.11977" />
      <trkpt lat="42.30113" lon="-71.11966" />
      <trkpt lat="42.30113" lon="-71.11961" />
      <trkpt lat="42.30116" lon="-71.11946" />
      <trkpt lat="42.30122" lon="-71.11934" />
      <trkpt lat="42.3014" lon="-71.1191" />
      <trkpt lat="42.30152" lon="-71.11918" />
      <trkpt lat="42.30172" lon="-71.11934" />
      <trkpt lat="42.3018" lon="-71.1195" />
      <trkpt lat="42.30184" lon="-71.11964" />
      <trkpt lat="42.30198" lon="-71.12008" />
      <trkpt lat="42.30202" lon="-71.12017" />
      <trkpt lat="42.30206" lon="-71.12024" />
      <trkpt lat="42.30218" lon="-71.12039" />
      <trkpt lat="42.30238" lon="-71.12051" />
      <trkpt lat="42.30246" lon="-71.12054" />
      <trkpt lat="42.30291" lon="-71.12062" />
      <trkpt lat="42.30311" lon="-71.1207" />
      <trkpt lat="42.30331" lon="-71.12082" />
      <trkpt lat="42.30386" lon="-71.12133" />
      <trkpt lat="42.30412" lon="-71.12153" />
      <trkpt lat="42.30439" lon="-71.12166" />
      <trkpt lat="42.30457" lon="-71.12172" />
      <trkpt lat="42.30483" lon="-71.12177" />
      <trkpt lat="42.30525" lon="-71.12178" />
      <trkpt lat="42.30558" lon="-71.12171" />
      <trkpt lat="42.30587" lon="-71.12162" />
      <trkpt lat="42.30621" lon="-71.12141" />
      <trkpt lat="42.30649" lon="-71.12116" />
      <trkpt lat="42.30667" lon="-71.12094" />
      <trkpt lat="42.30694" lon="-71.12054" />
      <trkpt lat="42.30704" lon="-71.12039" />
      <trkpt lat="42.30718" lon="-71.1202" />
      <trkpt lat="42.30726" lon="-71.12013" />
      <trkpt lat="42.30738" lon="-71.12001" />
      <trkpt lat="42.3075" lon="-71.11992" />
      <trkpt lat="42.30757" lon="-71.11987" />
      <trkpt lat="42.3076" lon="-71.11985" />
      <trkpt lat="42.3077" lon="-71.1199" />
      <trkpt lat="42.30773" lon="-71.11994" />
      <trkpt lat="42.30781" lon="-71.11999" />
      <trkpt lat="42.30797" lon="-71.12011" />
      <trkpt lat="42.30803" lon="-71.12016" />
      <trkpt lat="42.30849" lon="-71.12063" />
      <trkpt lat="42.30856" lon="-71.12076" />
      <trkpt lat="42.30863" lon="-71.12095" />
      <trkpt lat="42.30865" lon="-71.12112" />
      <trkpt lat="42.30864" lon="-71.12127" />
      <trkpt lat="42.30857" lon="-71.12158" />
      <trkpt lat="42.30857" lon="-71.12194" />
      <trkpt lat="42.30855" lon="-71.12206" />
      <trkpt lat="42.30858" lon="-71.12207" />
      <trkpt lat="42.30862" lon="-71.12211" />
      <trkpt lat="42.30865" lon="-71.12214" />
      <trkpt lat="42.30883" lon="-71.12228" />
      <trkpt lat="42.30888" lon="-71.1223" />
      <trkpt lat="42.30897" lon="-71.12235" />
      <trkpt lat="42.30904" lon="-71.12238" />
      <trkpt lat="42.30908" lon="-71.12238" />
      <trkpt lat="42.30913" lon="-71.12238" />
      <trkpt lat="42.30919" lon="-71.12237" />
      <trkpt lat="42.30923" lon="-71.12247" />
      <trkpt lat="42.30947" lon="-71.12271" />
      <trkpt lat="42.30975" lon="-71.12295" />
      <trkpt lat="42.31029" lon="-71.12335" />
      <trkpt lat="42.31065" lon="-71.12373" />
      <trkpt lat="42.31108" lon="-71.12423" />
      <trkpt lat="42.31121" lon="-71.12437" />
      <trkpt lat="42.31173" lon="-71.12495" />
      <trkpt lat="42.3118" lon="-71.125" />
      <trkpt lat="42.31183" lon="-71.125" />
      <trkpt lat="42.31188" lon="-71.12498" />
      <trkpt lat="42.31219" lon="-71.12424" />
      <trkpt lat="42.31228" lon="-71.12397" />
      <trkpt lat="42.31254" lon="-71.12302" />
      <trkpt lat="42.31255" lon="-71.12296" />
      <trkpt lat="42.31256" lon="-71.12292" />
      <trkpt lat="42.31253" lon="-71.12286" />
      <trkpt lat="42.31255" lon="-71.12283" />
      <trkpt lat="42.31262" lon="-71.12287" />
      <trkpt lat="42.31266" lon="-71.12289" />
      <trkpt lat="42.31268" lon="-71.12284" />
      <trkpt lat="42.3127" lon="-71.12284" />
      <trkpt lat="42.31273" lon="-71.12279" />
      <trkpt lat="42.31275" lon="-71.12275" />
      <trkpt lat="42.31276" lon="-71.12274" />
      <trkpt lat="42.31304" lon="-71.12257" />
      <trkpt lat="42.31329" lon="-71.12238" />
      <trkpt lat="42.31335" lon="-71.12237" />
      <trkpt lat="42.31338" lon="-71.12236" />
      <trkpt lat="42.31345" lon="-71.12231" />
      <trkpt lat="42.31349" lon="-71.12229" />
      <trkpt lat="42.31356" lon="-71.12219" />
      <trkpt lat="42.31365" lon="-71.12212" />
      <trkpt lat="42.31368" lon="-71.12209" />
      <trkpt lat="42.3137" lon="-71.12207" />
      <trkpt lat="42.31374" lon="-71.12204" />
      <trkpt lat="42.31377" lon="-71.12202" />
      <trkpt lat="42.31379" lon="-71.12201" />
      <trkpt lat="42.31391" lon="-71.12192" />
      <trkpt lat="42.31398" lon="-71.12178" />
      <trkpt lat="42.31402" lon="-71.12156" />
      <trkpt lat="42.31402" lon="-71.12152" />
      <trkpt lat="42.31402" lon="-71.12136" />
      <trkpt lat="42.31436" lon="-71.12146" />
      <trkpt lat="42.31446" lon="-71.12172" />
      <trkpt lat="42.31456" lon="-71.12184" />
      <trkpt lat="42.31465" lon="-71.12202" />
      <trkpt lat="42.31466" lon="-71.12214" />
      <trkpt lat="42.31462" lon="-71.12247" />
      <trkpt lat="42.31464" lon="-71.12269" />
      <trkpt lat="42.31467" lon="-71.12278" />
      <trkpt lat="42.31478" lon="-71.12294" />
      <trkpt lat="42.31488" lon="-71.12302" />
      <trkpt lat="42.31495" lon="-71.12305" />
      <trkpt lat="42.31512" lon="-71.12304" />
      <trkpt lat="42.31564" lon="-71.1229" />
      <trkpt lat="42.31589" lon="-71.12287" />
      <trkpt lat="42.3164" lon="-71.1231" />
      <trkpt lat="42.31664" lon="-71.12307" />
      <trkpt lat="42.31678" lon="-71.12306" />
      <trkpt lat="42.31686" lon="-71.12309" />
      <trkpt lat="42.31697" lon="-71.12317" />
      <trkpt lat="42.31716" lon="-71.12326" />
      <trkpt lat="42.31755" lon="-71.12343" />
      <trkpt lat="42.31844" lon="-71.12373" />
      <trkpt lat="42.31868" lon="-71.12378" />
      <trkpt lat="42.31875" lon="-71.12377" />
      <trkpt lat="42.31898" lon="-71.12361" />
      <trkpt lat="42.31917" lon="-71.1235" />
      <trkpt lat="42.31933" lon="-71.12333" />
      <trkpt lat="42.31951" lon="-71.12307" />
      <trkpt lat="42.31974" lon="-71.12267" />
      <trkpt lat="42.31997" lon="-71.12226" />
      <trkpt lat="42.32016" lon="-71.12203" />
      <trkpt lat="42.32044" lon="-71.12182" />
      <trkpt lat="42.32054" lon="-71.12172" />
      <trkpt lat="42.32088" lon="-71.12126" />
      <trkpt lat="42.32111" lon="-71.12102" />
      <trkpt lat="42.32123" lon="-71.12085" />
      <trkpt lat="42.32132" lon="-71.12055" />
      <trkpt lat="42.32133" lon="-71.12032" />
      <trkpt lat="42.32129" lon="-71.12011" />
      <trkpt lat="42.32122" lon="-71.11992" />
      <trkpt lat="42.32113" lon="-71.11982" />
      <trkpt lat="42.321" lon="-71.11979" />
      <trkpt lat="42.32057" lon="-71.11981" />
      <trkpt lat="42.32034" lon="-71.11972" />
      <trkpt lat="42.32025" lon="-71.11972" />
      <trkpt lat="42.32011" lon="-71.11986" />
      <trkpt lat="42.32001" lon="-71.12002" />
      <trkpt lat="42.3198" lon="-71.12025" />
      <trkpt lat="42.3197" lon="-71.12032" />
      <trkpt lat="42.31951" lon="-71.12039" />
      <trkpt lat="42.31933" lon="-71.12042" />
      <trkpt lat="42.31928" lon="-71.12042" />
      <trkpt lat="42.3192" lon="-71.1204" />
      <trkpt lat="42.31911" lon="-71.12032" />
      <trkpt lat="42.31903" lon="-71.12021" />
      <trkpt lat="42.31901" lon="-71.12012" />
      <trkpt lat="42.31901" lon="-71.11951" />
      <trkpt lat="42.31901" lon="-71.11915" />
      <trkpt lat="42.31902" lon="-71.11897" />
      <trkpt lat="42.31908" lon="-71.11864" />
      <trkpt lat="42.3191" lon="-71.11849" />
      <trkpt lat="42.31908" lon="-71.11839" />
      <trkpt lat="42.31894" lon="-71.11807" />
      <trkpt lat="42.31865" lon="-71.11762" />
      <trkpt lat="42.31861" lon="-71.11755" />
      <trkpt lat="42.31856" lon="-71.11726" />
      <trkpt lat="42.31844" lon="-71.11696" />
      <trkpt lat="42.31822" lon="-71.11696" />
      <trkpt lat="42.31757" lon="-71.11722" />
      <trkpt lat="42.31729" lon="-71.11726" />
      <trkpt lat="42.31685" lon="-71.11724" />
      <trkpt lat="42.31629" lon="-71.11738" />
      <trkpt lat="42.31596" lon="-71.11739" />
      <trkpt lat="42.31583" lon="-71.11738" />
      <trkpt lat="42.31573" lon="-71.11743" />
      <trkpt lat="42.31572" lon="-71.11743" />
      <trkpt lat="42.31573" lon="-71.11743" />
      <trkpt lat="42.31564" lon="-71.11718" />
      <trkpt lat="42.31558" lon="-71.11723" />
      <trkpt lat="42.31552" lon="-71.11709" />
      <trkpt lat="42.31549" lon="-71.11701" />
      <trkpt lat="42.31544" lon="-71.11696" />
      <trkpt lat="42.31545" lon="-71.11692" />
      <trkpt lat="42.31545" lon="-71.11675" />
      <trkpt lat="42.31535" lon="-71.11645" />
      <trkpt lat="42.31512" lon="-71.11579" />
      <trkpt lat="42.3151" lon="-71.11578" />
      <trkpt lat="42.31508" lon="-71.11571" />
      <trkpt lat="42.31506" lon="-71.11565" />
      <trkpt lat="42.31503" lon="-71.1157" />
      <trkpt lat="42.31449" lon="-71.11611" />
      <trkpt lat="42.3142" lon="-71.11632" />
      <trkpt lat="42.31416" lon="-71.11631" />
      <trkpt lat="42.31412" lon="-71.11627" />
      <trkpt lat="42.31343" lon="-71.1145" />
      <trkpt lat="42.31333" lon="-71.11422" />
      <trkpt lat="42.31327" lon="-71.11421" />
      <trkpt lat="42.31321" lon="-71.11421" />
      <trkpt lat="42.3128" lon="-71.11422" />
    </trkseg>
  </trk>
</gpx>