<?xml version='1.0' encoding='UTF-8'?>
<gpx xmlns="http://www.topografix.com/GPX/1/1" version="1.1" creator="Forest Hills Runners">
  <metadata>
    <name>Saturday Franklin Park Four</name><desc>Forest Hills Runners GPX route: A shorter Saturday option that heads from Forest Hills into Franklin Park before returning for the post-run meetup.</desc></metadata>
  <trk>
    <name>Saturday Franklin Park Four</name>
    <trkseg>
      <trkpt lat="42.30195" lon="-71.11361" />
      <trkpt lat="42.30189" lon="-71.11347" />
      <trkpt lat="42.3016" lon="-71.11271" />
      <trkpt lat="42.3016" lon="-71.11266" />
      <trkpt lat="42.30161" lon="-71.11261" />
      <trkpt lat="42.30162" lon="-71.11246" />
      <trkpt lat="42.30164" lon="-71.11244" />
      <trkpt lat="42.30163" lon="-71.1124" />
      <trkpt lat="42.30164" lon="-71.1122" />
      <trkpt lat="42.30165" lon="-71.11204" />
      <trkpt lat="42.30165" lon="-71.11199" />
      <trkpt lat="42.30168" lon="-71.11062" />
      <trkpt lat="42.30168" lon="-71.11047" />
      <trkpt lat="42.3017" lon="-71.11016" />
      <trkpt lat="42.30169" lon="-71.10989" />
      <trkpt lat="42.30168" lon="-71.10966" />
      <trkpt lat="42.30165" lon="-71.10946" />
      <trkpt lat="42.30163" lon="-71.10896" />
      <trkpt lat="42.30157" lon="-71.10856" />
      <trkpt lat="42.30156" lon="-71.1085" />
      <trkpt lat="42.30155" lon="-71.10845" />
      <trkpt lat="42.30144" lon="-71.10806" />
      <trkpt lat="42.30134" lon="-71.10779" />
      <trkpt lat="42.30095" lon="-71.10702" />
      <trkpt lat="42.30093" lon="-71.10698" />
      <trkpt lat="42.30091" lon="-71.10694" />
      <trkpt lat="42.30077" lon="-71.10669" />
      <trkpt lat="42.30077" lon="-71.10664" />
      <trkpt lat="42.30075" lon="-71.10655" />
      <trkpt lat="42.30071" lon="-71.10646" />
      <trkpt lat="42.30068" lon="-71.10637" />
      <trkpt lat="42.30065" lon="-71.10634" />
      <trkpt lat="42.30071" lon="-71.10631" />
      <trkpt lat="42.30083" lon="-71.10612" />
      <trkpt lat="42.30098" lon="-71.10565" />
      <trkpt lat="42.30108" lon="-71.10506" />
      <trkpt lat="42.30108" lon="-71.10498" />
      <trkpt lat="42.30108" lon="-71.10476" />
      <trkpt lat="42.30109" lon="-71.10437" />
      <trkpt lat="42.30109" lon="-71.1042" />
      <trkpt lat="42.30106" lon="-71.10398" />
      <trkpt lat="42.30085" lon="-71.10319" />
      <trkpt lat="42.30079" lon="-71.10291" />
      <trkpt lat="42.30065" lon="-71.10215" />
      <trkpt lat="42.30058" lon="-71.1018" />
      <trkpt lat="42.30058" lon="-71.10179" />
      <trkpt lat="42.30058" lon="-71.10171" />
      <trkpt lat="42.30062" lon="-71.10162" />
      <trkpt lat="42.30052" lon="-71.10149" />
      <trkpt lat="42.30034" lon="-71.10121" />
      <trkpt lat="42.30016" lon="-71.10083" />
      <trkpt lat="42.30001" lon="-71.10064" />
      <trkpt lat="42.2997" lon="-71.10032" />
      <trkpt lat="42.29949" lon="-71.10028" />
      <trkpt lat="42.29927" lon="-71.10018" />
      <trkpt lat="42.29924" lon="-71.10014" />
      <trkpt lat="42.29914" lon="-71.10003" />
      <trkpt lat="42.2989" lon="-71.09973" />
      <trkpt lat="42.29874" lon="-71.09957" />
      <trkpt lat="42.29815" lon="-71.09919" />
      <trkpt lat="42.29788" lon="-71.09898" />
      <trkpt lat="42.29785" lon="-71.099" />
      <trkpt lat="42.29779" lon="-71.099" />
      <trkpt lat="42.29775" lon="-71.09895" />
      <trkpt lat="42.29774" lon="-71.09889" />
      <trkpt lat="42.2977" lon="-71.09885" />
      <trkpt lat="42.29765" lon="-71.09871" />
      <trkpt lat="42.2976" lon="-71.09868" />
      <trkpt lat="42.29742" lon="-71.09867" />
      <trkpt lat="42.29722" lon="-71.09871" />
      <trkpt lat="42.29701" lon="-71.09872" />
      <trkpt lat="42.29689" lon="-71.09869" />
      <trkpt lat="42.29679" lon="-71.09855" />
      <trkpt lat="42.29675" lon="-71.09845" />
      <trkpt lat="42.29671" lon="-71.09825" />
      <trkpt lat="42.2967" lon="-71.09801" />
      <trkpt lat="42.29671" lon="-71.09786" />
      <trkpt lat="42.29672" lon="-71.09784" />
      <trkpt lat="42.29689" lon="-71.09715" />
      <trkpt lat="42.29691" lon="-71.0969" />
      <trkpt lat="42.2969" lon="-71.0968" />
      <trkpt lat="42.29686" lon="-71.09667" />
      <trkpt lat="42.29679" lon="-71.09654" />
      <trkpt lat="42.29669" lon="-71.09638" />
      <trkpt lat="42.29648" lon="-71.0962" />
      <trkpt lat="42.29631" lon="-71.0961" />
      <trkpt lat="42.29614" lon="-71.09599" />
      <trkpt lat="42.29577" lon="-71.09561" />
      <trkpt lat="42.29569" lon="-71.09542" />
      <trkpt lat="42.29564" lon="-71.09521" />
      <trkpt lat="42.2956" lon="-71.09494" />
      <trkpt lat="42.29561" lon="-71.09479" />
      <trkpt lat="42.29564" lon="-71.0944" />
      <trkpt lat="42.29578" lon="-71.09383" />
      <trkpt lat="42.29588" lon="-71.0936" />
      <trkpt lat="42.2961" lon="-71.09304" />
      <trkpt lat="42.29641" lon="-71.09264" />
      <trkpt lat="42.29678" lon="-71.09238" />
      <trkpt lat="42.29707" lon="-71.09222" />
      <trkpt lat="42.29735" lon="-71.09207" />
      <trkpt lat="42.29748" lon="-71.09196" />
      <trkpt lat="42.29772" lon="-71.09173" />
      <trkpt lat="42.29786" lon="-71.09152" />
      <trkpt lat="42.29793" lon="-71.09136" />
      <trkpt lat="42.29799" lon="-71.09123" />
      <trkpt lat="42.29808" lon="-71.0908" />
      <trkpt lat="42.29811" lon="-71.0905" />
      <trkpt lat="42.29814" lon="-71.0896" />
      <trkpt lat="42.29819" lon="-71.08904" />
      <trkpt lat="42.29828" lon="-71.08863" />
      <trkpt lat="42.29833" lon="-71.08844" />
      <trkpt lat="42.29842" lon="-71.08824" />
      <trkpt lat="42.29853" lon="-71.08805" />
      <trkpt lat="42.29872" lon="-71.08783" />
      <trkpt lat="42.29906" lon="-71.08756" />
      <trkpt lat="42.29937" lon="-71.08738" />
      <trkpt lat="42.29943" lon="-71.08736" />
      <trkpt lat="42.29957" lon="-71.08731" />
      <trkpt lat="42.29981" lon="-71.08729" />
      <trkpt lat="42.30011" lon="-71.08734" />
      <trkpt lat="42.30025" lon="-71.08739" />
      <trkpt lat="42.30056" lon="-71.08758" />
      <trkpt lat="42.30063" lon="-71.08778" />
      <trkpt lat="42.30081" lon="-71.08791" />
      <trkpt lat="42.30086" lon="-71.08794" />
      <trkpt lat="42.30105" lon="-71.08818" />
      <trkpt lat="42.30109" lon="-71.08821" />
      <trkpt lat="42.30111" lon="-71.08828" />
      <trkpt lat="42.30125" lon="-71.08844" />
      <trkpt lat="42.30135" lon="-71.08846" />
      <trkpt lat="42.30143" lon="-71.08857" />
      <trkpt lat="42.30161" lon="-71.0888" />
      <trkpt lat="42.30165" lon="-71.08883" />
      <trkpt lat="42.3017" lon="-71.0889" />
      <trkpt lat="42.30176" lon="-71.08899" />
      <trkpt lat="42.30182" lon="-71.08912" />
      <trkpt lat="42.30184" lon="-71.08916" />
      <trkpt lat="42.30197" lon="-71.08953" />
      <trkpt lat="42.30208" lon="-71.0898" />
      <trkpt lat="42.30227" lon="-71.0902" />
      <trkpt lat="42.30254" lon="-71.09059" />
      <trkpt lat="42.30275" lon="-71.09082" />
      <trkpt lat="42.30291" lon="-71.09096" />
      <trkpt lat="42.3034" lon="-71.09131" />
      <trkpt lat="42.30382" lon="-71.09165" />
      <trkpt lat="42.30427" lon="-71.09189" />
      <trkpt lat="42.30445" lon="-71.09211" />
      <trkpt lat="42.30484" lon="-71.0928" />
      <trkpt lat="42.305" lon="-71.09321" />
      <trkpt lat="42.30509" lon="-71.09354" />
      <trkpt lat="42.30515" lon="-71.09387" />
      <trkpt lat="42.30516" lon="-71.09418" />
      <trkpt lat="42.30513" lon="-71.09441" />
      <trkpt lat="42.305" lon="-71.09496" />
      <trkpt lat="42.30496" lon="-71.09506" />
      <trkpt lat="42.30495" lon="-71.09508" />
      <trkpt lat="42.30487" lon="-71.09523" />
      <trkpt lat="42.30472" lon="-71.09545" />
      <trkpt lat="42.30455" lon="-71.09574" />
      <trkpt lat="42.30439" lon="-71.0961" />
      <trkpt lat="42.30431" lon="-71.09646" />
      <trkpt lat="42.30415" lon="-71.09688" />
      <trkpt lat="42.3041" lon="-71.09698" />
      <trkpt lat="42.30398" lon="-71.0974" />
      <trkpt lat="42.30387" lon="-71.09806" />
      <trkpt lat="42.30372" lon="-71.09869" />
      <trkpt lat="42.30368" lon="-71.09877" />
      <trkpt lat="42.30348" lon="-71.0989" />
      <trkpt lat="42.30334" lon="-71.09906" />
      <trkpt lat="42.30321" lon="-71.09945" />
      <trkpt lat="42.30315" lon="-71.09956" />
      <trkpt lat="42.30304" lon="-71.0997" />
      <trkpt lat="42.30268" lon="-71.10011" />
      <trkpt lat="42.30253" lon="-71.1002" />
      <trkpt lat="42.30241" lon="-71.10033" />
      <trkpt lat="42.30233" lon="-71.10047" />
      <trkpt lat="42.3023" lon="-71.10055" />
      <trkpt lat="42.30226" lon="-71.10071" />
      <trkpt lat="42.3022" lon="-71.101" />
      <trkpt lat="42.30226" lon="-71.10113" />
      <trkpt lat="42.30237" lon="-71.10133" />
      <trkpt lat="42.3025" lon="-71.10155" />
      <trkpt lat="42.30264" lon="-71.10173" />
      <trkpt lat="42.30266" lon="-71.10182" />
      <trkpt lat="42.30275" lon="-71.10238" />
      <trkpt lat="42.3028" lon="-71.10259" />
      <trkpt lat="42.3029" lon="-71.10289" />
      <trkpt lat="42.30314" lon="-71.10341" />
      <trkpt lat="42.30322" lon="-71.10358" />
      <trkpt lat="42.30327" lon="-71.10369" />
      <trkpt lat="42.30332" lon="-71.10365" />
      <trkpt lat="42.30335" lon="-71.10372" />
      <trkpt lat="42.30339" lon="-71.1038" />
      <trkpt lat="42.30343" lon="-71.10391" />
      <trkpt lat="42.30367" lon="-71.10432" />
      <trkpt lat="42.30377" lon="-71.10445" />
      <trkpt lat="42.30485" lon="-71.10562" />
      <trkpt lat="42.30488" lon="-71.10565" />
      <trkpt lat="42.30539" lon="-71.10621" />
      <trkpt lat="42.30542" lon="-71.10624" />
      <trkpt lat="42.30542" lon="-71.10632" />
      <trkpt lat="42.30559" lon="-71.10652" />
      <trkpt lat="42.30625" lon="-71.10721" />
      <trkpt lat="42.30631" lon="-71.10727" />
      <trkpt lat="42.30644" lon="-71.10741" />
      <trkpt lat="42.30649" lon="-71.10746" />
      <trkpt lat="42.30654" lon="-71.10756" />
      <trkpt lat="42.30668" lon="-71.10781" />
      <trkpt lat="42.30696" lon="-71.10829" />
      <trkpt lat="42.30699" lon="-71.10835" />
      <trkpt lat="42.30719" lon="-71.1087" />
      <trkpt lat="42.3073" lon="-71.10889" />
      <trkpt lat="42.30733" lon="-71.10895" />
      <trkpt lat="42.30741" lon="-71.10908" />
      <trkpt lat="42.30745" lon="-71.10917" />
      <trkpt lat="42.30748" lon="-71.10915" />
      <trkpt lat="42.30745" lon="-71.10917" />
      <trkpt lat="42.30769" lon="-71.10969" />
      <trkpt lat="42.30773" lon="-71.10983" />
      <trkpt lat="42.30775" lon="-71.10988" />
      <trkpt lat="42.30778" lon="-71.10995" />
      <trkpt lat="42.30787" lon="-71.11019" />
      <trkpt lat="42.30791" lon="-71.11036" />
      <trkpt lat="42.30795" lon="-71.11085" />
      <trkpt lat="42.30796" lon="-71.11098" />
      <trkpt lat="42.30799" lon="-71.11141" />
      <trkpt lat="42.30796" lon="-71.11187" />
      <trkpt lat="42.30789" lon="-71.11273" />
      <trkpt lat="42.30789" lon="-71.11278" />
      <trkpt lat="42.30774" lon="-71.11475" />
      <trkpt lat="42.30772" lon="-71.11493" />
      <trkpt lat="42.30771" lon="-71.11507" />
      <trkpt lat="42.3077" lon="-71.11525" />
      <trkpt lat="42.3077" lon="-71.1153" />
      <trkpt lat="42.30774" lon="-71.1153" />
      <trkpt lat="42.30777" lon="-71.1153" />
      <trkpt lat="42.30782" lon="-71.11535" />
      <trkpt lat="42.30802" lon="-71.11537" />
      <trkpt lat="42.30807" lon="-71.11542" />
      <trkpt lat="42.30807" lon="-71.11543" />
      <trkpt lat="42.30844" lon="-71.11545" />
      <trkpt lat="42.30848" lon="-71.11545" />
      <trkpt lat="42.30852" lon="-71.11545" />
      <trkpt lat="42.30857" lon="-71.11546" />
      <trkpt lat="42.3091" lon="-71.1155" />
      <trkpt lat="42.30923" lon="-71.11549" />
      <trkpt lat="42.30932" lon="-71.11549" />
      <trkpt lat="42.30955" lon="-71.11544" />
      <trkpt lat="42.30971" lon="-71.11536" />
      <trkpt lat="42.30987" lon="-71.11525" />
      <trkpt lat="42.31003" lon="-71.11508" />
      <trkpt lat="42.31009" lon="-71.11515" />
      <trkpt lat="42.31016" lon="-71.11522" />
      <trkpt lat="42.31022" lon="-71.11515" />
      <trkpt lat="42.31045" lon="-71.11496" />
      <trkpt lat="42.3105" lon="-71.11493" />
      <trkpt lat="42.31052" lon="-71.11492" />
      <trkpt lat="42.31076" lon="-71.11477" />
      <trkpt lat="42.31088" lon="-71.11473" />
      <trkpt lat="42.31096" lon="-71.1147" />
      <trkpt lat="42.31124" lon="-71.11459" />
      <trkpt lat="42.31157" lon="-71.1145" />
      <trkpt lat="42.31159" lon="-71.1145" />
      <trkpt lat="42.31165" lon="-71.11448" />
      <trkpt lat="42.31172" lon="-71.11446" />
      <trkpt lat="42.31224" lon="-71.1143" />
      <trkpt lat="42.3123" lon="-71.11428" />
      <trkpt lat="42.31275" lon="-71.11422" />
      <trkpt lat="42.31283" lon="-71.11422" />
    </trkseg>
  </trk>
</gpx>