<?xml version='1.0' encoding='UTF-8'?>
<gpx xmlns="http://www.topografix.com/GPX/1/1" version="1.1" creator="Forest Hills Runners">
  <metadata>
    <name>Saturday Double Reservoir Loop</name><desc>Forest Hills Runners GPX route: A longer Saturday loop linking Jamaica Pond, the Arboretum, and the reservoir paths before returning to Forest Hills.</desc></metadata>
  <trk>
    <name>Saturday Double Reservoir Loop</name>
    <trkseg>
      <trkpt lat="42.30193" lon="-71.11362" />
      <trkpt lat="42.30192" lon="-71.11363" />
      <trkpt lat="42.30194" lon="-71.11371" />
      <trkpt lat="42.30198" lon="-71.11374" />
      <trkpt lat="42.30199" lon="-71.11375" />
      <trkpt lat="42.30196" lon="-71.11385" />
      <trkpt lat="42.30195" lon="-71.11415" />
      <trkpt lat="42.30196" lon="-71.11435" />
      <trkpt lat="42.30196" lon="-71.11438" />
      <trkpt lat="42.302" lon="-71.11446" />
      <trkpt lat="42.30196" lon="-71.11446" />
      <trkpt lat="42.30187" lon="-71.11446" />
      <trkpt lat="42.30172" lon="-71.11447" />
      <trkpt lat="42.30163" lon="-71.11448" />
      <trkpt lat="42.30167" lon="-71.11456" />
      <trkpt lat="42.30169" lon="-71.1146" />
      <trkpt lat="42.30168" lon="-71.11463" />
      <trkpt lat="42.30166" lon="-71.11466" />
      <trkpt lat="42.30165" lon="-71.11468" />
      <trkpt lat="42.30162" lon="-71.11474" />
      <trkpt lat="42.30166" lon="-71.11481" />
      <trkpt lat="42.30184" lon="-71.1152" />
      <trkpt lat="42.30202" lon="-71.11563" />
      <trkpt lat="42.30216" lon="-71.11605" />
      <trkpt lat="42.30223" lon="-71.11635" />
      <trkpt lat="42.30227" lon="-71.1166" />
      <trkpt lat="42.30228" lon="-71.1167" />
      <trkpt lat="42.30226" lon="-71.11678" />
      <trkpt lat="42.3022" lon="-71.11685" />
      <trkpt lat="42.30223" lon="-71.11691" />
      <trkpt lat="42.30211" lon="-71.11705" />
      <trkpt lat="42.30175" lon="-71.11739" />
      <trkpt lat="42.30167" lon="-71.1175" />
      <trkpt lat="42.30161" lon="-71.11762" />
      <trkpt lat="42.30157" lon="-71.1179" />
      <trkpt lat="42.30152" lon="-71.11851" />
      <trkpt lat="42.30147" lon="-71.11885" />
      <trkpt lat="42.30142" lon="-71.11904" />
      <trkpt lat="42.3014" lon="-71.1191" />
      <trkpt lat="42.30122" lon="-71.11934" />
      <trkpt lat="42.30116" lon="-71.11946" />
      <trkpt lat="42.30113" lon="-71.11961" />
      <trkpt lat="42.30113" lon="-71.11966" />
      <trkpt lat="42.30114" lon="-71.11977" />
      <trkpt lat="42.30118" lon="-71.1199" />
      <trkpt lat="42.30126" lon="-71.12003" />
      <trkpt lat="42.30154" lon="-71.12044" />
      <trkpt lat="42.30176" lon="-71.12082" />
      <trkpt lat="42.30198" lon="-71.12126" />
      <trkpt lat="42.3023" lon="-71.12202" />
      <trkpt lat="42.30238" lon="-71.1223" />
      <trkpt lat="42.30245" lon="-71.12259" />
      <trkpt lat="42.30249" lon="-71.12291" />
      <trkpt lat="42.3025" lon="-71.12306" />
      <trkpt lat="42.3025" lon="-71.12327" />
      <trkpt lat="42.30255" lon="-71.12329" />
      <trkpt lat="42.3026" lon="-71.12332" />
      <trkpt lat="42.30261" lon="-71.12353" />
      <trkpt lat="42.30258" lon="-71.12407" />
      <trkpt lat="42.30252" lon="-71.12429" />
      <trkpt lat="42.30252" lon="-71.12455" />
      <trkpt lat="42.30247" lon="-71.1247" />
      <trkpt lat="42.30229" lon="-71.12491" />
      <trkpt lat="42.30224" lon="-71.12502" />
      <trkpt lat="42.30213" lon="-71.12517" />
      <trkpt lat="42.30199" lon="-71.1255" />
      <trkpt lat="42.30203" lon="-71.12551" />
      <trkpt lat="42.30217" lon="-71.12554" />
      <trkpt lat="42.30219" lon="-71.12554" />
      <trkpt lat="42.30218" lon="-71.12561" />
      <trkpt lat="42.30222" lon="-71.12565" />
      <trkpt lat="42.3022" lon="-71.1257" />
      <trkpt lat="42.3018" lon="-71.12601" />
      <trkpt lat="42.30184" lon="-71.12608" />
      <trkpt lat="42.30185" lon="-71.12612" />
      <trkpt lat="42.30186" lon="-71.12613" />
      <trkpt lat="42.30188" lon="-71.12617" />
      <trkpt lat="42.30191" lon="-71.12624" />
      <trkpt lat="42.30189" lon="-71.12627" />
      <trkpt lat="42.30183" lon="-71.12631" />
      <trkpt lat="42.3018" lon="-71.12635" />
      <trkpt lat="42.30088" lon="-71.1273" />
      <trkpt lat="42.30036" lon="-71.12784" />
      <trkpt lat="42.30031" lon="-71.12791" />
      <trkpt lat="42.30029" lon="-71.12791" />
      <trkpt lat="42.30019" lon="-71.12801" />
      <trkpt lat="42.30043" lon="-71.12861" />
      <trkpt lat="42.30049" lon="-71.12876" />
      <trkpt lat="42.30084" lon="-71.12973" />
      <trkpt lat="42.30101" lon="-71.13018" />
      <trkpt lat="42.30127" lon="-71.1309" />
      <trkpt lat="42.30131" lon="-71.13107" />
      <trkpt lat="42.30135" lon="-71.13191" />
      <trkpt lat="42.30138" lon="-71.13223" />
      <trkpt lat="42.30154" lon="-71.13326" />
      <trkpt lat="42.30165" lon="-71.13382" />
      <trkpt lat="42.3017" lon="-71.13405" />
      <trkpt lat="42.30174" lon="-71.13436" />
      <trkpt lat="42.30175" lon="-71.13462" />
      <trkpt lat="42.30172" lon="-71.13487" />
      <trkpt lat="42.30149" lon="-71.13576" />
      <trkpt lat="42.30142" lon="-71.136" />
      <trkpt lat="42.30119" lon="-71.13692" />
      <trkpt lat="42.30118" lon="-71.1371" />
      <trkpt lat="42.30125" lon="-71.13744" />
      <trkpt lat="42.30135" lon="-71.1378" />
      <trkpt lat="42.30173" lon="-71.13902" />
      <trkpt lat="42.30175" lon="-71.13908" />
      <trkpt lat="42.30189" lon="-71.13956" />
      <trkpt lat="42.30203" lon="-71.13989" />
      <trkpt lat="42.30215" lon="-71.14014" />
      <trkpt lat="42.30232" lon="-71.14049" />
      <trkpt lat="42.30308" lon="-71.14207" />
      <trkpt lat="42.30405" lon="-71.14409" />
      <trkpt lat="42.3053" lon="-71.1466" />
      <trkpt lat="42.30555" lon="-71.14711" />
      <trkpt lat="42.30563" lon="-71.14723" />
      <trkpt lat="42.30574" lon="-71.14734" />
      <trkpt lat="42.3058" lon="-71.1474" />
      <trkpt lat="42.30583" lon="-71.14747" />
      <trkpt lat="42.30595" lon="-71.14732" />
      <trkpt lat="42.30616" lon="-71.14716" />
      <trkpt lat="42.30623" lon="-71.14712" />
      <trkpt lat="42.30632" lon="-71.14712" />
      <trkpt lat="42.30675" lon="-71.14689" />
      <trkpt lat="42.30688" lon="-71.14682" />
      <trkpt lat="42.30694" lon="-71.14679" />
      <trkpt lat="42.30703" lon="-71.14668" />
      <trkpt lat="42.30719" lon="-71.14656" />
      <trkpt lat="42.30727" lon="-71.14648" />
      <trkpt lat="42.30731" lon="-71.14643" />
      <trkpt lat="42.30729" lon="-71.1464" />
      <trkpt lat="42.30739" lon="-71.14627" />
      <trkpt lat="42.30755" lon="-71.14603" />
      <trkpt lat="42.30768" lon="-71.14583" />
      <trkpt lat="42.30795" lon="-71.14546" />
      <trkpt lat="42.30799" lon="-71.14551" />
      <trkpt lat="42.30804" lon="-71.14558" />
      <trkpt lat="42.30833" lon="-71.14537" />
      <trkpt lat="42.30925" lon="-71.14477" />
      <trkpt lat="42.3094" lon="-71.14463" />
      <trkpt lat="42.3096" lon="-71.14435" />
      <trkpt lat="42.30978" lon="-71.14397" />
      <trkpt lat="42.30996" lon="-71.14343" />
      <trkpt lat="42.31004" lon="-71.14319" />
      <trkpt lat="42.31018" lon="-71.14275" />
      <trkpt lat="42.31027" lon="-71.14245" />
      <trkpt lat="42.3104" lon="-71.14228" />
      <trkpt lat="42.31046" lon="-71.14223" />
      <trkpt lat="42.31057" lon="-71.1422" />
      <trkpt lat="42.31062" lon="-71.14219" />
      <trkpt lat="42.31136" lon="-71.14251" />
      <trkpt lat="42.31142" lon="-71.14255" />
      <trkpt lat="42.31169" lon="-71.14267" />
      <trkpt lat="42.31205" lon="-71.14286" />
      <trkpt lat="42.31223" lon="-71.14295" />
      <trkpt lat="42.31244" lon="-71.14301" />
      <trkpt lat="42.31268" lon="-71.14301" />
      <trkpt lat="42.31282" lon="-71.14299" />
      <trkpt lat="42.31307" lon="-71.1429" />
      <trkpt lat="42.31432" lon="-71.14231" />
      <trkpt lat="42.31438" lon="-71.14228" />
      <trkpt lat="42.31451" lon="-71.14228" />
      <trkpt lat="42.31487" lon="-71.14211" />
      <trkpt lat="42.31497" lon="-71.14206" />
      <trkpt lat="42.31572" lon="-71.14171" />
      <trkpt lat="42.3167" lon="-71.14125" />
      <trkpt lat="42.31713" lon="-71.14108" />
      <trkpt lat="42.31752" lon="-71.14097" />
      <trkpt lat="42.31794" lon="-71.14091" />
      <trkpt lat="42.31822" lon="-71.14089" />
      <trkpt lat="42.31822" lon="-71.14085" />
      <trkpt lat="42.31837" lon="-71.14085" />
      <trkpt lat="42.3184" lon="-71.14085" />
      <trkpt lat="42.31908" lon="-71.14088" />
      <trkpt lat="42.31961" lon="-71.14083" />
      <trkpt lat="42.31989" lon="-71.14077" />
      <trkpt lat="42.32028" lon="-71.14063" />
      <trkpt lat="42.32053" lon="-71.14052" />
      <trkpt lat="42.3209" lon="-71.14031" />
      <trkpt lat="42.32122" lon="-71.14008" />
      <trkpt lat="42.32136" lon="-71.13995" />
      <trkpt lat="42.32177" lon="-71.13951" />
      <trkpt lat="42.32196" lon="-71.13924" />
      <trkpt lat="42.32216" lon="-71.1389" />
      <trkpt lat="42.32231" lon="-71.1386" />
      <trkpt lat="42.32249" lon="-71.13815" />
      <trkpt lat="42.32255" lon="-71.13803" />
      <trkpt lat="42.32266" lon="-71.13782" />
      <trkpt lat="42.32271" lon="-71.13776" />
      <trkpt lat="42.32296" lon="-71.13749" />
      <trkpt lat="42.32307" lon="-71.13742" />
      <trkpt lat="42.32318" lon="-71.13737" />
      <trkpt lat="42.3234" lon="-71.13731" />
      <trkpt lat="42.32356" lon="-71.13731" />
      <trkpt lat="42.32376" lon="-71.13736" />
      <trkpt lat="42.32396" lon="-71.13747" />
      <trkpt lat="42.32424" lon="-71.13771" />
      <trkpt lat="42.3245" lon="-71.13806" />
      <trkpt lat="42.32455" lon="-71.13808" />
      <trkpt lat="42.32462" lon="-71.13807" />
      <trkpt lat="42.32468" lon="-71.13802" />
      <trkpt lat="42.32472" lon="-71.13807" />
      <trkpt lat="42.32474" lon="-71.13801" />
      <trkpt lat="42.32491" lon="-71.13787" />
      <trkpt lat="42.32495" lon="-71.13797" />
      <trkpt lat="42.32496" lon="-71.13816" />
      <trkpt lat="42.32499" lon="-71.13825" />
      <trkpt lat="42.32506" lon="-71.13828" />
      <trkpt lat="42.32518" lon="-71.13824" />
      <trkpt lat="42.32525" lon="-71.13826" />
      <trkpt lat="42.32522" lon="-71.1385" />
      <trkpt lat="42.32521" lon="-71.13863" />
      <trkpt lat="42.32523" lon="-71.1388" />
      <trkpt lat="42.3253" lon="-71.13908" />
      <trkpt lat="42.32549" lon="-71.13939" />
      <trkpt lat="42.32564" lon="-71.13956" />
      <trkpt lat="42.32582" lon="-71.13969" />
      <trkpt lat="42.32609" lon="-71.13979" />
      <trkpt lat="42.32625" lon="-71.13978" />
      <trkpt lat="42.32649" lon="-71.13971" />
      <trkpt lat="42.32653" lon="-71.13969" />
      <trkpt lat="42.32663" lon="-71.13963" />
      <trkpt lat="42.32675" lon="-71.13948" />
      <trkpt lat="42.32684" lon="-71.13932" />
      <trkpt lat="42.32689" lon="-71.13916" />
      <trkpt lat="42.32694" lon="-71.1389" />
      <trkpt lat="42.32699" lon="-71.13819" />
      <trkpt lat="42.32708" lon="-71.13781" />
      <trkpt lat="42.32714" lon="-71.13765" />
      <trkpt lat="42.32722" lon="-71.13749" />
      <trkpt lat="42.32749" lon="-71.13713" />
      <trkpt lat="42.32759" lon="-71.13696" />
      <trkpt lat="42.32806" lon="-71.13578" />
      <trkpt lat="42.32822" lon="-71.13532" />
      <trkpt lat="42.32825" lon="-71.13519" />
      <trkpt lat="42.32832" lon="-71.13477" />
      <trkpt lat="42.32843" lon="-71.13394" />
      <trkpt lat="42.32842" lon="-71.13351" />
      <trkpt lat="42.32835" lon="-71.13322" />
      <trkpt lat="42.32829" lon="-71.13309" />
      <trkpt lat="42.3282" lon="-71.13302" />
      <trkpt lat="42.32809" lon="-71.13298" />
      <trkpt lat="42.32791" lon="-71.13304" />
      <trkpt lat="42.32756" lon="-71.13318" />
      <trkpt lat="42.32747" lon="-71.13322" />
      <trkpt lat="42.32685" lon="-71.13341" />
      <trkpt lat="42.32666" lon="-71.13355" />
      <trkpt lat="42.32651" lon="-71.1337" />
      <trkpt lat="42.32638" lon="-71.13389" />
      <trkpt lat="42.32635" lon="-71.13399" />
      <trkpt lat="42.32635" lon="-71.13414" />
      <trkpt lat="42.32638" lon="-71.13427" />
      <trkpt lat="42.32643" lon="-71.13438" />
      <trkpt lat="42.32651" lon="-71.13449" />
      <trkpt lat="42.3266" lon="-71.13466" />
      <trkpt lat="42.32661" lon="-71.13473" />
      <trkpt lat="42.32661" lon="-71.13489" />
      <trkpt lat="42.32656" lon="-71.13509" />
      <trkpt lat="42.32641" lon="-71.13544" />
      <trkpt lat="42.32636" lon="-71.13561" />
      <trkpt lat="42.3261" lon="-71.13684" />
      <trkpt lat="42.32605" lon="-71.13705" />
      <trkpt lat="42.32597" lon="-71.13723" />
      <trkpt lat="42.32589" lon="-71.13739" />
      <trkpt lat="42.32573" lon="-71.1376" />
      <trkpt lat="42.32554" lon="-71.13782" />
      <trkpt lat="42.32551" lon="-71.13785" />
      <trkpt lat="42.32541" lon="-71.13798" />
      <trkpt lat="42.32525" lon="-71.13826" />
      <trkpt lat="42.32522" lon="-71.1385" />
      <trkpt lat="42.32521" lon="-71.13863" />
      <trkpt lat="42.32523" lon="-71.1388" />
      <trkpt lat="42.3253" lon="-71.13908" />
      <trkpt lat="42.32549" lon="-71.13939" />
      <trkpt lat="42.32564" lon="-71.13956" />
      <trkpt lat="42.32582" lon="-71.13969" />
      <trkpt lat="42.32609" lon="-71.13979" />
      <trkpt lat="42.32625" lon="-71.13978" />
      <trkpt lat="42.32649" lon="-71.13971" />
      <trkpt lat="42.32663" lon="-71.13963" />
      <trkpt lat="42.32675" lon="-71.13948" />
      <trkpt lat="42.32684" lon="-71.13932" />
      <trkpt lat="42.32689" lon="-71.13916" />
      <trkpt lat="42.32694" lon="-71.1389" />
      <trkpt lat="42.32698" lon="-71.13843" />
      <trkpt lat="42.32699" lon="-71.13819" />
      <trkpt lat="42.32708" lon="-71.13781" />
      <trkpt lat="42.32714" lon="-71.13765" />
      <trkpt lat="42.32722" lon="-71.13749" />
      <trkpt lat="42.32749" lon="-71.13713" />
      <trkpt lat="42.32759" lon="-71.13696" />
      <trkpt lat="42.32806" lon="-71.13578" />
      <trkpt lat="42.32822" lon="-71.13532" />
      <trkpt lat="42.32825" lon="-71.13519" />
      <trkpt lat="42.32832" lon="-71.13477" />
      <trkpt lat="42.32839" lon="-71.13424" />
      <trkpt lat="42.32843" lon="-71.13394" />
      <trkpt lat="42.32842" lon="-71.13351" />
      <trkpt lat="42.32835" lon="-71.13322" />
      <trkpt lat="42.32829" lon="-71.13309" />
      <trkpt lat="42.3282" lon="-71.13302" />
      <trkpt lat="42.32809" lon="-71.13298" />
      <trkpt lat="42.32791" lon="-71.13304" />
      <trkpt lat="42.32747" lon="-71.13322" />
      <trkpt lat="42.32685" lon="-71.13341" />
      <trkpt lat="42.32666" lon="-71.13355" />
      <trkpt lat="42.32663" lon="-71.13349" />
      <trkpt lat="42.32655" lon="-71.13345" />
      <trkpt lat="42.32653" lon="-71.13336" />
      <trkpt lat="42.32652" lon="-71.13331" />
      <trkpt lat="42.32617" lon="-71.13342" />
      <trkpt lat="42.3259" lon="-71.1335" />
      <trkpt lat="42.32566" lon="-71.13302" />
      <trkpt lat="42.32564" lon="-71.13296" />
      <trkpt lat="42.32562" lon="-71.13284" />
      <trkpt lat="42.32562" lon="-71.13272" />
      <trkpt lat="42.32564" lon="-71.13212" />
      <trkpt lat="42.32565" lon="-71.132" />
      <trkpt lat="42.32477" lon="-71.13154" />
      <trkpt lat="42.32433" lon="-71.13137" />
      <trkpt lat="42.32423" lon="-71.13131" />
      <trkpt lat="42.32372" lon="-71.13096" />
      <trkpt lat="42.3236" lon="-71.13089" />
      <trkpt lat="42.32352" lon="-71.13088" />
      <trkpt lat="42.32335" lon="-71.13089" />
      <trkpt lat="42.32305" lon="-71.13097" />
      <trkpt lat="42.32257" lon="-71.13098" />
      <trkpt lat="42.32245" lon="-71.13104" />
      <trkpt lat="42.32238" lon="-71.1311" />
      <trkpt lat="42.32183" lon="-71.13187" />
      <trkpt lat="42.32171" lon="-71.13185" />
      <trkpt lat="42.32157" lon="-71.13172" />
      <trkpt lat="42.32134" lon="-71.13135" />
      <trkpt lat="42.32106" lon="-71.13088" />
      <trkpt lat="42.321" lon="-71.13078" />
      <trkpt lat="42.32081" lon="-71.1305" />
      <trkpt lat="42.32054" lon="-71.13016" />
      <trkpt lat="42.32012" lon="-71.12971" />
      <trkpt lat="42.32005" lon="-71.12966" />
      <trkpt lat="42.31997" lon="-71.12963" />
      <trkpt lat="42.31971" lon="-71.12966" />
      <trkpt lat="42.3196" lon="-71.12965" />
      <trkpt lat="42.31952" lon="-71.12961" />
      <trkpt lat="42.31938" lon="-71.12952" />
      <trkpt lat="42.31919" lon="-71.12931" />
      <trkpt lat="42.31897" lon="-71.12904" />
      <trkpt lat="42.31878" lon="-71.12873" />
      <trkpt lat="42.31872" lon="-71.1286" />
      <trkpt lat="42.3187" lon="-71.12837" />
      <trkpt lat="42.31864" lon="-71.12804" />
      <trkpt lat="42.31859" lon="-71.12753" />
      <trkpt lat="42.31861" lon="-71.1271" />
      <trkpt lat="42.31862" lon="-71.12697" />
      <trkpt lat="42.31864" lon="-71.12636" />
      <trkpt lat="42.31861" lon="-71.12614" />
      <trkpt lat="42.31861" lon="-71.12584" />
      <trkpt lat="42.31866" lon="-71.12555" />
      <trkpt lat="42.31873" lon="-71.12529" />
      <trkpt lat="42.3192" lon="-71.1241" />
      <trkpt lat="42.31914" lon="-71.12406" />
      <trkpt lat="42.31915" lon="-71.12401" />
      <trkpt lat="42.31917" lon="-71.12397" />
      <trkpt lat="42.31918" lon="-71.12393" />
      <trkpt lat="42.3192" lon="-71.12388" />
      <trkpt lat="42.31922" lon="-71.12382" />
      <trkpt lat="42.31929" lon="-71.12363" />
      <trkpt lat="42.31949" lon="-71.12335" />
      <trkpt lat="42.31952" lon="-71.12323" />
      <trkpt lat="42.31951" lon="-71.12307" />
      <trkpt lat="42.31933" lon="-71.12333" />
      <trkpt lat="42.31917" lon="-71.1235" />
      <trkpt lat="42.31898" lon="-71.12361" />
      <trkpt lat="42.31886" lon="-71.1237" />
      <trkpt lat="42.31875" lon="-71.12377" />
      <trkpt lat="42.31868" lon="-71.12378" />
      <trkpt lat="42.31844" lon="-71.12373" />
      <trkpt lat="42.31755" lon="-71.12343" />
      <trkpt lat="42.31716" lon="-71.12326" />
      <trkpt lat="42.31697" lon="-71.12317" />
      <trkpt lat="42.31686" lon="-71.12309" />
      <trkpt lat="42.31678" lon="-71.12306" />
      <trkpt lat="42.3164" lon="-71.1231" />
      <trkpt lat="42.31589" lon="-71.12287" />
      <trkpt lat="42.31564" lon="-71.1229" />
      <trkpt lat="42.31512" lon="-71.12304" />
      <trkpt lat="42.31495" lon="-71.12305" />
      <trkpt lat="42.31488" lon="-71.12302" />
      <trkpt lat="42.31478" lon="-71.12294" />
      <trkpt lat="42.31467" lon="-71.12278" />
      <trkpt lat="42.31464" lon="-71.12269" />
      <trkpt lat="42.31462" lon="-71.12247" />
      <trkpt lat="42.31466" lon="-71.12214" />
      <trkpt lat="42.31465" lon="-71.12202" />
      <trkpt lat="42.31456" lon="-71.12184" />
      <trkpt lat="42.31446" lon="-71.12172" />
      <trkpt lat="42.31436" lon="-71.12146" />
      <trkpt lat="42.31429" lon="-71.12106" />
      <trkpt lat="42.31426" lon="-71.12095" />
      <trkpt lat="42.31406" lon="-71.12054" />
      <trkpt lat="42.31393" lon="-71.12015" />
      <trkpt lat="42.31392" lon="-71.11997" />
      <trkpt lat="42.31394" lon="-71.1198" />
      <trkpt lat="42.31395" lon="-71.11976" />
      <trkpt lat="42.314" lon="-71.11955" />
      <trkpt lat="42.31416" lon="-71.11928" />
      <trkpt lat="42.31504" lon="-71.11818" />
      <trkpt lat="42.31517" lon="-71.11798" />
      <trkpt lat="42.31536" lon="-71.11763" />
      <trkpt lat="42.31547" lon="-71.1174" />
      <trkpt lat="42.31558" lon="-71.11723" />
      <trkpt lat="42.31552" lon="-71.11709" />
      <trkpt lat="42.31549" lon="-71.11701" />
      <trkpt lat="42.31544" lon="-71.11696" />
      <trkpt lat="42.31545" lon="-71.11692" />
      <trkpt lat="42.31545" lon="-71.11675" />
      <trkpt lat="42.31535" lon="-71.11645" />
      <trkpt lat="42.31512" lon="-71.11579" />
      <trkpt lat="42.3151" lon="-71.11578" />
      <trkpt lat="42.31508" lon="-71.11577" />
      <trkpt lat="42.31411" lon="-71.1165" />
      <trkpt lat="42.3139" lon="-71.11594" />
      <trkpt lat="42.3137" lon="-71.11541" />
      <trkpt lat="42.31348" lon="-71.11486" />
      <trkpt lat="42.31321" lon="-71.11421" />
      <trkpt lat="42.31279" lon="-71.11422" />
    </trkseg>
  </trk>
</gpx>