<?xml version='1.0' encoding='UTF-8'?>
<gpx xmlns="http://www.topografix.com/GPX/1/1" version="1.1" creator="Forest Hills Runners">
  <metadata>
    <name>Saturday Muddy River to Landmark Center</name><desc>Forest Hills Runners GPX route: A longer Saturday route along the Emerald Necklace to the Landmark Center and back.</desc></metadata>
  <trk>
    <name>Saturday Muddy River to Landmark Center</name>
    <trkseg>
      <trkpt lat="42.30192" lon="-71.11363"/>
      <trkpt lat="42.30194" lon="-71.11371"/>
      <trkpt lat="42.30198" lon="-71.11374"/>
      <trkpt lat="42.30199" lon="-71.11375"/>
      <trkpt lat="42.30196" lon="-71.11385"/>
      <trkpt lat="42.30195" lon="-71.11415"/>
      <trkpt lat="42.30196" lon="-71.11435"/>
      <trkpt lat="42.30196" lon="-71.11438"/>
      <trkpt lat="42.302" lon="-71.11446"/>
      <trkpt lat="42.30196" lon="-71.11446"/>
      <trkpt lat="42.30187" lon="-71.11446"/>
      <trkpt lat="42.30172" lon="-71.11447"/>
      <trkpt lat="42.30163" lon="-71.11448"/>
      <trkpt lat="42.30167" lon="-71.11456"/>
      <trkpt lat="42.30169" lon="-71.1146"/>
      <trkpt lat="42.30168" lon="-71.11463"/>
      <trkpt lat="42.30166" lon="-71.11466"/>
      <trkpt lat="42.30165" lon="-71.11468"/>
      <trkpt lat="42.30162" lon="-71.11474"/>
      <trkpt lat="42.30166" lon="-71.11481"/>
      <trkpt lat="42.30184" lon="-71.1152"/>
      <trkpt lat="42.30202" lon="-71.11563"/>
      <trkpt lat="42.30216" lon="-71.11605"/>
      <trkpt lat="42.30223" lon="-71.11635"/>
      <trkpt lat="42.30227" lon="-71.1166"/>
      <trkpt lat="42.30228" lon="-71.1167"/>
      <trkpt lat="42.30226" lon="-71.11678"/>
      <trkpt lat="42.3022" lon="-71.11685"/>
      <trkpt lat="42.30223" lon="-71.11691"/>
      <trkpt lat="42.30211" lon="-71.11705"/>
      <trkpt lat="42.30175" lon="-71.11739"/>
      <trkpt lat="42.30167" lon="-71.1175"/>
      <trkpt lat="42.30161" lon="-71.11762"/>
      <trkpt lat="42.30157" lon="-71.1179"/>
      <trkpt lat="42.30152" lon="-71.11851"/>
      <trkpt lat="42.30147" lon="-71.11884"/>
      <trkpt lat="42.30147" lon="-71.11885"/>
      <trkpt lat="42.30142" lon="-71.11904"/>
      <trkpt lat="42.3014" lon="-71.1191"/>
      <trkpt lat="42.30152" lon="-71.11918"/>
      <trkpt lat="42.30172" lon="-71.11934"/>
      <trkpt lat="42.3018" lon="-71.1195"/>
      <trkpt lat="42.30198" lon="-71.12008"/>
      <trkpt lat="42.30202" lon="-71.12017"/>
      <trkpt lat="42.30206" lon="-71.12024"/>
      <trkpt lat="42.30218" lon="-71.12039"/>
      <trkpt lat="42.30238" lon="-71.12051"/>
      <trkpt lat="42.30246" lon="-71.12054"/>
      <trkpt lat="42.30291" lon="-71.12062"/>
      <trkpt lat="42.30311" lon="-71.1207"/>
      <trkpt lat="42.30331" lon="-71.12082"/>
      <trkpt lat="42.30386" lon="-71.12133"/>
      <trkpt lat="42.30412" lon="-71.12153"/>
      <trkpt lat="42.30439" lon="-71.12166"/>
      <trkpt lat="42.30457" lon="-71.12172"/>
      <trkpt lat="42.30483" lon="-71.12177"/>
      <trkpt lat="42.30525" lon="-71.12178"/>
      <trkpt lat="42.30558" lon="-71.12171"/>
      <trkpt lat="42.30587" lon="-71.12162"/>
      <trkpt lat="42.30621" lon="-71.12141"/>
      <trkpt lat="42.30649" lon="-71.12116"/>
      <trkpt lat="42.30667" lon="-71.12094"/>
      <trkpt lat="42.30704" lon="-71.12039"/>
      <trkpt lat="42.30718" lon="-71.1202"/>
      <trkpt lat="42.30726" lon="-71.12013"/>
      <trkpt lat="42.3073" lon="-71.12019"/>
      <trkpt lat="42.30741" lon="-71.12008"/>
      <trkpt lat="42.3076" lon="-71.11996"/>
      <trkpt lat="42.30773" lon="-71.11994"/>
      <trkpt lat="42.30781" lon="-71.11999"/>
      <trkpt lat="42.30803" lon="-71.12016"/>
      <trkpt lat="42.30849" lon="-71.12063"/>
      <trkpt lat="42.30856" lon="-71.12076"/>
      <trkpt lat="42.30863" lon="-71.12095"/>
      <trkpt lat="42.30865" lon="-71.12112"/>
      <trkpt lat="42.30864" lon="-71.12127"/>
      <trkpt lat="42.30857" lon="-71.12158"/>
      <trkpt lat="42.30857" lon="-71.12194"/>
      <trkpt lat="42.30855" lon="-71.12206"/>
      <trkpt lat="42.30858" lon="-71.12207"/>
      <trkpt lat="42.30862" lon="-71.12211"/>
      <trkpt lat="42.30865" lon="-71.12214"/>
      <trkpt lat="42.30883" lon="-71.12228"/>
      <trkpt lat="42.30888" lon="-71.1223"/>
      <trkpt lat="42.30897" lon="-71.12235"/>
      <trkpt lat="42.30904" lon="-71.12238"/>
      <trkpt lat="42.30913" lon="-71.12238"/>
      <trkpt lat="42.30919" lon="-71.12237"/>
      <trkpt lat="42.30921" lon="-71.12237"/>
      <trkpt lat="42.30931" lon="-71.12227"/>
      <trkpt lat="42.30947" lon="-71.12219"/>
      <trkpt lat="42.30951" lon="-71.12219"/>
      <trkpt lat="42.30963" lon="-71.1222"/>
      <trkpt lat="42.31009" lon="-71.12242"/>
      <trkpt lat="42.31053" lon="-71.12259"/>
      <trkpt lat="42.31107" lon="-71.12274"/>
      <trkpt lat="42.31138" lon="-71.1228"/>
      <trkpt lat="42.31203" lon="-71.12287"/>
      <trkpt lat="42.31228" lon="-71.12287"/>
      <trkpt lat="42.31248" lon="-71.12283"/>
      <trkpt lat="42.31253" lon="-71.12286"/>
      <trkpt lat="42.31255" lon="-71.12283"/>
      <trkpt lat="42.31262" lon="-71.12287"/>
      <trkpt lat="42.31266" lon="-71.12289"/>
      <trkpt lat="42.31268" lon="-71.12284"/>
      <trkpt lat="42.3127" lon="-71.12284"/>
      <trkpt lat="42.31273" lon="-71.12279"/>
      <trkpt lat="42.31275" lon="-71.12275"/>
      <trkpt lat="42.31276" lon="-71.12274"/>
      <trkpt lat="42.31304" lon="-71.12257"/>
      <trkpt lat="42.31329" lon="-71.12238"/>
      <trkpt lat="42.31338" lon="-71.12236"/>
      <trkpt lat="42.31345" lon="-71.12231"/>
      <trkpt lat="42.31349" lon="-71.12229"/>
      <trkpt lat="42.31356" lon="-71.12219"/>
      <trkpt lat="42.31365" lon="-71.12212"/>
      <trkpt lat="42.31368" lon="-71.12209"/>
      <trkpt lat="42.3137" lon="-71.12207"/>
      <trkpt lat="42.31374" lon="-71.12204"/>
      <trkpt lat="42.31377" lon="-71.12202"/>
      <trkpt lat="42.31379" lon="-71.12201"/>
      <trkpt lat="42.31391" lon="-71.12192"/>
      <trkpt lat="42.31398" lon="-71.12178"/>
      <trkpt lat="42.31402" lon="-71.12156"/>
      <trkpt lat="42.31402" lon="-71.12136"/>
      <trkpt lat="42.31436" lon="-71.12146"/>
      <trkpt lat="42.31446" lon="-71.12172"/>
      <trkpt lat="42.31448" lon="-71.12174"/>
      <trkpt lat="42.31456" lon="-71.12184"/>
      <trkpt lat="42.31465" lon="-71.12202"/>
      <trkpt lat="42.31466" lon="-71.12214"/>
      <trkpt lat="42.31462" lon="-71.12247"/>
      <trkpt lat="42.31464" lon="-71.12269"/>
      <trkpt lat="42.31467" lon="-71.12278"/>
      <trkpt lat="42.31478" lon="-71.12294"/>
      <trkpt lat="42.31488" lon="-71.12302"/>
      <trkpt lat="42.31495" lon="-71.12305"/>
      <trkpt lat="42.31512" lon="-71.12304"/>
      <trkpt lat="42.31564" lon="-71.1229"/>
      <trkpt lat="42.31589" lon="-71.12287"/>
      <trkpt lat="42.3164" lon="-71.1231"/>
      <trkpt lat="42.31678" lon="-71.12306"/>
      <trkpt lat="42.31686" lon="-71.12309"/>
      <trkpt lat="42.31697" lon="-71.12317"/>
      <trkpt lat="42.31716" lon="-71.12326"/>
      <trkpt lat="42.31755" lon="-71.12343"/>
      <trkpt lat="42.31844" lon="-71.12373"/>
      <trkpt lat="42.31868" lon="-71.12378"/>
      <trkpt lat="42.31875" lon="-71.12377"/>
      <trkpt lat="42.31898" lon="-71.12361"/>
      <trkpt lat="42.31917" lon="-71.1235"/>
      <trkpt lat="42.31933" lon="-71.12333"/>
      <trkpt lat="42.31951" lon="-71.12307"/>
      <trkpt lat="42.31974" lon="-71.12267"/>
      <trkpt lat="42.31997" lon="-71.12226"/>
      <trkpt lat="42.32016" lon="-71.12203"/>
      <trkpt lat="42.32044" lon="-71.12182"/>
      <trkpt lat="42.32054" lon="-71.12172"/>
      <trkpt lat="42.32088" lon="-71.12126"/>
      <trkpt lat="42.32111" lon="-71.12102"/>
      <trkpt lat="42.32123" lon="-71.12085"/>
      <trkpt lat="42.32132" lon="-71.12055"/>
      <trkpt lat="42.32133" lon="-71.12032"/>
      <trkpt lat="42.32129" lon="-71.12011"/>
      <trkpt lat="42.32125" lon="-71.11999"/>
      <trkpt lat="42.32122" lon="-71.11992"/>
      <trkpt lat="42.32113" lon="-71.11982"/>
      <trkpt lat="42.32138" lon="-71.11958"/>
      <trkpt lat="42.32139" lon="-71.11957"/>
      <trkpt lat="42.32145" lon="-71.11954"/>
      <trkpt lat="42.32151" lon="-71.11951"/>
      <trkpt lat="42.32158" lon="-71.11948"/>
      <trkpt lat="42.3216" lon="-71.11946"/>
      <trkpt lat="42.32162" lon="-71.11942"/>
      <trkpt lat="42.32163" lon="-71.1194"/>
      <trkpt lat="42.32169" lon="-71.11944"/>
      <trkpt lat="42.32216" lon="-71.11944"/>
      <trkpt lat="42.32244" lon="-71.11949"/>
      <trkpt lat="42.32263" lon="-71.11946"/>
      <trkpt lat="42.32276" lon="-71.11938"/>
      <trkpt lat="42.32283" lon="-71.1193"/>
      <trkpt lat="42.3229" lon="-71.11929"/>
      <trkpt lat="42.32296" lon="-71.11929"/>
      <trkpt lat="42.323" lon="-71.11926"/>
      <trkpt lat="42.32339" lon="-71.11867"/>
      <trkpt lat="42.32345" lon="-71.11857"/>
      <trkpt lat="42.32351" lon="-71.11843"/>
      <trkpt lat="42.32357" lon="-71.11818"/>
      <trkpt lat="42.32369" lon="-71.11742"/>
      <trkpt lat="42.32372" lon="-71.11726"/>
      <trkpt lat="42.32377" lon="-71.11699"/>
      <trkpt lat="42.32383" lon="-71.11683"/>
      <trkpt lat="42.3239" lon="-71.11671"/>
      <trkpt lat="42.32404" lon="-71.11657"/>
      <trkpt lat="42.32425" lon="-71.11647"/>
      <trkpt lat="42.32503" lon="-71.11641"/>
      <trkpt lat="42.32544" lon="-71.11629"/>
      <trkpt lat="42.32556" lon="-71.11631"/>
      <trkpt lat="42.32575" lon="-71.11637"/>
      <trkpt lat="42.32588" lon="-71.11634"/>
      <trkpt lat="42.32593" lon="-71.11633"/>
      <trkpt lat="42.32597" lon="-71.11633"/>
      <trkpt lat="42.32605" lon="-71.11628"/>
      <trkpt lat="42.32615" lon="-71.11618"/>
      <trkpt lat="42.32628" lon="-71.11611"/>
      <trkpt lat="42.32658" lon="-71.11598"/>
      <trkpt lat="42.32682" lon="-71.1158"/>
      <trkpt lat="42.32694" lon="-71.11571"/>
      <trkpt lat="42.32688" lon="-71.11557"/>
      <trkpt lat="42.32701" lon="-71.11548"/>
      <trkpt lat="42.32729" lon="-71.11536"/>
      <trkpt lat="42.32735" lon="-71.11535"/>
      <trkpt lat="42.32762" lon="-71.11535"/>
      <trkpt lat="42.32832" lon="-71.11523"/>
      <trkpt lat="42.3286" lon="-71.11511"/>
      <trkpt lat="42.32891" lon="-71.11493"/>
      <trkpt lat="42.32947" lon="-71.11454"/>
      <trkpt lat="42.33036" lon="-71.11402"/>
      <trkpt lat="42.33048" lon="-71.11394"/>
      <trkpt lat="42.33059" lon="-71.1139"/>
      <trkpt lat="42.3307" lon="-71.11387"/>
      <trkpt lat="42.33075" lon="-71.11386"/>
      <trkpt lat="42.3309" lon="-71.11384"/>
      <trkpt lat="42.33118" lon="-71.11384"/>
      <trkpt lat="42.33125" lon="-71.11384"/>
      <trkpt lat="42.33135" lon="-71.11379"/>
      <trkpt lat="42.33139" lon="-71.11376"/>
      <trkpt lat="42.33142" lon="-71.11373"/>
      <trkpt lat="42.33144" lon="-71.11373"/>
      <trkpt lat="42.33157" lon="-71.11363"/>
      <trkpt lat="42.33168" lon="-71.11339"/>
      <trkpt lat="42.33173" lon="-71.11339"/>
      <trkpt lat="42.33175" lon="-71.1134"/>
      <trkpt lat="42.3318" lon="-71.11341"/>
      <trkpt lat="42.33184" lon="-71.11342"/>
      <trkpt lat="42.33186" lon="-71.11342"/>
      <trkpt lat="42.33191" lon="-71.11344"/>
      <trkpt lat="42.33196" lon="-71.11345"/>
      <trkpt lat="42.33197" lon="-71.11345"/>
      <trkpt lat="42.33198" lon="-71.11346"/>
      <trkpt lat="42.33215" lon="-71.11349"/>
      <trkpt lat="42.33225" lon="-71.11348"/>
      <trkpt lat="42.33245" lon="-71.11338"/>
      <trkpt lat="42.33255" lon="-71.11331"/>
      <trkpt lat="42.33286" lon="-71.11297"/>
      <trkpt lat="42.33311" lon="-71.11277"/>
      <trkpt lat="42.33321" lon="-71.11273"/>
      <trkpt lat="42.33327" lon="-71.11269"/>
      <trkpt lat="42.33331" lon="-71.11267"/>
      <trkpt lat="42.33343" lon="-71.11258"/>
      <trkpt lat="42.33365" lon="-71.11253"/>
      <trkpt lat="42.33377" lon="-71.11246"/>
      <trkpt lat="42.33444" lon="-71.11181"/>
      <trkpt lat="42.33449" lon="-71.11181"/>
      <trkpt lat="42.33462" lon="-71.11169"/>
      <trkpt lat="42.33475" lon="-71.11155"/>
      <trkpt lat="42.3348" lon="-71.11165"/>
      <trkpt lat="42.33486" lon="-71.11174"/>
      <trkpt lat="42.33487" lon="-71.11175"/>
      <trkpt lat="42.33489" lon="-71.11171"/>
      <trkpt lat="42.33519" lon="-71.1114"/>
      <trkpt lat="42.33523" lon="-71.11136"/>
      <trkpt lat="42.33527" lon="-71.11131"/>
      <trkpt lat="42.33531" lon="-71.11127"/>
      <trkpt lat="42.33566" lon="-71.11123"/>
      <trkpt lat="42.33582" lon="-71.11122"/>
      <trkpt lat="42.33629" lon="-71.11131"/>
      <trkpt lat="42.33647" lon="-71.11135"/>
      <trkpt lat="42.33661" lon="-71.11141"/>
      <trkpt lat="42.33667" lon="-71.11145"/>
      <trkpt lat="42.33671" lon="-71.11149"/>
      <trkpt lat="42.33677" lon="-71.11155"/>
      <trkpt lat="42.33688" lon="-71.11166"/>
      <trkpt lat="42.33694" lon="-71.1117"/>
      <trkpt lat="42.33702" lon="-71.11175"/>
      <trkpt lat="42.33707" lon="-71.11179"/>
      <trkpt lat="42.33717" lon="-71.11181"/>
      <trkpt lat="42.3374" lon="-71.11179"/>
      <trkpt lat="42.3377" lon="-71.11167"/>
      <trkpt lat="42.33813" lon="-71.11145"/>
      <trkpt lat="42.33869" lon="-71.11122"/>
      <trkpt lat="42.33974" lon="-71.11098"/>
      <trkpt lat="42.34009" lon="-71.11087"/>
      <trkpt lat="42.34027" lon="-71.11077"/>
      <trkpt lat="42.34055" lon="-71.11065"/>
      <trkpt lat="42.34072" lon="-71.11054"/>
      <trkpt lat="42.34103" lon="-71.11031"/>
      <trkpt lat="42.34138" lon="-71.11"/>
      <trkpt lat="42.34176" lon="-71.10955"/>
      <trkpt lat="42.34187" lon="-71.10937"/>
      <trkpt lat="42.34204" lon="-71.10904"/>
      <trkpt lat="42.34221" lon="-71.10878"/>
      <trkpt lat="42.34232" lon="-71.10866"/>
      <trkpt lat="42.34254" lon="-71.10842"/>
      <trkpt lat="42.34262" lon="-71.10831"/>
      <trkpt lat="42.34283" lon="-71.10793"/>
      <trkpt lat="42.34313" lon="-71.10731"/>
      <trkpt lat="42.34324" lon="-71.10707"/>
      <trkpt lat="42.34343" lon="-71.10676"/>
      <trkpt lat="42.34386" lon="-71.10619"/>
      <trkpt lat="42.34398" lon="-71.10601"/>
      <trkpt lat="42.34428" lon="-71.1055"/>
      <trkpt lat="42.34442" lon="-71.10516"/>
      <trkpt lat="42.34456" lon="-71.10478"/>
      <trkpt lat="42.34458" lon="-71.10467"/>
      <trkpt lat="42.34458" lon="-71.1045"/>
      <trkpt lat="42.34459" lon="-71.10431"/>
      <trkpt lat="42.34436" lon="-71.10435"/>
      <trkpt lat="42.34425" lon="-71.1044"/>
      <trkpt lat="42.34411" lon="-71.10453"/>
      <trkpt lat="42.3438" lon="-71.10495"/>
      <trkpt lat="42.34358" lon="-71.10531"/>
      <trkpt lat="42.3434" lon="-71.10568"/>
      <trkpt lat="42.34318" lon="-71.10606"/>
      <trkpt lat="42.34264" lon="-71.10664"/>
      <trkpt lat="42.34248" lon="-71.1068"/>
      <trkpt lat="42.34226" lon="-71.10695"/>
      <trkpt lat="42.34212" lon="-71.10712"/>
      <trkpt lat="42.34208" lon="-71.1072"/>
      <trkpt lat="42.34204" lon="-71.10736"/>
      <trkpt lat="42.34203" lon="-71.10738"/>
      <trkpt lat="42.34193" lon="-71.10791"/>
      <trkpt lat="42.34178" lon="-71.10824"/>
      <trkpt lat="42.34169" lon="-71.10834"/>
      <trkpt lat="42.3416" lon="-71.10848"/>
      <trkpt lat="42.34125" lon="-71.10937"/>
      <trkpt lat="42.34111" lon="-71.10966"/>
      <trkpt lat="42.34103" lon="-71.10979"/>
      <trkpt lat="42.34075" lon="-71.11016"/>
      <trkpt lat="42.34051" lon="-71.11041"/>
      <trkpt lat="42.34017" lon="-71.11053"/>
      <trkpt lat="42.33973" lon="-71.11061"/>
      <trkpt lat="42.33935" lon="-71.11071"/>
      <trkpt lat="42.33882" lon="-71.11076"/>
      <trkpt lat="42.33846" lon="-71.11081"/>
      <trkpt lat="42.33779" lon="-71.11112"/>
      <trkpt lat="42.33767" lon="-71.11114"/>
      <trkpt lat="42.33747" lon="-71.11112"/>
      <trkpt lat="42.33734" lon="-71.11138"/>
      <trkpt lat="42.33727" lon="-71.11148"/>
      <trkpt lat="42.33707" lon="-71.11169"/>
      <trkpt lat="42.33702" lon="-71.11175"/>
      <trkpt lat="42.33694" lon="-71.1117"/>
      <trkpt lat="42.33688" lon="-71.11166"/>
      <trkpt lat="42.33677" lon="-71.11155"/>
      <trkpt lat="42.33671" lon="-71.11149"/>
      <trkpt lat="42.33667" lon="-71.11145"/>
      <trkpt lat="42.33661" lon="-71.11141"/>
      <trkpt lat="42.33647" lon="-71.11135"/>
      <trkpt lat="42.33582" lon="-71.11122"/>
      <trkpt lat="42.33566" lon="-71.11123"/>
      <trkpt lat="42.33558" lon="-71.11124"/>
      <trkpt lat="42.33531" lon="-71.11127"/>
      <trkpt lat="42.33527" lon="-71.11131"/>
      <trkpt lat="42.33523" lon="-71.11136"/>
      <trkpt lat="42.33519" lon="-71.1114"/>
      <trkpt lat="42.33489" lon="-71.11171"/>
      <trkpt lat="42.33487" lon="-71.11175"/>
      <trkpt lat="42.33486" lon="-71.11174"/>
      <trkpt lat="42.3348" lon="-71.11165"/>
      <trkpt lat="42.33475" lon="-71.11155"/>
      <trkpt lat="42.33462" lon="-71.11169"/>
      <trkpt lat="42.33449" lon="-71.11181"/>
      <trkpt lat="42.33444" lon="-71.11181"/>
      <trkpt lat="42.33377" lon="-71.11246"/>
      <trkpt lat="42.33365" lon="-71.11253"/>
      <trkpt lat="42.33343" lon="-71.11258"/>
      <trkpt lat="42.33331" lon="-71.11267"/>
      <trkpt lat="42.33327" lon="-71.11269"/>
      <trkpt lat="42.33321" lon="-71.11273"/>
      <trkpt lat="42.33311" lon="-71.11277"/>
      <trkpt lat="42.33286" lon="-71.11297"/>
      <trkpt lat="42.33255" lon="-71.11331"/>
      <trkpt lat="42.33245" lon="-71.11338"/>
      <trkpt lat="42.33225" lon="-71.11348"/>
      <trkpt lat="42.33215" lon="-71.11349"/>
      <trkpt lat="42.33198" lon="-71.11346"/>
      <trkpt lat="42.33197" lon="-71.11345"/>
      <trkpt lat="42.33196" lon="-71.11345"/>
      <trkpt lat="42.33191" lon="-71.11344"/>
      <trkpt lat="42.33186" lon="-71.11342"/>
      <trkpt lat="42.33184" lon="-71.11342"/>
      <trkpt lat="42.3318" lon="-71.11341"/>
      <trkpt lat="42.33175" lon="-71.1134"/>
      <trkpt lat="42.33173" lon="-71.11339"/>
      <trkpt lat="42.33168" lon="-71.11339"/>
      <trkpt lat="42.33157" lon="-71.11363"/>
      <trkpt lat="42.33144" lon="-71.11373"/>
      <trkpt lat="42.33142" lon="-71.11373"/>
      <trkpt lat="42.33139" lon="-71.11376"/>
      <trkpt lat="42.33135" lon="-71.11379"/>
      <trkpt lat="42.33125" lon="-71.11384"/>
      <trkpt lat="42.33118" lon="-71.11384"/>
      <trkpt lat="42.33111" lon="-71.11368"/>
      <trkpt lat="42.33107" lon="-71.1136"/>
      <trkpt lat="42.33084" lon="-71.11352"/>
      <trkpt lat="42.33071" lon="-71.11343"/>
      <trkpt lat="42.33042" lon="-71.11306"/>
      <trkpt lat="42.33031" lon="-71.11297"/>
      <trkpt lat="42.32971" lon="-71.11249"/>
      <trkpt lat="42.32943" lon="-71.11226"/>
      <trkpt lat="42.32915" lon="-71.11214"/>
      <trkpt lat="42.32887" lon="-71.11209"/>
      <trkpt lat="42.32862" lon="-71.11208"/>
      <trkpt lat="42.32829" lon="-71.11213"/>
      <trkpt lat="42.32801" lon="-71.11221"/>
      <trkpt lat="42.32784" lon="-71.11228"/>
      <trkpt lat="42.3276" lon="-71.11242"/>
      <trkpt lat="42.32733" lon="-71.11268"/>
      <trkpt lat="42.32713" lon="-71.11282"/>
      <trkpt lat="42.32635" lon="-71.11323"/>
      <trkpt lat="42.32611" lon="-71.11333"/>
      <trkpt lat="42.32558" lon="-71.11342"/>
      <trkpt lat="42.32545" lon="-71.11347"/>
      <trkpt lat="42.32543" lon="-71.11348"/>
      <trkpt lat="42.32533" lon="-71.11355"/>
      <trkpt lat="42.32521" lon="-71.11372"/>
      <trkpt lat="42.32493" lon="-71.11427"/>
      <trkpt lat="42.32482" lon="-71.11444"/>
      <trkpt lat="42.32471" lon="-71.11458"/>
      <trkpt lat="42.32458" lon="-71.11469"/>
      <trkpt lat="42.32454" lon="-71.11472"/>
      <trkpt lat="42.32449" lon="-71.11477"/>
      <trkpt lat="42.32445" lon="-71.1148"/>
      <trkpt lat="42.32438" lon="-71.11488"/>
      <trkpt lat="42.32431" lon="-71.11494"/>
      <trkpt lat="42.32423" lon="-71.11496"/>
      <trkpt lat="42.32379" lon="-71.11507"/>
      <trkpt lat="42.32369" lon="-71.11514"/>
      <trkpt lat="42.32348" lon="-71.11534"/>
      <trkpt lat="42.32336" lon="-71.1155"/>
      <trkpt lat="42.32327" lon="-71.1157"/>
      <trkpt lat="42.32303" lon="-71.11636"/>
      <trkpt lat="42.32295" lon="-71.11654"/>
      <trkpt lat="42.32286" lon="-71.11668"/>
      <trkpt lat="42.32278" lon="-71.11678"/>
      <trkpt lat="42.32261" lon="-71.11691"/>
      <trkpt lat="42.3225" lon="-71.11697"/>
      <trkpt lat="42.3224" lon="-71.11699"/>
      <trkpt lat="42.32203" lon="-71.11698"/>
      <trkpt lat="42.32172" lon="-71.11692"/>
      <trkpt lat="42.32118" lon="-71.11677"/>
      <trkpt lat="42.32114" lon="-71.1168"/>
      <trkpt lat="42.32112" lon="-71.11677"/>
      <trkpt lat="42.32104" lon="-71.11678"/>
      <trkpt lat="42.32096" lon="-71.11678"/>
      <trkpt lat="42.32083" lon="-71.11689"/>
      <trkpt lat="42.32053" lon="-71.11705"/>
      <trkpt lat="42.3203" lon="-71.11726"/>
      <trkpt lat="42.3202" lon="-71.11734"/>
      <trkpt lat="42.3201" lon="-71.1174"/>
      <trkpt lat="42.31978" lon="-71.11748"/>
      <trkpt lat="42.31919" lon="-71.11726"/>
      <trkpt lat="42.31915" lon="-71.11724"/>
      <trkpt lat="42.31876" lon="-71.11701"/>
      <trkpt lat="42.31867" lon="-71.11694"/>
      <trkpt lat="42.31854" lon="-71.11692"/>
      <trkpt lat="42.31844" lon="-71.11696"/>
      <trkpt lat="42.31822" lon="-71.11696"/>
      <trkpt lat="42.31757" lon="-71.11722"/>
      <trkpt lat="42.31729" lon="-71.11726"/>
      <trkpt lat="42.31685" lon="-71.11724"/>
      <trkpt lat="42.31629" lon="-71.11738"/>
      <trkpt lat="42.31596" lon="-71.11739"/>
      <trkpt lat="42.31583" lon="-71.11738"/>
      <trkpt lat="42.31573" lon="-71.11743"/>
      <trkpt lat="42.31564" lon="-71.11718"/>
      <trkpt lat="42.31558" lon="-71.11723"/>
      <trkpt lat="42.31552" lon="-71.11709"/>
      <trkpt lat="42.31549" lon="-71.11701"/>
      <trkpt lat="42.31544" lon="-71.11696"/>
      <trkpt lat="42.31545" lon="-71.11692"/>
      <trkpt lat="42.31545" lon="-71.11675"/>
      <trkpt lat="42.31535" lon="-71.11645"/>
      <trkpt lat="42.31512" lon="-71.11579"/>
      <trkpt lat="42.3151" lon="-71.11578"/>
      <trkpt lat="42.31508" lon="-71.11571"/>
      <trkpt lat="42.31423" lon="-71.11634"/>
      <trkpt lat="42.31412" lon="-71.11636"/>
      <trkpt lat="42.31407" lon="-71.11629"/>
      <trkpt lat="42.31381" lon="-71.11563"/>
      <trkpt lat="42.31351" lon="-71.11485"/>
      <trkpt lat="42.31339" lon="-71.11453"/>
      <trkpt lat="42.31327" lon="-71.11421"/>
      <trkpt lat="42.31321" lon="-71.11421"/>
      <trkpt lat="42.31277" lon="-71.11422"/>
    </trkseg>
  </trk>
</gpx>