<?xml version="1.0" encoding="UTF-8"?>
<gpx version="1.1" creator="Forest Hills Runners" xmlns="http://www.topografix.com/GPX/1/1">
  <metadata>
    <name>Franklin Park Saturday Loop</name>
  </metadata>
  <trk>
    <name>Franklin Park Saturday Loop</name>
    <trkseg>
      <trkpt lat="42.30172" lon="-71.11382"></trkpt>
      <trkpt lat="42.29904" lon="-71.11142"></trkpt>
      <trkpt lat="42.29631" lon="-71.10886"></trkpt>
      <trkpt lat="42.29444" lon="-71.10551"></trkpt>
      <trkpt lat="42.29472" lon="-71.10164"></trkpt>
      <trkpt lat="42.29701" lon="-71.09837"></trkpt>
      <trkpt lat="42.30028" lon="-71.09673"></trkpt>
      <trkpt lat="42.30363" lon="-71.09776"></trkpt>
      <trkpt lat="42.30562" lon="-71.10084"></trkpt>
      <trkpt lat="42.30548" lon="-71.10496"></trkpt>
      <trkpt lat="42.30321" lon="-71.10758"></trkpt>
      <trkpt lat="42.30008" lon="-71.10802"></trkpt>
      <trkpt lat="42.29878" lon="-71.11072"></trkpt>
      <trkpt lat="42.30017" lon="-71.11329"></trkpt>
      <trkpt lat="42.30252" lon="-71.11604"></trkpt>
      <trkpt lat="42.30483" lon="-71.11852"></trkpt>
      <trkpt lat="42.30786" lon="-71.11984"></trkpt>
      <trkpt lat="42.31061" lon="-71.11906"></trkpt>
      <trkpt lat="42.31318" lon="-71.11652"></trkpt>
      <trkpt lat="42.31481" lon="-71.11403"></trkpt>
    </trkseg>
  </trk>
</gpx>
