<?xml version="1.0" encoding="UTF-8" standalone="yes"?>
<gpx version="1.1" creator="https://onthegomap.com" xmlns="http://www.topografix.com/GPX/1/1">
  <metadata>
    <name>3.4 mile route</name>
    <link href="https://onthegomap.com">
      <text>On The Go Map</text>
    </link>
    <time>2026-04-30T03:05:53.004Z</time>
    <copyright author="On The Go Map, OpenStreetMap Contributors">
      <year>2026</year>
    </copyright>
  </metadata>
  <trk>
    <name>3.4 mile route</name>
    <trkseg>
      <trkpt lat="42.30192" lon="-71.11365"/>
      <trkpt lat="42.30194" lon="-71.11371"/>
      <trkpt lat="42.30198" lon="-71.11374"/>
      <trkpt lat="42.30199" lon="-71.11375"/>
      <trkpt lat="42.30202" lon="-71.11368"/>
      <trkpt lat="42.30206" lon="-71.11369"/>
      <trkpt lat="42.30209" lon="-71.11367"/>
      <trkpt lat="42.30212" lon="-71.11363"/>
      <trkpt lat="42.30211" lon="-71.11356"/>
      <trkpt lat="42.30215" lon="-71.11352"/>
      <trkpt lat="42.30222" lon="-71.11338"/>
      <trkpt lat="42.30235" lon="-71.11323"/>
      <trkpt lat="42.30261" lon="-71.11296"/>
      <trkpt lat="42.30274" lon="-71.11285"/>
      <trkpt lat="42.30313" lon="-71.11263"/>
      <trkpt lat="42.30371" lon="-71.11215"/>
      <trkpt lat="42.30426" lon="-71.11185"/>
      <trkpt lat="42.30486" lon="-71.11137"/>
      <trkpt lat="42.30559" lon="-71.1109"/>
      <trkpt lat="42.30584" lon="-71.1108"/>
      <trkpt lat="42.3061" lon="-71.11074"/>
      <trkpt lat="42.30614" lon="-71.11073"/>
      <trkpt lat="42.30619" lon="-71.11071"/>
      <trkpt lat="42.30637" lon="-71.11057"/>
      <trkpt lat="42.30653" lon="-71.11045"/>
      <trkpt lat="42.3068" lon="-71.11033"/>
      <trkpt lat="42.30704" lon="-71.1101"/>
      <trkpt lat="42.30708" lon="-71.11005"/>
      <trkpt lat="42.30713" lon="-71.10993"/>
      <trkpt lat="42.30716" lon="-71.10979"/>
      <trkpt lat="42.30716" lon="-71.10971"/>
      <trkpt lat="42.30719" lon="-71.10971"/>
      <trkpt lat="42.30722" lon="-71.1095"/>
      <trkpt lat="42.30726" lon="-71.10937"/>
      <trkpt lat="42.3073" lon="-71.1093"/>
      <trkpt lat="42.30741" lon="-71.1092"/>
      <trkpt lat="42.30745" lon="-71.10917"/>
      <trkpt lat="42.3075" lon="-71.10914"/>
      <trkpt lat="42.30838" lon="-71.10855"/>
      <trkpt lat="42.30998" lon="-71.1075"/>
      <trkpt lat="42.30999" lon="-71.10745"/>
      <trkpt lat="42.31004" lon="-71.10742"/>
      <trkpt lat="42.31009" lon="-71.1074"/>
      <trkpt lat="42.31011" lon="-71.10741"/>
      <trkpt lat="42.31045" lon="-71.10718"/>
      <trkpt lat="42.31049" lon="-71.10714"/>
      <trkpt lat="42.31052" lon="-71.10711"/>
      <trkpt lat="42.31055" lon="-71.10708"/>
      <trkpt lat="42.31059" lon="-71.10707"/>
      <trkpt lat="42.31073" lon="-71.10701"/>
      <trkpt lat="42.31131" lon="-71.10667"/>
      <trkpt lat="42.31236" lon="-71.10598"/>
      <trkpt lat="42.31263" lon="-71.10586"/>
      <trkpt lat="42.31314" lon="-71.10573"/>
      <trkpt lat="42.31354" lon="-71.10551"/>
      <trkpt lat="42.31374" lon="-71.10542"/>
      <trkpt lat="42.31395" lon="-71.10532"/>
      <trkpt lat="42.31425" lon="-71.10529"/>
      <trkpt lat="42.31434" lon="-71.10533"/>
      <trkpt lat="42.31451" lon="-71.10552"/>
      <trkpt lat="42.31458" lon="-71.10557"/>
      <trkpt lat="42.31461" lon="-71.10556"/>
      <trkpt lat="42.31463" lon="-71.10553"/>
      <trkpt lat="42.31468" lon="-71.10551"/>
      <trkpt lat="42.31472" lon="-71.1055"/>
      <trkpt lat="42.31485" lon="-71.10549"/>
      <trkpt lat="42.31507" lon="-71.10545"/>
      <trkpt lat="42.31549" lon="-71.10533"/>
      <trkpt lat="42.31588" lon="-71.10518"/>
      <trkpt lat="42.31617" lon="-71.10504"/>
      <trkpt lat="42.31628" lon="-71.10499"/>
      <trkpt lat="42.31651" lon="-71.10489"/>
      <trkpt lat="42.31661" lon="-71.10486"/>
      <trkpt lat="42.31694" lon="-71.10484"/>
      <trkpt lat="42.31698" lon="-71.10482"/>
      <trkpt lat="42.317" lon="-71.1048"/>
      <trkpt lat="42.31698" lon="-71.10482"/>
      <trkpt lat="42.31698" lon="-71.10492"/>
      <trkpt lat="42.31699" lon="-71.105"/>
      <trkpt lat="42.31694" lon="-71.10541"/>
      <trkpt lat="42.31696" lon="-71.10542"/>
      <trkpt lat="42.31693" lon="-71.10567"/>
      <trkpt lat="42.31694" lon="-71.1058"/>
      <trkpt lat="42.31701" lon="-71.10609"/>
      <trkpt lat="42.31709" lon="-71.10632"/>
      <trkpt lat="42.31724" lon="-71.10662"/>
      <trkpt lat="42.31727" lon="-71.10668"/>
      <trkpt lat="42.31729" lon="-71.10673"/>
      <trkpt lat="42.31748" lon="-71.10708"/>
      <trkpt lat="42.31749" lon="-71.10711"/>
      <trkpt lat="42.31752" lon="-71.10716"/>
      <trkpt lat="42.31775" lon="-71.10766"/>
      <trkpt lat="42.31783" lon="-71.10786"/>
      <trkpt lat="42.3179" lon="-71.10802"/>
      <trkpt lat="42.318" lon="-71.10838"/>
      <trkpt lat="42.31803" lon="-71.10846"/>
      <trkpt lat="42.31807" lon="-71.10865"/>
      <trkpt lat="42.31809" lon="-71.10869"/>
      <trkpt lat="42.31833" lon="-71.10928"/>
      <trkpt lat="42.31836" lon="-71.10936"/>
      <trkpt lat="42.31839" lon="-71.10943"/>
      <trkpt lat="42.3188" lon="-71.11037"/>
      <trkpt lat="42.31885" lon="-71.11047"/>
      <trkpt lat="42.3189" lon="-71.11057"/>
      <trkpt lat="42.3195" lon="-71.11158"/>
      <trkpt lat="42.31954" lon="-71.11166"/>
      <trkpt lat="42.31959" lon="-71.1118"/>
      <trkpt lat="42.31968" lon="-71.11226"/>
      <trkpt lat="42.31971" lon="-71.1125"/>
      <trkpt lat="42.31982" lon="-71.1139"/>
      <trkpt lat="42.31982" lon="-71.11396"/>
      <trkpt lat="42.31993" lon="-71.11559"/>
      <trkpt lat="42.31994" lon="-71.11566"/>
      <trkpt lat="42.31994" lon="-71.11573"/>
      <trkpt lat="42.31998" lon="-71.1161"/>
      <trkpt lat="42.32002" lon="-71.11633"/>
      <trkpt lat="42.3201" lon="-71.11666"/>
      <trkpt lat="42.32014" lon="-71.11684"/>
      <trkpt lat="42.32022" lon="-71.11677"/>
      <trkpt lat="42.32028" lon="-71.11676"/>
      <trkpt lat="42.32066" lon="-71.11651"/>
      <trkpt lat="42.32086" lon="-71.11644"/>
      <trkpt lat="42.3209" lon="-71.11641"/>
      <trkpt lat="42.32094" lon="-71.11646"/>
      <trkpt lat="42.32095" lon="-71.11659"/>
      <trkpt lat="42.32096" lon="-71.11678"/>
      <trkpt lat="42.32083" lon="-71.11689"/>
      <trkpt lat="42.3207" lon="-71.11696"/>
      <trkpt lat="42.32053" lon="-71.11705"/>
      <trkpt lat="42.3203" lon="-71.11726"/>
      <trkpt lat="42.3202" lon="-71.11734"/>
      <trkpt lat="42.3201" lon="-71.1174"/>
      <trkpt lat="42.31978" lon="-71.11748"/>
      <trkpt lat="42.31919" lon="-71.11726"/>
      <trkpt lat="42.31876" lon="-71.11701"/>
      <trkpt lat="42.31867" lon="-71.11694"/>
      <trkpt lat="42.31854" lon="-71.11692"/>
      <trkpt lat="42.31844" lon="-71.11696"/>
      <trkpt lat="42.31851" lon="-71.11714"/>
      <trkpt lat="42.31856" lon="-71.11726"/>
      <trkpt lat="42.31861" lon="-71.11755"/>
      <trkpt lat="42.31865" lon="-71.11762"/>
      <trkpt lat="42.31894" lon="-71.11807"/>
      <trkpt lat="42.31908" lon="-71.11839"/>
      <trkpt lat="42.3191" lon="-71.11849"/>
      <trkpt lat="42.31908" lon="-71.11864"/>
      <trkpt lat="42.31902" lon="-71.11897"/>
      <trkpt lat="42.31901" lon="-71.11915"/>
      <trkpt lat="42.31901" lon="-71.12012"/>
      <trkpt lat="42.31903" lon="-71.12021"/>
      <trkpt lat="42.31911" lon="-71.12032"/>
      <trkpt lat="42.3192" lon="-71.1204"/>
      <trkpt lat="42.31928" lon="-71.12042"/>
      <trkpt lat="42.31933" lon="-71.12042"/>
      <trkpt lat="42.31951" lon="-71.12039"/>
      <trkpt lat="42.3197" lon="-71.12032"/>
      <trkpt lat="42.3198" lon="-71.12025"/>
      <trkpt lat="42.32001" lon="-71.12002"/>
      <trkpt lat="42.32008" lon="-71.1199"/>
      <trkpt lat="42.32011" lon="-71.11986"/>
      <trkpt lat="42.32025" lon="-71.11972"/>
      <trkpt lat="42.32034" lon="-71.11972"/>
      <trkpt lat="42.32057" lon="-71.11981"/>
      <trkpt lat="42.321" lon="-71.11979"/>
      <trkpt lat="42.32113" lon="-71.11982"/>
      <trkpt lat="42.32122" lon="-71.11992"/>
      <trkpt lat="42.32129" lon="-71.12011"/>
      <trkpt lat="42.32133" lon="-71.12032"/>
      <trkpt lat="42.32132" lon="-71.12055"/>
      <trkpt lat="42.32123" lon="-71.12085"/>
      <trkpt lat="42.32111" lon="-71.12102"/>
      <trkpt lat="42.32088" lon="-71.12126"/>
      <trkpt lat="42.32054" lon="-71.12172"/>
      <trkpt lat="42.32044" lon="-71.12182"/>
      <trkpt lat="42.32016" lon="-71.12203"/>
      <trkpt lat="42.31997" lon="-71.12226"/>
      <trkpt lat="42.31974" lon="-71.12267"/>
      <trkpt lat="42.31951" lon="-71.12307"/>
      <trkpt lat="42.31933" lon="-71.12333"/>
      <trkpt lat="42.31917" lon="-71.1235"/>
      <trkpt lat="42.31898" lon="-71.12361"/>
      <trkpt lat="42.31875" lon="-71.12377"/>
      <trkpt lat="42.31868" lon="-71.12378"/>
      <trkpt lat="42.31844" lon="-71.12373"/>
      <trkpt lat="42.31803" lon="-71.1236"/>
      <trkpt lat="42.31755" lon="-71.12343"/>
      <trkpt lat="42.31716" lon="-71.12326"/>
      <trkpt lat="42.31697" lon="-71.12317"/>
      <trkpt lat="42.31686" lon="-71.12309"/>
      <trkpt lat="42.31678" lon="-71.12306"/>
      <trkpt lat="42.3164" lon="-71.1231"/>
      <trkpt lat="42.31589" lon="-71.12287"/>
      <trkpt lat="42.31564" lon="-71.1229"/>
      <trkpt lat="42.31512" lon="-71.12304"/>
      <trkpt lat="42.31495" lon="-71.12305"/>
      <trkpt lat="42.31488" lon="-71.12302"/>
      <trkpt lat="42.31478" lon="-71.12294"/>
      <trkpt lat="42.31467" lon="-71.12278"/>
      <trkpt lat="42.31464" lon="-71.12269"/>
      <trkpt lat="42.31462" lon="-71.12247"/>
      <trkpt lat="42.31466" lon="-71.12214"/>
      <trkpt lat="42.31465" lon="-71.12202"/>
      <trkpt lat="42.31456" lon="-71.12184"/>
      <trkpt lat="42.31446" lon="-71.12172"/>
      <trkpt lat="42.31436" lon="-71.12146"/>
      <trkpt lat="42.31429" lon="-71.12106"/>
      <trkpt lat="42.31426" lon="-71.12095"/>
      <trkpt lat="42.3141" lon="-71.12063"/>
      <trkpt lat="42.31406" lon="-71.12054"/>
      <trkpt lat="42.31393" lon="-71.12015"/>
      <trkpt lat="42.31392" lon="-71.11997"/>
      <trkpt lat="42.31394" lon="-71.1198"/>
      <trkpt lat="42.31395" lon="-71.11976"/>
      <trkpt lat="42.31519" lon="-71.1181"/>
      <trkpt lat="42.3155" lon="-71.11763"/>
      <trkpt lat="42.3157" lon="-71.11746"/>
    </trkseg>
  </trk>
</gpx>