<?xml version="1.0" encoding="UTF-8"?>
<gpx version="1.1" creator="Forest Hills Runners" xmlns="http://www.topografix.com/GPX/1/1">
  <metadata>
    <name>Saturday Long Run Sampler</name>
  </metadata>
  <trk>
    <name>Saturday Long Run Sampler</name>
    <trkseg>
      <trkpt lat="42.30172" lon="-71.11382"></trkpt>
      <trkpt lat="42.30544" lon="-71.11282"></trkpt>
      <trkpt lat="42.30926" lon="-71.11144"></trkpt>
      <trkpt lat="42.31266" lon="-71.10972"></trkpt>
      <trkpt lat="42.31601" lon="-71.10816"></trkpt>
      <trkpt lat="42.31807" lon="-71.11036"></trkpt>
      <trkpt lat="42.31929" lon="-71.11284"></trkpt>
      <trkpt lat="42.31816" lon="-71.11572"></trkpt>
      <trkpt lat="42.31664" lon="-71.11772"></trkpt>
      <trkpt lat="42.31472" lon="-71.11918"></trkpt>
      <trkpt lat="42.31161" lon="-71.11786"></trkpt>
      <trkpt lat="42.30808" lon="-71.12246"></trkpt>
      <trkpt lat="42.30568" lon="-71.12708"></trkpt>
      <trkpt lat="42.30312" lon="-71.12732"></trkpt>
      <trkpt lat="42.30074" lon="-71.12638"></trkpt>
      <trkpt lat="42.29862" lon="-71.12462"></trkpt>
      <trkpt lat="42.29719" lon="-71.12213"></trkpt>
      <trkpt lat="42.29742" lon="-71.11923"></trkpt>
      <trkpt lat="42.29858" lon="-71.11658"></trkpt>
      <trkpt lat="42.30172" lon="-71.11382"></trkpt>
      <trkpt lat="42.30483" lon="-71.11852"></trkpt>
      <trkpt lat="42.30786" lon="-71.11984"></trkpt>
      <trkpt lat="42.31061" lon="-71.11906"></trkpt>
      <trkpt lat="42.31318" lon="-71.11652"></trkpt>
      <trkpt lat="42.31481" lon="-71.11403"></trkpt>
    </trkseg>
  </trk>
</gpx>
